,id,name,address,city,state,zip,county,phone,ownership,startdate,LAT,LON,hospital,rehab
0,36T180,CLEVELAND CLINIC - MAIN,9500 EUCLID AVENUE,CLEVELAND,OH,44195,Cuyahoga,(216) 445-0708,Non-profit,01/01/2011,41.505546, -81.6915,false,true
1,44T156,PARKRIDGE MEDICAL CENTER,2333 MCCALLIE AVE,CHATTANOOGA,TN,37404,Hamilton,(423) 493-6822,For profit,04/01/2003,35.045756, -85.308287,false,true
2,04R319,DEQUEEN MEDICAL CENTER,1306 WEST COLLIN RAYE DRIVE,DEQUEEN,AR,71832,Sevier,(870) 584-0299,For profit,10/01/2006,34.03776, -94.341528,false,true
3,05T248,SAM KARAS ARU - NATIVIDAD,1441 CONSTITUTION BOULEVARD,SALINAS,CA,93906,Monterey,(502) 596-6346,Government,07/01/2003,36.676795, -121.656421,false,true
4,313029,HEALTHSOUTH REHABILITATION HOSPITAL OF TOMS RIVER,14 HOSPITAL DRIVE,TOMS RIVER,NJ,8755,Ocean,(732) 844-3100,For profit,01/01/1985,39.953394, -74.198149,false,true
5,04T014,WHITE COUNTY MEDICAL CENTER SOUTH,1200 SOUTH MAIN STREET,SEARCY,AR,72143,White,(501) 278-3477,Non-profit,10/01/1995,35.250783, -91.736336,false,true
6,05T239,GLENDALE ADVENTIST MEDICAL CTR,1509 WILSON TERRACE,GLENDALE,CA,91206,Los Angeles,(818) 409-8071,Non-profit,01/01/1984,34.148138, -118.246437,false,true
7,36T084,AULTMAN WOODLAWN,2821 WOODLAWN NW,CANTON,OH,44708,Stark,(330) 479-4800,Non-profit,10/03/1996,40.797388, -81.377036,false,true
8,393053,"PENN STATE HERSHEY REHABILITATION, LLC",1135 OLD WEST CHOCOLATE AVE,HUMMELSTOWN,PA,17036,Dauphin,(717) 832-2600,For profit,08/10/2007,40.265323, -76.70785,false,true
9,32T004,GERALD CHAMPION REGIONAL MEDICAL CENTER,2669 NORTH SCENIC DRIVE,ALAMOGORDO,NM,88310,Otero,(575) 446-5518,Non-profit,07/01/2011,32.890216, -105.961256,false,true
10,11T043,THE REHAB CENTER AT ST. JOSEPHS,11705 MERCY BLVD.,SAVANNAH,GA,31419,Chatham,(502) 596-6346,Non-profit,07/01/1998,32.08059, -81.090103,false,true
11,29T012,ST. ROSE DOMINICAN HOSPITAL,102 E. LAKE MEAD DRIVE,HENDERSON,NV,89015,Clark,(702) 616-4554,Non-profit,09/01/2001,36.034095, -114.984455,false,true
12,053031,HEALTHSOUTH BAKERSFIELD REHABILITATION HOSPITAL,5001 COMMERCE DRIVE,BAKERSFIELD,CA,93309,Kern,(661) 323-5500,For profit,06/08/1990,35.373405, -119.018911,false,true
13,23T105,MCLAREN NORTHERN MICHIGAN,416 CONNABLE AVE.,PETOSKEY,MI,49770,Emmet,(502) 596-6346,Non-profit,01/01/2002,45.373985, -84.955578,false,true
14,09T001,THE GEORGE WASHINGTON UNIV HOSP,900 23RD ST NW,WASHINGTON,DC,20037,District Of Columbia,(202) 715-5271,For profit,07/01/1984,38.892062, -77.019912,false,true
15,18T132,LAKE CUMBERLAND REGIONAL HOSPITAL,305 LANGDON STREET,SOMERSET,KY,42501,Pulaski,(606) 678-3311,For profit,09/01/1991,37.092109, -84.60461,false,true
16,33T279,BUFFALO MERCY REHABILITATION UNIT,565 ABBOTT ROAD,BUFFALO,NY,14220,Erie,(716) 862-2118,Non-profit,01/01/1986,42.887691, -78.879374,false,true
17,14T252,NORTHWEST COMMUNITY HEALTHCARE,800 WEST CENTRAL ROAD,ARLINGTON HEIGHTS,IL,60005,Cook,(502) 596-6346,Non-profit,10/01/2015,42.08296, -87.98051,false,true
18,14T276,LOYOLA UNIVERSITY MEDICAL CENTER,2160 SOUTH FIRST AVENUE,MAYWOOD,IL,60153,Cook,(708) 216-9000,Non-profit,03/21/2000,41.886254, -87.839146,false,true
19,07T006,THE STAMFORD HOSPITAL,ONE HOSPITAL PLAZA PO BOX 9317,STAMFORD,CT,6904,Fairfield,(203) 276-4135,Non-profit,10/01/2001,41.051924, -73.539475,false,true
20,37T034,MCALESTER REGIONAL HEALTH CENTER,ONE CLARK BASS BLVD.,MCALESTER,OK,74501,Pittsburg,(918) 421-8123,Non-profit,07/01/2006,34.933784, -95.766566,false,true
21,39T263,LEHIGH VALLEY - MUHLENBERG,2545 SCHOENERSVILLE RD,BETHLEHEM,PA,18017,Lehigh,(610) 402-7062,Non-profit,07/01/2017,40.632222, -75.407938,false,true
22,15T002,METHODIST NORTHLAKE,600 GRANT ST,GARY,IN,46402,Lake,(219) 886-4633,Non-profit,01/01/1984,41.601967, -87.349684,false,true
23,33T160,STATEN ISLAND UNIVERSITY HOSP,475 SEAVIEW AVENUE,STATEN ISLAND,NY,10305,Richmond,(718) 226-8027,Non-profit,01/01/1985,40.643498, -74.076203,false,true
24,34T147,BRYANT T. ALDRIDGE REHABILITATION CENTER,2400 MEDPARK DRIVE,ROCKY MOUNT,NC,27804,Nash,(252) 962-3709,Government,01/01/2016,35.939032, -77.800239,false,true
25,03T010,CARONDELET ST. MARY'S HOSPITAL,1601 W. ST. MARY'S ROAD,TUCSON,AZ,85745,Pima,(520) 872-6244,Non-profit,07/01/1984,32.221878, -110.971225,false,true
26,33T013,ALBANY MEDICAL CENTER HOSP,43 NEW SCOTLAND AVENUE,ALBANY,NY,12208,Albany,(518) 262-2409,Non-profit,01/01/1986,42.651242, -73.755418,false,true
27,11T024,THE REHAB CENTER AT CANDLER,5353 REYNOLDS ST.,SAVANNAH,GA,31405,Chatham,(502) 596-6346,Non-profit,07/01/1998,32.08059, -81.090103,false,true
28,11T038,JOHN D. ARCHBOLD MEMORIAL HOSPITAL,GORDON AVE. @ MIMOSA DRIVE P.O. BOX 1018,THOMASVILLE,GA,31792,Thomas,(229) 228-8063,Non-profit,10/01/1994,30.835525, -83.978387,false,true
29,443028,VANDERBILT STALLWORTH REHAB HOSPITAL,2201 CHILDRENS WAY,NASHVILLE,TN,37212,Davidson,(615) 320-7600,For profit,11/09/1993,36.166687, -86.779932,false,true
30,19T046,TOURO REHABILITATION CENTER,1401 FOUCHER STREET,NEW ORLEANS,LA,70115,Orleans,(504) 897-8055,Non-profit,01/01/2010,29.950621, -90.074948,false,true
31,15T011,MARION ARU,441 N. WABASH AVENUE,MARION,IN,46952,Grant,(502) 596-6346,Non-profit,07/01/2005,40.551869, -85.668138,false,true
32,19T036,OCHSNER REHABILITATION CENTER,1201 S. CLEARVIEW PKWY.,JEFFERSON,LA,70121,Jefferson,(504) 736-4900,Non-profit,05/01/1986,29.962906, -90.154911,false,true
33,42T023,BON SECOUR ST. FRANCIS INPATIENT REHAB CENTER,1 ST. FRANCIS DRIVE,GREENVILLE,SC,29601,Greenville,(864) 255-1954,Non-profit,01/01/1991,34.850746, -82.398964,false,true
34,05T281,ALHAMBRA HOSPITAL MEDICAL CENTER,100 S. RAYMOND AVENUE,ALHAMBRA,CA,91801,Los Angeles,(626) 458-4767,For profit,07/01/1999,34.095162, -118.126842,false,true
35,05T039,ENLOE REHABILITATION CENTER,1531 ESPLANADE,CHICO,CA,95926,Butte,(530) 332-6138,Non-profit,07/01/1998,39.728956, -121.838779,false,true
36,23R334,HERRICK MEMORIAL HOSPITAL,500 EAST POTTAWATAMIE ST.,TECUMSEH,MI,49221,Lenawee,(517) 424-3387,Government,12/31/2005,42.00405, -83.945208,false,true
37,05T457,ST MARYS MEDICAL CENTER,450 STANYAN ST.,SAN FRANCISCO,CA,94117,San Francisco,(415) 668-1000,Non-profit,07/01/2005,37.78008, -122.420168,false,true
38,14T011,HERRIN HOSPITAL,HERRIN HOSPITAL,HERRIN,IL,62948,Williamson,(618) 942-2171,Non-profit,04/01/2000,37.803622, -89.028734,false,true
39,283025,MADONNA REHABILITATION HOSPITAL,5401 SOUTH ST,LINCOLN,NE,68506,Lancaster,(402) 413-3000,Non-profit,07/01/1994,40.813599, -96.70261,false,true
40,14T065,PAULSON REHAB NETWORK INPATIENT REHABILITATION UNI,5101 SOUTH WILLOW SPRINGS RD,LAGRANGE,IL,60525,Cook,(708) 245-6521,Non-profit,01/01/2015,41.812398, -87.869529,false,true
41,26T040,COX HEALTH,1000 E WALNUT LAWN,SPRINGFIELD,MO,65807,Greene,(502) 596-6346,Non-profit,10/01/2001,37.215521, -93.292361,false,true
42,05T580,LA PALMA INTERCOMMUNITY HOSPITAL,7901 WALKER STREET,LA PALMA,CA,90623,Orange,(714) 670-6209,For profit,01/01/1984,33.849902, -118.037303,false,true
43,043031,ST VINCENT REHABILITATION HOSPITAL,2201 WILDWOOD AVENUE,SHERWOOD,AR,72120,Pulaski,(501) 834-1800,For profit,10/01/1990,34.825805, -92.231325,false,true
44,05T573,EISENHOWER MEDICAL CENTER,39-000 BOB HOPE DRIVE,RANCHO MIRAGE,CA,92270,Riverside,(760) 773-1308,For profit,07/01/2011,33.742298, -116.410904,false,true
45,33T196,CONEY ISLAND HOSPITAL,2601 OCEAN PARKWAY,BROOKLYN,NY,11235,Kings,(718) 616-4052,Government,07/01/2009,40.692529, -73.990996,false,true
46,34T115,FIRSTHEALTH MOORE REGIONAL HOSPITAL,155 MEMORIAL DRIVE,PINEHURST,NC,28374,Moore,(910) 715-1000,Non-profit,10/01/2016,35.193544, -79.473735,false,true
47,39T163,ARMSTRONG COUNTY MEMORIAL HOSPITAL,ONE NOLTE DRIVE,KITTANNING,PA,16201,Armstrong,(724) 543-8215,Non-profit,07/01/2002,40.813469, -79.520951,false,true
48,23T301,OAKLAND REGIONAL HOSPITAL,22401 FOSTER WINTER DRIVE,SOUTHFIELD,MI,48075,Oakland,(248) 423-5129,For profit,01/01/2007,42.477952, -83.240756,false,true
49,34T131,CAROLINAEAST REHABILITATION HOSPITAL,2000 NEUSE BLVD.,NEW BERN,NC,28561,Craven,(252) 634-6001,Government,10/01/2016,35.108318, -77.04612,false,true
50,393038,MAGEE REHABILITATION HOSPITAL,SIX FRANKLIN PLAZA,PHILADELPHIA,PA,19102,Philadelphia,(215) 587-3034,Non-profit,07/01/1984,39.951061, -75.16562,false,true
51,183026,CARDINAL HILL REHABILITATION HOSPITAL,2050 VERSAILLES ROAD,LEXINGTON,KY,40504,Fayette,(859) 254-5701,Non-profit,09/01/1984,38.046356, -84.497021,false,true
52,31T019,ST. JOSEPHS WAYNE HOSPITAL,224 HAMBURG TPK,WAYNE,NJ,7470,Passaic,(973) 754-2481,Non-profit,01/01/2010,40.927178, -74.231046,false,true
53,42T070,ACUTE REHAB UNIT AT TUOMEY HEALTHCARE SYSTEM,129 NORTH WASHINGTON STREET,SUMTER,SC,29150,Sumter,(502) 596-6346,Non-profit,08/27/2003,33.930281, -80.367464,false,true
54,11T006,REHAB MEDICINE ST. MARYS ATHENS,1230 BAXTER STREET,ATHENS,GA,30606,Clarke,(502) 596-6346,Non-profit,01/01/2004,33.957412, -83.376798,false,true
55,14T182,ADVOCATE ILLINOIS MASONIC MEDICAL CENTER,836 W. WELLINGTON STREET,CHICAGO,IL,60657,Cook,(773) 293-7523,Non-profit,11/01/1983,41.883229, -87.632398,false,true
56,05T243,DESERT REGIONAL MEDICAL CENTER,1150  N.  INDIAN CANYON DR,PALM SPRINGS,CA,92263,Riverside,(760) 323-6340,For profit,05/20/2001,33.830302, -116.546843,false,true
57,363040,REHABILITATION HOSPITAL OF NORTHWEST OHIO LLC,1455 WEST MEDICAL LOOP,TOLEDO,OH,43614,Lucas,(419) 214-6600,For profit,04/29/2016,41.655298, -83.535717,false,true
58,16T110,UNITYPOINT HEALTH ALLEN HOSP,1825 LOGAN AVE,WATERLOO,IA,50703,Black Hawk,(319) 235-3418,Non-profit,01/01/2012,42.493469, -92.34364,false,true
59,033032,HEALTHSOUTH VALLEY OF THE SUN REHABILITATION,13460 NORTH 67TH AVENUE,GLENDALE,AZ,85304,Maricopa,(623) 878-8800,For profit,08/26/1998,33.539812, -112.186106,false,true
60,053040,HEALTHSOUTH REHABILITATION HOSPITAL,1303 MABLE AVENUE,MODESTO,CA,95355,Stanislaus,(209) 857-3400,Non-profit,12/05/2016,37.640735, -121.002435,false,true
61,36T137,HANNA HOUSE INPATIENT REHAB CENTER,11100 EUCLID AVENUE,CLEVELAND,OH,44106,Cuyahoga,(216) 844-1421,Non-profit,01/01/1997,41.505546, -81.6915,false,true
62,04T039,ARKANSAS METHODIST HOSPITAL,900 WEST KINGS HIGHWAY,PARAGOULD,AR,72451,Greene,(502) 596-6346,Non-profit,07/01/1997,36.052644, -90.505164,false,true
63,13T002,ST. LUKE'S MAGIC VALLEY REGIONAL MEDICAL CENTER,P.O BOX 409 775 POLE LINE ROAD WEST SUITE,TWIN FALLS,ID,83301,Twin Falls,(208) 814-3725,Non-profit,10/01/2007,42.563181, -114.460278,false,true
64,14T067,SAINT FRANCIS MEDICAL CENTER,530 N.E. GLEN OAK AVE,PEORIA,IL,61637,Peoria,(309) 655-5750,Non-profit,10/01/1983,40.694592, -89.590362,false,true
65,143026,SHIRLEY RYAN ABILITYLAB,355 E ERIE ST,CHICAGO,IL,60611,Cook,(312) 238-3305,Non-profit,09/01/1984,41.883229, -87.632398,false,true
66,25T152,MISSISSIPPI METHODIST REHABILITATION CENTER,1350 EAST WOODROW WILSON,JACKSON,MS,39216,Hinds,(601) 364-3365,Non-profit,07/01/2002,32.302897, -90.183488,false,true
67,37T047,MERCY HOSPITAL ARDMORE,1011 14TH AVE NW,ARDMORE,OK,73401,Carter,(580) 220-6372,Non-profit,02/19/2014,34.172599, -97.128382,false,true
68,05T236,SIMI VALLEY HOSPITAL  &  HEALTH CARE SVC,2975 NORTH SYCAMORE DRIVE,SIMI VALLEY,CA,93065,Ventura,(805) 955-6000,Non-profit,01/01/1984,34.286321, -118.712804,false,true
69,143028,VAN MATRE HEALTHSOUTH REHABILITATION HOSPITAL,950 S MULFORD RD,ROCKFORD,IL,61108,Winnebago,(815) 381-8548,For profit,04/11/2002,42.266802, -89.088377,false,true
70,10T063,MORTON PLANT NORTH BAY HOSPITAL,6600 MADISON STREET,NEW PORT RICHEY,FL,34652,Pasco,(727) 841-4676,Non-profit,01/18/1989,28.250201, -82.714075,false,true
71,17T023,ST. CATHERINE HOSPITAL,401 EAST SPRUCE ST.,GARDEN CITY,KS,67846,Finney,(502) 596-6346,Non-profit,07/01/2015,37.974981, -100.858646,false,true
72,29T046,SPRING VALLEY MEDICAL CENTER,5400 S. RAINBOW BLVD.,LAS VEGAS,NV,89118,Clark,(702) 853-3422,For profit,01/01/2006,36.169202, -115.140597,false,true
73,39T107,UPMC PASSAVANT - THE REHAB CENTER,9100 BABCOCK BLVD.,PITTSBURGH,PA,15237,Allegheny,(412) 367-7547,Non-profit,07/01/2002,40.442169, -79.994945,false,true
74,19T125,ST. FRANCIS MEDICAL CENTER ACUTE REHAB,309 JACKSON STREET,MONROE,LA,71201,Ouachita,(318) 966-7150,Non-profit,07/01/2002,32.500759, -92.111225,false,true
75,36R319,SELBY GENERAL HOSPITAL,1106 COLEGATE DR,MARIETTA,OH,45750,Washington,(740) 568-5351,Non-profit,10/01/2015,39.419998, -81.45731,false,true
76,26T085,SAINT JOSEPH MEDICAL CENTER,1000 CARONDELET DRIVE,KANSAS CITY,MO,64114,Jackson,(816) 943-2576,Non-profit,07/01/1987,39.099792, -94.578559,false,true
77,29T021,VALLEY HOSP MED CTR REHAB,620 SHADOW LANE,LAS VEGAS,NV,89106,Clark,(702) 388-7809,For profit,01/01/2012,36.169202, -115.140597,false,true
78,323028,LOVELACE UNM REHABILITATION HOSPITAL,505 ELM STREET NE,ALBUQUERQUE,NM,87102,Bernalillo,(505) 727-4700,For profit,12/27/1988,35.084248, -106.649241,false,true
79,083026,HEALTHSOUTH REHABILITATION HOSPITAL OF MIDDLETOWN,250 EAST HAMPDEN ROAD,MIDDLETOWN,DE,19709,New Castle,(484) 889-9815,For profit,01/13/2015,39.449703, -75.716679,false,true
80,37T056,COMANCHE COUNTY HOSPITAL AUTHORITY,3401 W. GORE BLVD.,LAWTON,OK,73505,Comanche,(580) 355-8620,Government,07/01/2006,34.606378, -98.396817,false,true
81,36T079,KETTERING MEDICAL CENTER,INPATIENT REHAB UNIT,KETTERING,OH,45429,Montgomery,(937) 395-8840,Non-profit,01/01/2002,39.689571, -84.167354,false,true
82,33T240,HARLEM HOSPITAL CENTER,"506 LENOX AVENUE, MLK 3RD FLOOR",NEW YORK,NY,10037,New York,(212) 939-4414,Government,01/01/1985,40.713054, -74.007228,false,true
83,363026,HILLSIDE REHABILITATION HOSPITAL,8747 SQUIRES LANE NE,WARREN,OH,44484,Trumbull,(330) 841-3700,Non-profit,01/01/1997,41.236121, -80.816186,false,true
84,053038,TOTALLY KIDS REHABILITATION HOSPITAL,1720 MOUNTAIN VIEW AVENUE,LOMA LINDA,CA,92354,San Bernardino,(909) 796-6915,For profit,04/24/2015,34.048261, -117.261123,false,true
85,39T013,EVANGELICAL COMMUNITY HOSPITAL,ONE HOSPITAL DRIVE,LEWISBURG,PA,17837,Union,(570) 522-2000,Non-profit,07/01/2003,40.966311, -76.884932,false,true
86,38T017,LEGACY GOOD SAMARITAN HOSP  &  MED CTR,1015 NW 22ND AVENUE LEGACY GOOD SAMARITAN MED CTR,PORTLAND,OR,97210,Multnomah,(503) 413-6477,Non-profit,07/01/1984,45.516018, -122.681425,false,true
87,05T100,SHARP MEMORIAL REHABILITATION CENTER,2999 HEALTH CENTER DRIVE,SAN DIEGO,CA,92123,San Diego,(858) 939-3152,Non-profit,10/01/1983,32.71576, -117.163817,false,true
88,14T127,BROMENN REGIONAL MEDICAL CENTER,BROMENN REGIONAL MEDICAL CENTE,BLOOMINGTON,IL,61702,McLean,(309) 268-1400,Non-profit,07/01/1993,40.477092, -88.993221,false,true
89,39T111,HOSPITAL OF THE UNIVERSITY OF PENNSYLVANIA,1800 LOMBARD STREET,PHILADELPHIA,PA,19146,Philadelphia,(215) 893-6532,Non-profit,07/01/1984,39.951061, -75.16562,false,true
90,14T029,RUSH-COPLEY MEDICAL CENTER,2000 WEST OGDEN AVE.,AURORA,IL,60506,Kane,(630) 978-4877,Non-profit,06/28/1999,41.75527, -88.309507,false,true
91,37T025,MUSKOGEE REGIONAL REHABILITATION CENTER,300 ROCKEFELLER DRIVE,MUSKOGEE,OK,74401,Muskogee,(502) 596-6346,For profit,09/26/2005,35.747864, -95.369421,false,true
92,453092,SOUTH TEXAS REHABILTATION HOSPITAL,425 EAST ALTON GLOOR BLVD,BROWNSVILLE,TX,78526,Cameron,(956) 554-6000,For profit,05/16/2005,25.903046, -97.498884,false,true
93,44T133,ST. THOMAS MIDTOWN INPATIENT REHAB UNIT,2000 CHURCH STREET,NASHVILLE,TN,37236,Davidson,(615) 284-5662,Non-profit,07/01/1992,36.166687, -86.779932,false,true
94,07T022,YALE NEW HAVEN HOSPITAL,300 SEASIDE AVENUE,MILFORD,CT,6460,New Haven,(203) 867-8307,Non-profit,09/12/2012,41.224276, -73.057564,false,true
95,03T002,BANNER UNIVERSITY MEDICINE,1012 E WILLETTA ST,PHOENIX,AZ,85006,Maricopa,(602) 239-4079,Non-profit,01/01/1984,33.448204, -112.072585,false,true
96,393055,ST MARY REHABILITATION HOSPITAL,1208 LANGHORNE-NEWTOWN ROAD,LANGHORNE,PA,19047,Bucks,(267) 688-0711,For profit,07/11/2014,40.176768, -74.917008,false,true
97,24T047,ST LUKES HOSPITAL,915 EAST FIRST ST,DULUTH,MN,55805,St. Louis,(218) 249-5410,Non-profit,12/30/1999,46.782882, -92.105457,false,true
98,193028,BATON ROUGE REHAB HOSPITAL,8595 UNITED PLAZA BLVD,BATON ROUGE,LA,70809,East Baton Rouge,(225) 927-0567,For profit,06/05/1989,30.443319, -91.187488,false,true
99,14T158,MERCY HOSPITAL REHABILITATION UNIT,2525 SOUTH MICHIGAN AVE,CHICAGO,IL,60616,Cook,(502) 596-6346,Non-profit,07/01/1984,41.883229, -87.632398,false,true
100,143025,SCHWAB REHABILITATION HOSPITAL,1401 S CALIFORNIA BLVD,CHICAGO,IL,60608,Cook,(773) 522-2010,Non-profit,07/01/1984,41.883229, -87.632398,false,true
101,423029,ANMED HEALTHSOUTH REHABILITATION HOSPITAL,1 SPRINGBACK WAY,ANDERSON,SC,29621,Anderson,(864) 716-2600,For profit,02/26/2003,34.49987, -82.651189,false,true
102,403026,"HEALTHSOUTH REHABILITATION HOSPITAL OF MANATI, INC",CARR 2 K47 7,ALTS DE MANATI,PR,674,Manati,(787) 621-3800,For profit,05/29/2008,18.26984, -67.014942,false,true
103,393039,HEALTHSOUTH NITTANY VALLEY REHABILITATION HOSPITAL,550 WEST COLLEGE AVENUE,PLEASANT GAP,PA,16823,Centre,(814) 359-3421,For profit,06/01/1985,40.867888, -77.746578,false,true
104,05T382,CITRUS VALLEY MEDICAL CENTER-VQ CAMPUS,1115 S. SUNSET AVENUE,WEST COVINA,CA,91790,Los Angeles,(626) 962-4011,For profit,01/01/2008,34.068896, -117.938239,false,true
105,10T248,LARGO MEDICAL CENTER,2025 INDIAN ROCKS ROAD,LARGO,FL,33774,Pinellas,(727) 586-7146,For profit,03/01/2011,27.91829, -82.774936,false,true
106,27T023,RIM AT COMMUNITY MEDICAL CENTER,2827 FORT MISSOULA ROAD,MISSOULA,MT,59804,Missoula,(406) 327-4321,Non-profit,02/01/2003,46.872129, -113.994017,false,true
107,293026,HEALTHSOUTH REHABILITATION HOSPITAL OF LAS VEGAS,1250 S VALLEY VIEW BLVD,LAS VEGAS,NV,89102,Clark,(702) 877-8898,For profit,02/04/1993,36.169202, -115.140597,false,true
108,19T167,MERCY REGIONAL MEDICAL CENTER,800 E MAIN ST,VILLE PLATTE,LA,70586,Evangeline,(337) 360-9714,For profit,10/01/2009,30.688694, -92.278353,false,true
109,31T029,LOURDES REGIONAL REHABILITATION CENTER,1600 HADDON AVENUE,CAMDEN,NJ,8103,Camden,(856) 757-3699,Non-profit,01/01/1998,39.945208, -75.118833,false,true
110,393026,HEALTHSOUTH READING REHABILITATION HOSPITAL,1623 MORGANTOWN ROAD,READING,PA,19607,Berks,(610) 796-6000,For profit,01/01/1984,40.336919, -75.921965,false,true
111,22T066,WELDON CENTER FOR REHABILITATION,271 CAREW STREET,SPRINGFIELD,MA,1102,Hampden,(413) 748-6941,Non-profit,10/01/1998,42.102051, -72.585757,false,true
112,14T280,TRINITY MEDICAL CENTER,2701-17TH STREET,ROCK ISLAND,IL,61201,Rock Island,(309) 779-3129,Non-profit,06/01/1984,41.472348, -90.583568,false,true
113,14T289,THE REHABILITATION CENTER ANDERSON HOSPITAL,6800 STATE ROUTE 162,MARYVILLE,IL,62062,Madison,(502) 596-6346,Non-profit,01/01/2005,38.726038, -89.956563,false,true
114,39T258,ST MARY MEDICAL CENTER,1201 LANGHORNE - NEWTOWN RD,LANGHORNE,PA,19047,Bucks,(267) 688-0711,Non-profit,07/01/1985,40.176768, -74.917008,false,true
115,10T258,DELRAY MEDICAL CENTER,5352 LINTON BLVD,DELRAY BEACH,FL,33484,Palm Beach,(561) 498-4440,For profit,01/01/2008,26.461634, -80.073107,false,true
116,443029,HEALTHSOUTH REHABILITATION HOSPITAL OF MEMPHIS,1282 UNION AVENUE,MEMPHIS,TN,38104,Shelby,(901) 722-2000,For profit,07/08/1994,35.143378, -90.052136,false,true
117,363041,TRIHEALTH REHABILITATION HOSPITAL LLC,2155 DANA AVENUE,CINCINNATI,OH,45207,Hamilton,(513) 601-0600,For profit,06/07/2016,39.104427, -84.513808,false,true
118,033038,"GLOBALREHAB - SCOTTSDALE, LLC",8850 EAST PIMA CENTER PARKWAY,SCOTTSDALE,AZ,85258,Maricopa,(717) 975-4503,For profit,05/09/2013,33.494909, -111.926061,false,true
119,313036,HEALTHSOUTH REHABILITATION HOSPITAL OF VINELAND,1237 W SHERMAN AVENUE,VINELAND,NJ,8360,Cumberland,(856) 696-7100,For profit,04/03/2003,39.48618, -75.02578,false,true
120,423025,HEALTHSOUTH REHABILITATION HOSPITAL OF COLUMBIA,2935 COLONIAL DRIVE,COLUMBIA,SC,29203,Richland,(803) 254-7777,For profit,01/12/1989,34.009286, -81.037094,false,true
121,26T025,HANNIBAL REGIONAL HEALTHCARE SYSTEM,6000 HOSPITAL DRIVE,HANNIBAL,MO,63401,Marion,(502) 596-6346,Non-profit,10/01/2015,39.704996, -91.385386,false,true
122,05T305,ALTA BATES SUMMIT MEDICAL CENTER,350 HAWTHORNE AVENUE 2ND FLOOR,OAKLAND,CA,94609,Alameda,(510) 869-6329,Non-profit,01/01/1984,37.804828, -122.27248,false,true
123,193050,TRI PARISH REHABILITATION HOSPITAL L L C,8088 HAWKS RD,LEESVILLE,LA,71446,Vernon,(337) 462-8880,Non-profit,09/09/1998,31.143259, -93.263776,false,true
124,153042,LAFAYETTE REGIONAL REHABILITATION HOSPITAL,950 PARK EAST BLVD,LAFAYETTE,IN,47905,Tippecanoe,(765) 447-4040,For profit,04/18/2013,40.417328, -86.890617,false,true
125,33T234,WESTCHESTER MEDICAL CENTER,GRASSLANDS ROAD,VALHALLA,NY,10595,Westchester,(914) 493-5495,Government,01/01/1997,41.080281, -73.776807,false,true
126,15T046,TERRE HAUTE REGIONAL HOSPITAL,3901 SOUTH 7TH STREET,TERRE HAUTE,IN,47802,Vigo,(812) 230-1547,For profit,09/01/2006,39.466479, -87.414045,false,true
127,34T008,CENTER FOR INPATIENT REHAB,500 LAUCHWOOD DR,LAURINBURG,NC,28352,Scotland,(910) 291-7327,Non-profit,10/01/2015,34.774167, -79.462818,false,true
128,41T007,RHODE ISLAND HOSPITAL,INPATIENT REHAB UNIT,PROVIDENCE,RI,2903,Providence,(401) 639-0054,Non-profit,10/01/2013,41.824461, -71.412747,false,true
129,24T080,FAIRVIEW HEALTH SERVICES,2450 RIVERSIDE AVENUE,MINNEAPOLIS,MN,55454,Hennepin,(612) 273-9199,Non-profit,01/01/1985,44.977479, -93.264346,false,true
130,103038,HEALTHSOUTH REHABILITATION HOSPITAL OF MIAMI,20601 OLD CUTLER RD,MIAMI,FL,33189,Miami-Dade,(305) 251-3800,For profit,11/09/1994,25.775084, -80.194702,false,true
131,26T057,CAMERON REGIONAL MEDICAL CTR,1600 E EVERGREEN,CAMERON,MO,64429,Clinton,(816) 649-3336,Non-profit,10/01/2002,39.741205, -94.23583,false,true
132,04T015,MENA REHABILITATION CENTER,311 N. MORROW,MENA,AR,71953,Polk,(479) 243-2324,Government,01/01/1999,34.583076, -94.23539,false,true
133,25T082,DELTA REGIONAL MEDICAL CENTER,1400 E UNION STREET,GREENVILLE,MS,38701,Washington,(502) 596-6346,Government,10/01/1984,33.399438, -91.053463,false,true
134,37T018,JANE PHILLIPS MEMORIAL MEDICAL CENTER,3500 FRANK PHILLIPS BOULEVARD,BARTLESVILLE,OK,74006,Washington,(918) 333-7200,Non-profit,10/01/2005,36.75067, -95.944392,false,true
135,18T130,BAPTIST HEALTH - LOUISVILLE ACUTE REHAB PROGRAM,4002 KRESGE WAY 4002 KRESGE WAY 4TH FLR,LOUISVILLE,KY,40207,Jefferson,(502) 896-7456,Non-profit,09/01/1988,38.256078, -85.751569,false,true
136,24T100,SANFORD BEMIDJI MEDICAL CENTER,1300 ANNE ST NW,BEMIDJI,MN,56601,Beltrami,(218) 333-5695,Non-profit,03/11/2016,47.472647, -94.879661,false,true
137,33T241,UPSTATE MEDICAL UNIVERSITY,750 E ADAMS ST.,SYRACUSE,NY,13210,Onondaga,(315) 492-5594,Government,01/01/1986,43.047945, -76.147448,false,true
138,23T015,THREE RIVERS HEALTH REHAB PAVILION,701 SOUTH HEALTH PARKWAY,THREE RIVERS,MI,49093,St. Joseph,(269) 273-9795,Government,01/01/1992,41.943998, -85.632764,false,true
139,39T044,THE READING HOSPITAL AND MEDICAL CENTER,2802 PAPERMILL RD,WYOMISSING,PA,19610,Berks,(484) 628-2388,Non-profit,07/01/1999,40.329251, -75.967775,false,true
140,05T668,LAGUNA HONDA HOSPITAL,375 LAGUNA HONDA BLVD.,SAN FRANCISCO,CA,94116,San Francisco,(415) 682-5967,Government,03/28/1995,37.78008, -122.420168,false,true
141,44T059,THE REHAB CENTER AT COOKEVILLE RMC,215 WEST 6TH STREET,COOKEVILLE,TN,38501,Putnam,(502) 596-6346,Government,07/01/2003,36.156589, -85.501014,false,true
142,11T192,EASTSIDE MEDICAL CENTER,2160 FOUNTAIN DRIVE,SNELLVILLE,GA,30078,Gwinnett,(770) 985-3885,For profit,09/01/2005,33.85751, -84.020116,false,true
143,25T019,MEMORIAL HOSPITAL AT GULFPORT,4500 13TH STREET,GULFPORT,MS,39502,Harrison,(228) 867-4179,Government,10/01/1999,30.369834, -89.091582,false,true
144,06T024,UNIVERSITY OF COLORADO HOSP,12401 E 17TH AVE CMS F-728,AURORA,CO,80045,Denver,(720) 848-3800,Government,07/01/2000,39.711213, -104.819356,false,true
145,363036,UNIVERSITY HOSPITALS REHABILITATION HOSPITAL,23333 HARVARD ROAD,BEACHWOOD,OH,44122,Cuyahoga,(216) 593-2200,For profit,04/29/2013,41.479306, -81.49784,false,true
146,26T027,RESEARCH MEDICAL CENTER,2 NORTH REHABILITATION UNIT,KANSAS CITY,MO,64132,Benton,(816) 276-4664,For profit,01/01/1984,39.099792, -94.578559,false,true
147,39T194,NEXT STEP ACUTE REHABILITATION,211 N 12TH STREET,LEHIGHTON,PA,18235,Carbon,(502) 596-6346,Non-profit,07/01/1999,40.831681, -75.70839,false,true
148,193067,REHABILITATION HOSPITAL OF JENNINGS,"1 HOSPITAL DRIVE, SUITE 101",JENNINGS,LA,70546,Jefferson Davis,(337) 821-5353,Physician,07/02/2001,30.221064, -92.658659,false,true
149,16T045,ST. LUKES HOSPITAL,1026 A AVENUE NE,CEDAR RAPIDS,IA,52402,Linn,(319) 369-8096,Non-profit,09/01/1985,41.978122, -91.669808,false,true
150,26T094,COX MEDICAL CENTER - BRANSON,251 SKAGGS ROAD,BRANSON,MO,65616,Taney,(502) 596-6346,Non-profit,05/01/2005,36.644159, -93.217008,false,true
151,213028,HEALTHSOUTH CHESAPEAKE REHABILITATION HOSPITAL,220 TILGHMAN ROAD,SALISBURY,MD,21804,Wicomico,(410) 546-4600,For profit,04/26/1993,38.365568, -75.599181,false,true
152,01T114,MEDICAL WEST REHAB UNIT,995 9TH AVENUE SOUTHWEST,BESSEMER,AL,35022,Jefferson,(205) 481-7287,Government,07/01/1998,33.405628, -86.961749,false,true
153,203025,"HEALTHSOUTH/MAINE MEDICAL CENTER, LLC","335 BRIGHTON AVENUE, UNIT 201",PORTLAND,ME,4102,Cumberland,(207) 775-4000,For profit,12/04/1986,43.659218, -70.256519,false,true
154,03T055,KINGMAN REGIONAL MEDICAL CENTER,3269 STOCKTON HILL RD.,KINGMAN,AZ,86401,Mohave,(928) 263-4632,Government,07/01/2002,35.188579, -114.053105,false,true
155,36T172,MERCY REGIONAL MEDICAL CENTER,3700 KOLBE ROAD,LORAIN,OH,44053,Lorain,(440) 960-3952,Non-profit,01/01/1984,41.468267, -82.178231,false,true
156,293032,HEALTHSOUTH REHABILITIATION HOSPITAL OF HENDERSON,10301 JEFFREYS ST,HENDERSON,NV,89052,Clark,(702) 939-9400,For profit,02/05/2002,36.034095, -114.984455,false,true
157,05T063,HOLLYWOOD PRESBYTERIAN MEDICAL CENTER,1300 N. VERMONT AVENUE,LOS ANGELES,CA,90027,Los Angeles,(213) 413-3000,For profit,07/01/1992,34.052238, -118.243344,false,true
158,17T200,VIA CHRISTI REHAB UNIT,14800 W ST TERESA,WICHITA,KS,67235,Sedgwick,(316) 634-3449,Non-profit,08/01/2012,37.686024, -97.335571,false,true
159,19T064,OUR LADY OF THE LAKE REGIONAL MEDICAL CENTER,5000 HENNESSY BLVD,BATON ROUGE,LA,70808,East Baton Rouge,(225) 765-7841,Non-profit,07/01/1986,30.443319, -91.187488,false,true
160,18T093,BAPTIST HEALTH MADISONVILLE,900 HOSPITAL DRIVE,MADISONVILLE,KY,42431,Hopkins,(270) 825-5501,Non-profit,01/01/1998,37.328179, -87.4988,false,true
161,393027,HEALTHSOUTH HARMARVILLE REHABILITATION HOSPITAL,320 GUYS RUN ROAD,PITTSBURGH,PA,15238,Allegheny,(412) 828-1300,For profit,07/01/1984,40.442169, -79.994945,false,true
162,33T226,UNITY HOSPITAL,1555 LONG POND RD,ROCHESTER,NY,14626,Monroe,(585) 368-3002,Non-profit,01/01/1997,43.155708, -77.612547,false,true
163,39T160,CANONSBURG GENERAL HOSPITAL,100 MEDICAL BOULEVARD,CANONSBURG,PA,15317,Washington,(724) 745-3908,Non-profit,07/01/2000,40.262711, -80.187689,false,true
164,403027,MULTY MEDICAL FACILITIES CORPORATION,MUNOZ RIVERA AVENUE 402,SAN JUAN,PR,918,San Juan,(787) 705-8677,For profit,01/01/2016,18.446344, -66.07558,false,true
165,393040,HEALTHSOUTH REHAB HOSP OF ALTOONA,2005 VALLEY VIEW BOULEVARD,ALTOONA,PA,16602,Blair,(814) 944-3535,For profit,01/06/1986,40.516403, -78.401444,false,true
166,05T262,UCLA MED CTR,760 WESTWOOD PLAZA,LOS ANGELES,CA,90095,Los Angeles,(310) 825-5708,Government,07/01/1996,34.052238, -118.243344,false,true
167,26T068,BOONE HOSPITAL CENTER,1600 E. BROADWAY,COLUMBIA,MO,65201,Boone,(573) 815-7050,Non-profit,01/13/2003,38.951551, -92.328594,false,true
168,17R384,NEWMAN REGIONAL HEALTH,1201 W. 12TH,EMPORIA,KS,66801,Lyon,(620) 343-6800,Government,08/01/2014,38.412238, -96.200172,false,true
169,10T012,THE REHABILITATION HOSPITAL,2776 CLEVELAND AVE,FORT MYERS,FL,33902,Lee,(239) 343-3592,Government,10/01/1995,26.614149, -81.825769,false,true
170,15T088,BENNETT REHABILITATION CENTER,2015 JACKSON STR,ANDERSON,IN,46016,Madison,(765) 608-2661,Non-profit,06/01/1989,40.107884, -85.67821,false,true
171,453054,HEALTHSOUTH REHAB HOSPITAL OF WICHITA FALLS,3901 ARMORY ROAD,WICHITA FALLS,TX,76301,Wichita,(940) 720-5700,For profit,07/09/1992,33.90976, -98.500854,false,true
172,33T169,MOUNT SINAI BETH ISRAEL,FIRST AVE @16TH STREET 3 LINSKY,NEW YORK,NY,10003,New York,(212) 420-2696,Non-profit,01/01/1985,40.713054, -74.007228,false,true
173,033040,DIGNITY HEALTH EAST VALLEY REHABILITATION HOSPITAL,1515 WEST CHANDLER BOULEVARD,CHANDLER,AZ,85224,Maricopa,(480) 389-9529,For profit,11/21/2016,33.302285, -111.840103,false,true
174,263031,SSM HEALTH REHABILITATION HOSPITAL,1027 BELLEVUE AVENUE,RICHMOND HEIGHTS,MO,63117,St. Louis,(314) 768-5202,For profit,12/08/2009,38.625847, -90.320346,false,true
175,39T265,JEFFERSON HOSPITAL,565 COAL VALLEY RD,JEFFERSON HILLS,PA,15025,Allegheny,(^) -,Non-profit,07/01/1984,40.294361, -79.918341,false,true
176,31T040,HOBOKEN UNIVERSITY MEDICAL CENTER,308 WILLOW AVENUE,HOBOKEN,NJ,7030,Hudson,(201) 418-1161,Non-profit,09/01/2005,40.743464, -74.029065,false,true
177,16T146,ST. LUKES REGIONAL MEDICAL CENTER,2720 STONE PARK BLVD,SIOUX CITY,IA,51104,Woodbury,(712) 279-7008,Non-profit,01/01/2005,42.496323, -96.406436,false,true
178,05T180,JOHN MUIR MEDICAL CENTER,1601 YGNACIO VALLEY ROAD,WALNUT CREEK,CA,94598,Contra Costa,(925) 947-5252,Non-profit,01/05/1986,37.901763, -122.061921,false,true
179,18T102,LOURDES REHABILITATION CENTER,1530 LONE OAK ROAD,PADUCAH,KY,42003,McCracken,(270) 444-2684,Non-profit,10/01/1985,37.07639, -88.633016,false,true
180,453031,HEALTHSOUTH REHAB INSTITUTE OF SAN ANTONIO,9119 CINNAMON HILL,SAN ANTONIO,TX,78240,Bexar,(210) 691-0737,For profit,06/14/1988,29.425173, -98.494599,false,true
181,13T007,SAINT ALPHONSUS REGIONAL MEDICAL CENTER,1055 NORTH CURTIS ROAD,BOISE,ID,83706,Ada,(208) 367-6736,Non-profit,06/01/1987,43.615791, -116.201579,false,true
182,263028,THE REHABILITATION INSTITUTE OF ST LOUIS,4455 DUNCAN AVE,SAINT LOUIS,MO,63110,St. Louis City,(314) 658-3925,For profit,04/02/2001,38.630276, -90.200309,false,true
183,39T137,CENTER FOR ADVANCED REHAB,575 NORTH RIVER ST,WILKES-BARRE,PA,18764,Luzerne,(570) 552-4470,Non-profit,07/01/2011,41.246249, -75.881184,false,true
184,11T010,EMORY UNIVERSITY HOSPITAL,1364 CLIFTON ROAD NE,ATLANTA,GA,30322,DeKalb,(404) 712-5512,Non-profit,09/01/1984,33.748547, -84.391502,false,true
185,453096,VIBRA REHABILITATION HOSPITAL OF AMARILLO,7200 WEST 9TH STREET,AMARILLO,TX,79106,Potter,(806) 468-2981,For profit,12/13/2006,35.207009, -101.832013,false,true
186,05T782,CASA COLINA HOSP FOR REHAB MEDICINE,255 E BONITA AVE PO BOX 6001,POMONA,CA,91769,Los Angeles,(909) 596-7733,Non-profit,04/01/2016,34.055118, -117.750048,false,true
187,02T017,ALASKA REGIONAL HOSPITAL,2801 DEBARR RD,ANCHORAGE,AK,99508,Anchorage,(907) 264-1893,For profit,01/01/1994,61.216583, -149.899597,false,true
188,453041,HEALTHSOUTH REHABILITATION HOSPITAL OF FORT WORTH,1212 WEST LANCASTER,FORT WORTH,TX,76102,Tarrant,(817) 870-2336,For profit,05/22/1990,32.739977, -97.340038,false,true
189,33T049,THE PAUL ROSENTHAL REHABILITATION CENTER AT NDH,6511 SPRINGBROOK AVENUE,RHINEBECK,NY,12572,Dutchess,(845) 871-3426,Non-profit,01/01/1998,41.926894, -73.912605,false,true
190,373035,PAM REHABILITATION HOSPITAL OF TULSA,10020 EAST 91ST DRIVE,TULSA,OK,74133,Tulsa,(918) 893-2400,For profit,03/31/2017,36.155327, -95.992083,false,true
191,41T006,NEWPORT HOSPITAL,11 FRIENDSHIP STREET,NEWPORT,RI,2840,Newport,(401) 845-1600,Non-profit,10/01/1983,41.496349, -71.308244,false,true
192,193031,HEALTHSOUTH REHABILITATION HOSPITAL OF ALEXANDRIA,104 NORTH THIRD STREET,ALEXANDRIA,LA,71301,Rapides,(318) 449-1370,For profit,07/07/1992,31.2931, -92.463284,false,true
193,06T001,NORTH COLORADO MEDICAL CENTER,1801 16TH STREET,GREELEY,CO,80631,Weld,(970) 350-6566,Non-profit,08/01/2000,40.422554, -104.694445,false,true
194,28T009,GOOD SAMARITAN HOSPITAL,10 E 31ST STREET,KEARNEY,NE,68848,Buffalo,(308) 865-7189,Non-profit,07/01/2003,40.701497, -99.082969,false,true
195,263032,MERCY REHABILITATION HOSPITAL SPRINGFIELD,5904 S SOUTHWOOD RD,SPRINGFIELD,MO,65804,Greene,(417) 820-2973,For profit,05/21/2014,37.215521, -93.292361,false,true
196,44T152,REHABILITATION HOSPITAL OF MEMPHIS,890 MADISON AVENUED 3RD FLOOR TURNER TOWER,MEMPHIS,TN,38103,Shelby,(901) 545-6060,Government,11/21/2013,35.143378, -90.052136,false,true
197,23T097,MUNSON MEDICAL CENTER,1105 SIXTH ST,TRAVERSE CITY,MI,49684,Grand Traverse,(231) 935-6511,Non-profit,07/01/2004,44.759092, -85.605469,false,true
198,37T091,SAINT FRANCIS REHABILITATION,6161 S. YALE AVE. 4-SOUTH,TULSA,OK,74133,Tulsa,(918) 494-4244,Non-profit,07/01/2007,36.155327, -95.992083,false,true
199,453059,HEALTHSOUTH REHAB HOSPITAL THE WOODLANDS,18550 I 45 SOUTH,CONROE,TX,77384,Montgomery,(281) 364-3304,For profit,05/26/1993,30.313044, -95.458141,false,true
200,05T498,SUTTER AUBURN FAITH HOSPITAL,11815 EDUCATION STREET,AUBURN,CA,95603,Placer,(530) 889-6075,Non-profit,01/01/1988,38.897916, -121.074314,false,true
201,04T062,MERCY HOSPITAL FORT SMITH,7301 ROGERS AVENUE,FORT SMITH,AR,72913,Sebastian,(479) 314-6929,Non-profit,07/01/1998,35.386636, -94.424357,false,true
202,313027,ST LAWRENCE REHABILITATION CENTER,2381 LAWRENCEVILLE ROAD,LAWRENCEVILLE,NJ,8648,Mercer,(609) 896-9500,Non-profit,01/01/1985,40.283199, -74.731772,false,true
203,37T106,INTEGRIS SOUTHWEST MEDICAL CENTER,4401 SOUTH WESTERN AVENUE,OKLAHOMA CITY,OK,73109,Oklahoma,(405) 636-7000,Non-profit,06/30/2005,35.468494, -97.521264,false,true
204,193098,COBALT REHABILITATION HOSPITAL NEW ORLEANS,3801 BIENVILLE STREET,NEW ORLEANS,LA,70119,Orleans,(504) 930-3500,For profit,12/21/2016,29.950621, -90.074948,false,true
205,11T029,NORTHEAST GEORGIA MEDICAL CENTER,743 SPRING STREET,GAINESVILLE,GA,30501,Hall,(770) 531-6205,Government,10/01/1990,34.298772, -83.829629,false,true
206,40T014,BELLA VISTA REHABILITATION CENTER,PO BOX 1750,MAYAGUEZ,PR,681,Mayaguez,(502) 596-6346,Non-profit,01/01/2011,18.201348, -67.139486,false,true
207,33T108,ST JOSEPHS HOSPITAL,555 EAST MARKET STREET,ELMIRA,NY,14901,Chemung,(607) 733-6541,Non-profit,01/01/1986,42.089823, -76.808259,false,true
208,223029,FAIRLAWN REHABILITATION HOSPITAL,189 MAY STREET,WORCESTER,MA,1602,Worcester,(508) 791-6351,For profit,12/16/1987,42.262073, -71.802278,false,true
209,053039,"CALIFORNIA  REHABILITATION INSTITUTE, LLC",2070 CENTURY PARK EAST,LOS ANGELES,CA,90067,Los Angeles,(424) 363-1000,For profit,09/20/2016,34.052238, -118.243344,false,true
210,093025,MEDSTAR NATIONAL REHABILITATION HOSPITAL,102 IRVING STREET NW,WASHINGTON,DC,20010,District Of Columbia,(202) 877-1737,Non-profit,02/25/1986,38.892062, -77.019912,false,true
211,23T078,COMMUNITY REHABILITATION CENTER,400 MEDICAL PARK DRIVE,WATERVLIET,MI,49098,Berrien,(502) 596-6346,Non-profit,10/01/1992,42.186668, -86.260655,false,true
212,17T182,MENORAH MEDICAL CENTER,5721 WEST 119TH STREET,OVERLAND PARK,KS,66209,Johnson,(913) 498-6436,Non-profit,01/01/1997,38.974799, -94.683622,false,true
213,05T696,UNIVERSITY OF S CALIFORNIA,1500 SAN PABLO ST,LOS ANGELES,CA,90033,Los Angeles,(323) 442-5364,Non-profit,10/01/2012,34.052238, -118.243344,false,true
214,24T036,ST CLOUD HOSPITAL,1406 SIXTH AVE N,ST CLOUD,MN,56303,Stearns,(320) 251-2700,Non-profit,07/01/1984,45.569048, -94.115542,false,true
215,42T083,MARY BLACK CENTER FOR REHAB,1700 SKYLYN DRIVE,SPARTANBURG,SC,29304,Spartanburg,(864) 573-3083,For profit,07/01/2011,34.947914, -81.934664,false,true
216,39T037,HERITAGE VALLEY HEALTH SYSTEMS,720 BLACKBURN ROAD,SEWICKLEY,PA,15143,Allegheny,(412) 749-7127,Non-profit,07/01/1985,40.54024, -80.18038,false,true
217,15T042,GOOD SAMARITAN HOSPITAL,520 SOUTH SEVENTH,VINCENNES,IN,47591,Knox,(812) 885-3601,Non-profit,01/01/2001,38.682025, -87.5125,false,true
218,05T103,WHITE MEMORIAL MEDICAL CENTER,1720 EAST CESAR CHAVEZ AVENUE,LOS ANGELOS,CA,90033,Los Angeles,(323) 268-5000,Non-profit,01/01/1984,34.052238, -118.243344,false,true
219,05T006,ST JOSEPH HOSPITAL,2200 HARRISON AVENUE,EUREKA,CA,95501,Humboldt,(707) 445-8121,Non-profit,01/01/2000,40.786143, -124.161309,false,true
220,33T014,JAMAICA HOSPITAL MEDICAL CENTER,89TH AVE AND VAN WYCK,JAMAICA,NY,11418,Queens,(718) 206-6000,Non-profit,01/01/1990,40.691399, -73.806099,false,true
221,33T214,RUSK REHABILITATION,240 E. 38TH STREET 15TH FLOOR - ADMINISTRATION,NEW YORK,NY,10016,New York,(212) 263-2572,Non-profit,01/01/1999,40.713054, -74.007228,false,true
222,36R327,COMMUNITY HOSPITALS AND WELLNESS CENTERS,909 EAST SNYDER AVE,MONTPELIER,OH,43543,Williams,(419) 485-3154,Non-profit,10/01/2004,41.583715, -84.607098,false,true
223,233027,REHABILITATION INSTITUTE OF MICHIGAN,261 MACK BLVD,DETROIT,MI,48201,Wayne,(313) 745-9710,For profit,11/01/1985,42.332916, -83.047853,false,true
224,23T030,MID-MICHIGAN GRATIOT MEDICAL CENTER,300 WARWICK DR,ALMA,MI,48801,Gratiot,(502) 596-6346,Non-profit,07/01/1993,43.377637, -84.658593,false,true
225,39T225,EPHRATA REHABILITATION UNIT,169 MARTIN AVENUE,EPHRATA,PA,17522,Lancaster,(717) 738-6488,Non-profit,07/01/2002,40.178854, -76.177488,false,true
226,393054,LANCASTER REHABILITATION HOSPITAL,675 GOOD DRIVE,LANCASTER,PA,17604,Lancaster,(717) 544-4819,For profit,07/06/2007,40.039401, -76.307078,false,true
227,26T110,SOUTHEAST HOSPITAL,1701 LACEY STREET,CAPE GIRARDEAU,MO,63701,Cape Girardeau,(573) 331-6575,Non-profit,10/01/2001,37.313167, -89.552421,false,true
228,183027,HEALTHSOUTH NORTHERN KENTUCKY REHABILITATION HOSPI,201 MEDICAL VILLAGE DRIVE,EDGEWOOD,KY,41017,Kenton,(859) 341-2044,For profit,09/14/1987,39.014299, -84.57829,false,true
229,37T023,DUNCAN REGIONAL HOSPITAL,1407 WHISENANT,DUNCAN,OK,73533,Stephens,(580) 252-5300,Non-profit,07/01/2005,34.502094, -97.959802,false,true
230,393030,ALLIED SERVICES INSTITUTE OF REHABILITATI MEDICINE,475 MORGAN HIGHWAY,SCRANTON,PA,18508,Lackawanna,(570) 348-1367,Non-profit,07/01/1984,41.409113, -75.662346,false,true
231,11T198,WELLSTAR N FULTON HOSPITAL,3000 HOSPITAL BLVD.,ROSWELL,GA,30076,Fulton,(770) 751-2653,For profit,11/01/1985,34.021654, -84.361671,false,true
232,36T008,SOUTHERN OHIO MEDICAL CENTER,1805 27TH STREET,PORTSMOUTH,OH,45662,Scioto,(502) 596-6346,Non-profit,07/01/1993,38.739972, -82.985267,false,true
233,35T011,SANFORD HEALTH SYSTEM,REHABILITATION 5C,FARGO,ND,58122,Cass,(701) 280-4611,Non-profit,07/01/2016,46.87696, -96.784636,false,true
234,453086,HIGHLANDS  REHABILITATION HOSPITAL,1395 GEORGE DIETER DRIVE,EL PASO,TX,79936,El Paso,(915) 298-7222,For profit,07/14/2000,31.76006, -106.492257,false,true
235,11T035,WELLSTAR KENNESTONE INPATIENT REHAB,677 CHURCH STREET,MARIETTA,GA,30060,Cobb,(770) 793-6289,Non-profit,07/01/1993,33.952304, -84.549051,false,true
236,38T033,OREGON REHABILITATION CENTER,1255 HILYARD STREET PO BOX 10905,EUGENE,OR,97401,Lane,(541) 686-7363,Non-profit,07/01/1984,44.052153, -123.091195,false,true
237,39T133,LEHIGH VALLEY HOSPITAL,1200 S CEDAR CREST BLVD,ALLENTOWN,PA,18103,Lehigh,(610) 402-7062,Non-profit,07/01/2015,40.602753, -75.469759,false,true
238,28T040,NEBRASKA METHODIST HEALTH SYSTEM,8511 WEST DODGE ROAD,OMAHA,NE,68114,Douglas,(402) 354-4503,Non-profit,01/01/1991,41.258652, -95.937195,false,true
239,45T011,ST JOSEPH REGIONAL REHAB,1600 JOSEPH DRIVE,BRYAN,TX,77802,Brazos,(979) 821-7549,Non-profit,12/30/1997,30.670524, -96.370542,false,true
240,17T040,KANSAS UNIVERSITY REHAB,3901 RAINBOW BOULEVARD,KANSAS CITY,KS,66160,Wyandotte,(913) 588-4779,Government,07/01/1984,39.1127, -94.626804,false,true
241,113031,EMORY REHABILITATION HOSPITAL,1441 CLIFTON ROAD,ATLANTA,GA,30322,DeKalb,(404) 712-5512,For profit,07/29/2014,33.748547, -84.391502,false,true
242,15T048,REID HOSPITAL AND HEALTH CARE SERVICES,1100 REID PARKWAY,RICHMOND,IN,47374,Wayne,(765) 983-3060,Non-profit,01/01/2003,39.827286, -84.890357,false,true
243,33T231,QUEENS HOSPITAL CENTER,82-68 164TH STREET,JAMAICA,NY,11432,Queens,(718) 883-3444,Government,01/01/1985,40.691399, -73.806099,false,true
244,263030,ST LUKE'S REHABILITATION HOSPITAL,14709 OLIVE BOULEVARD,CHESTERFIELD,MO,63017,St. Louis,(314) 317-5700,For profit,11/25/2008,38.661405, -90.564272,false,true
245,44T003,SUMNER REGIONAL MEDICAL CENTER,P.O. BOX 1558,GALLATIN,TN,37066,Sumner,(615) 328-5081,For profit,06/01/1994,36.381608, -86.44383,false,true
246,27T012,BENEFIS HEALTH SYSTEM,500 15TH AVE SO.,GREAT FALLS,MT,59405,Cascade,(406) 455-5000,Non-profit,01/01/1997,47.506453, -111.306019,false,true
247,18T080,BAPTIST HEALTH - CORBIN,1 TRILLIUM WAY,CORBIN,KY,40701,Whitley,(606) 523-8761,Non-profit,09/01/1992,36.932247, -84.047924,false,true
248,14T113,PROVENA COVENANT MEDICAL CENTER REHAB,1400 WEST PARK ST.,URBANA,IL,61801,Champaign,(502) 596-6346,Non-profit,10/01/1983,40.112458, -88.207457,false,true
249,23T259,CHELSEA COMMUNITY HOSPITAL,775 S MAIN,CHELSEA,MI,48118,Washtenaw,(734) 593-5309,Non-profit,01/01/2008,42.314319, -84.020373,false,true
250,15T001,JOHNSON MEMORIAL HOSPITAL,TODD-AIKENS REHAB CARE CENTER 1125 W JEFFERSON ST,FRANKLIN,IN,46131,Johnson,(317) 346-3144,Government,01/01/2005,39.494444, -86.066666,false,true
251,06T031,PENROSE HOSPITAL / ELEANOR - CAPRON,2222 NORTH NEVADA AVENUE,COLORADO SPRINGS,CO,80907,El Paso,(719) 776-5120,Non-profit,07/01/1999,38.835224, -104.819798,false,true
252,38T001,MID-COLUMBIA MEDICAL CENTER,1700 E. 19TH ST,THE DALLES,OR,97058,Wasco,(541) 506-6902,Non-profit,01/01/2006,45.598975, -121.178886,false,true
253,363037,OHIOHEALTH REHABILITATION HOSPITAL,1087 DENNISON AVENUE 4TH FLOOR,COLUMBUS,OH,43201,Franklin,(614) 458-9496,For profit,09/05/2013,39.962649, -82.996216,false,true
254,23T165,ST JOHN HOSPITAL AND MEDICAL CTR,22101 MOROSS,DETROIT,MI,48236,Wayne,(313) 343-4546,Non-profit,07/01/2010,42.332916, -83.047853,false,true
255,14T187,ST. ELIZABETH HOSPITAL REHAB,211 S. THIRD ST.,BELLEVILLE,IL,62220,St. Clair,(618) 234-2120,Non-profit,07/01/2004,38.512629, -89.984229,false,true
256,37T008,NORMAN REGIONAL HOSPITAL,901 N PORTER AVE,NORMAN,OK,73071,Cleveland,(405) 307-1000,Government,02/11/2014,35.221051, -97.445943,false,true
257,10T226,ORANGE PARK REHABILITATION CTR,1883 KINGSLEY AVE,ORANGE PARK,FL,32073,Clay,(904) 639-1833,Non-profit,07/01/2016,30.169231, -81.706698,false,true
258,363032,GREENBRIAR REHABILITATION HOSPITAL,"8064 SOUTH AVENUE, SUITE ONE",BOARDMAN,OH,44512,Mahoning,(330) 965-6432,For profit,10/29/2001,41.015585, -80.672318,false,true
259,15T162,FRANCISCAN HEALTH INDIANAPOLIS,8111 S EMERSON AVE,INDIANAPOLIS,IN,46237,Marion,(317) 528-6963,Non-profit,01/01/2012,39.76845, -86.156212,false,true
260,04T002,JOHNSON REGIONAL REHABILITATION CENTER,1100 EAST POPLAR ST.,CLARKSVILLE,AR,72830,Johnson,(479) 754-5484,Non-profit,01/01/2006,35.471168, -93.466348,false,true
261,37T049,STILLWATER MEDICAL CENTER,1323 WEST 6TH STREET,STILLWATER,OK,74076,Payne,(502) 596-6346,Non-profit,01/01/2004,36.110175, -97.05857,false,true
262,453025,TIRR MEMORIAL HERMANN,1333 MOURSUND AVE,HOUSTON,TX,77030,Harris,(713) 799-7022,Non-profit,01/01/1984,29.760803, -95.369506,false,true
263,26T047,CAPITAL REGION MEDICAL CENTER,PO BOX 1128,JEFFERSON CITY,MO,65102,Cole,(573) 632-5627,Non-profit,07/01/1998,38.577896, -92.187689,false,true
264,153025,HEALTHSOUTH DEACONESS REHABILITATION HOSPITAL,4100 COVERT AVE,EVANSVILLE,IN,47716,Vanderburgh,(812) 476-9983,For profit,06/08/1989,37.975708, -87.569907,false,true
265,19T204,OCHSNER MEDICAL CENTER - NORTH SHORE,100 MEDICAL CENTER DRIVE,SLIDELL,LA,70461,St. Tammany,(985) 649-7070,Non-profit,06/01/1992,30.278641, -89.779372,false,true
266,33T224,BENEDICTINE HOSPITAL,105 MARYS AVENUE,KINGSTON,NY,12401,Ulster,(845) 334-2873,Non-profit,01/01/2000,41.927062, -73.997619,false,true
267,113029,"REHABILITATION HOSPITAL, NAVICENT HEALTH",3351 NORTHSIDE DRIVE,MACON,GA,31210,Bibb,(478) 471-6500,Non-profit,06/11/2007,32.836038, -83.631709,false,true
268,05T348,UNIV OF CA IRVINE MED CTR,101 THE CITY DRIVE,ORANGE,CA,92868,Orange,(714) 456-5749,Government,07/01/1991,33.791489, -117.853096,false,true
269,413025,REHABILITATION HOSPITAL OF RHODE ISLAND,116 EDDIE DOWLING HIGHWAY,NORTH SMITHFIELD,RI,2896,Providence,(401) 766-0800,For profit,01/04/1994,41.954591, -71.547811,false,true
270,453052,KINDRED REHABILITATION HOSPITAL CLEAR LAKE,655 E MEDICAL CENTER BLVD,WEBSTER,TX,77598,Harris,(281) 286-1500,For profit,10/16/1991,29.537169, -95.127888,false,true
271,01T011,ST. VINCENTS EAST REHABILITATION CENTER,50 MEDICAL PARK EAST DRIVE,BIRMINGHAM,AL,35235,Jefferson,(205) 838-3672,Non-profit,04/30/1998,33.522859, -86.807705,false,true
272,23T031,LAKE HURON MEDICAL CENTER,2601 ELECTRIC AVENUE,PORT HURON,MI,48060,St. Clair,(810) 216-1648,Non-profit,07/01/1990,42.975041, -82.424522,false,true
273,14T119,JOHNSTON R BOWMAN HEALTH CTR.,"710 S. PAULINA, 420",CHICAGO,IL,60612,Cook,(312) 942-5344,Non-profit,07/01/1984,41.883229, -87.632398,false,true
274,103031,HEALTHSOUTH REHABILITATION HOSPITAL OF SARASOTA,6400 EDGELAKE DR,SARASOTA,FL,34240,Sarasota,(941) 921-8600,For profit,09/17/1986,27.336483, -82.538602,false,true
275,033028,HEALTHSOUTH REHABILITATION INSTITUTE OF TUCSON,2650 NORTH WYATT DRIVE,TUCSON,AZ,85712,Pima,(520) 325-1300,For profit,07/03/1990,32.221878, -110.971225,false,true
276,33T101,NYP - COLUMBIA UNIVERSITY MEDICAL CENTER,MILSTEIN HOSP. BLDG. 8GN-446 117 FT. WASHINGTON AVENUE,NEW YORK,NY,10032,New York,(212) 305-0259,Non-profit,01/01/1985,40.713054, -74.007228,false,true
277,19T176,TULANE INPATIENT REHAB CENTER,1415 TULANE AVE,NEW ORLEANS,LA,70112,Orleans,(504) 883-6808,For profit,01/01/1997,29.950621, -90.074948,false,true
278,443025,SISKIN HOSPITAL FOR PHYSICAL REHABILITATION,1 SISKIN PLAZA,CHATTANOOGA,TN,37403,Hamilton,(423) 634-1200,For profit,02/16/1990,35.045756, -85.308287,false,true
279,333030,WINIFRED MASTERSON BURKE REHABILITATION HOSPITAL,785 MAMARONECK AVENUE,WHITE PLAINS,NY,10605,Westchester,(914) 597-2232,Non-profit,01/01/2016,41.032587, -73.766669,false,true
280,393046,HEALTHSOUTH REHABILITATION HOSPITAL OF ERIE,143 EAST SECOND STREET,ERIE,PA,16507,Erie,(814) 878-1200,For profit,08/24/1992,42.127951, -80.08258,false,true
281,193069,STERLINGTON REHABILITATION HOSPITAL,370 W HICKORY STREET,BASTROP,LA,71220,Morehouse,(318) 281-4531,Physician,11/15/2001,32.777321, -91.910257,false,true
282,34T132,MARIA PARHAM HEALTHCARE ASSOCIATION INC,566 RUIN CREEK RD,HENDERSON,NC,27536,Vance,(252) 436-1166,For profit,10/01/2016,36.329522, -78.399157,false,true
283,36T010,UNION HOSPITAL,659 BOULEVARD,DOVER,OH,44622,Tuscarawas,(330) 365-3807,Non-profit,01/01/2009,40.520546, -81.474087,false,true
284,43T027,SANFORD MEDICAL CENTER,1305 W 18TH STREET,SIOUX FALLS,SD,57117,Minnehaha,(605) 328-6758,Non-profit,07/01/2017,43.488765, -96.743185,false,true
285,05T168,ST. JUDE MEDICAL CENTER,101 E. VALENCIA MESA DRIVE P.O. BOX 4138,FULLERTON,CA,92835,Orange,(714) 578-8706,Non-profit,07/01/1984,33.870345, -117.924302,false,true
286,173027,WESLEY REHABILITATION HOSPITAL,8338 WEST 13TH STREET,WICHITA,KS,67212,Sedgwick,(316) 729-1121,For profit,03/17/1992,37.686024, -97.335571,false,true
287,05T320,FAIRMONT HOSPITAL,15400 FOOTHILL BLVD,SAN LEANDRO,CA,94578,Alameda,(502) 596-6346,Government,07/01/1985,37.728364, -122.158612,false,true
288,16T033,GENESIS MEDICAL CENTER,1227 E. RUSHOLME ST,DAVENPORT,IA,52803,Scott,(563) 421-6510,Non-profit,07/01/1997,41.523527, -90.577036,false,true
289,33T046,MT SINAI-ROOSELVELT HOSPITAL CENTER,1000 TENTH AVENUE-3G REHAB,NEW YORK,NY,10019,New York,(212) 523-6452,Non-profit,01/01/1987,40.713054, -74.007228,false,true
290,28T023,ST. FRANCIS MEDICAL CTR.,2620 WEST FAIDLEY AVE.,GRAND ISLAND,NE,68803,Hall,(308) 398-5302,Non-profit,07/01/2008,40.920027, -98.351412,false,true
291,33T102,KENMORE MERCY HOSPITAL,2950 ELMWOOD AVE,KENMORE,NY,14217,Erie,(716) 862-2118,Non-profit,01/01/1994,42.962823, -78.870039,false,true
292,223030,HEALTHSOUTH REHABILITATION HOSPITAL OF WESTERN MA,222 STATE STREET,LUDLOW,MA,1056,Hampden,(413) 589-7581,For profit,05/25/1990,42.160237, -72.471797,false,true
293,34T047,NORTH CAROLINA BAPTIST HOSPITALS,MEDICAL CENTER BLVD,WINSTON SALEM,NC,27157,Forsyth,(336) 713-8328,Non-profit,07/01/2016,36.096261, -80.243735,false,true
294,10T022,JACKSON MEMORIAL HOSPITAL,1611 N.W. 12 AVENUE,MIAMI,FL,33136,Miami-Dade,(305) 585-7292,Government,10/01/1983,25.775084, -80.194702,false,true
295,25T034,BAPTIST MEMORIAL HOSPITAL NORTH MISSISSIPPI,2301 SOUTH LAMAR BLVD.,OXFORD,MS,38655,Lafayette,(662) 232-8100,Non-profit,10/01/2003,34.3668, -89.518625,false,true
296,41T005,SOUTHERN NEW ENGLAND REHAB CTR,200 HIGH SERVICE AVENUE,NORTH PROVIDENCE,RI,2904,Providence,(401) 456-3868,Non-profit,10/01/1989,41.857841, -71.484735,false,true
297,30T019,CHESHIRE MEDICAL CENTER,580 COURT ST,KEENE,NH,3431,Cheshire,(603) 354-5454,Non-profit,07/01/1987,42.933677, -72.278255,false,true
298,39T045,WILLIAMSPORT HOSPITAL REHAB,777 RURAL AVENUE,WILLIAMSPORT,PA,17701,Lycoming,(570) 321-3751,Non-profit,07/01/1986,41.241489, -77.04192,false,true
299,103042,HEALTHSOUTH REHABILITATION HOSPITAL OF SPRING HILL,12440 CORTEZ BLVD,BROOKSVILLE,FL,34613,Hernando,(352) 592-4250,For profit,04/21/2003,28.554895, -82.387858,false,true
300,05T204,PALMDALE REGIONAL MEDICAL CTR,38600 MEDICAL CENTER DR,PALMDALE,CA,93551,Los Angeles,(661) 382-6101,For profit,01/01/2017,34.576469, -118.116103,false,true
301,04T119,WHITE RIVER HEALTH SYSTEM,1710 HARRISON ST,BATESVILLE,AR,72501,Independence,(870) 262-3196,Non-profit,09/19/1997,35.777648, -91.640781,false,true
302,06T023,ST. MARYS HOSPITAL AND MEDICAL CENTER,2635 NORTH SEVENTH STREET BOX 1628,GRAND JUNCTION,CO,81502,Mesa,(970) 298-7646,Non-profit,06/01/1996,39.067379, -108.570816,false,true
303,213029,ADVENTIST REHABILITATION HOSPITAL OF MARYLAND,9909 MEDICAL CENTER DRIVE,ROCKVILLE,MD,20850,Montgomery,(240) 864-6005,Non-profit,01/12/2001,39.08419, -77.152896,false,true
304,05T158,ENCINO HOSPITAL MEDICAL CENTER,16237 VENTURA BLVD,ENCINO,CA,91436,Los Angeles,(805) 558-8560,For profit,12/01/1994,34.159199, -118.500298,false,true
305,27T087,HEALTH CENTER NORTHWEST LLC,320 SUNNYVIEW LANE,KALISPELL,MT,59901,Flathead,(406) 751-5753,For profit,04/01/2015,48.197751, -114.31346,false,true
306,05T380,GOOD SAMARITAN HOSPITAL,15891 LOS-GATOS-ALMADEN ROAD,SAN JOSE,CA,95032,Santa Clara,(408) 358-5611,For profit,02/01/2006,37.334807, -121.888128,false,true
307,17T120,LABETTE COUNTY MEDICAL CENTER,1902 SOUTH U.S HWY 59,PARSONS,KS,67357,Labette,(620) 820-5146,Government,01/01/2003,37.340499, -95.259188,false,true
308,34T143,CATAWBA VALLEY MEDICAL CENTER,810 FAIRGROVE CHURCH RD,HICKORY,NC,28602,Catawba,(828) 326-3248,Non-profit,07/01/2016,35.72964, -81.333464,false,true
309,36T051,MIAMI VALLEY HOSPITAL,ONE WYOMING STREET,DAYTON,OH,45409,Montgomery,(937) 208-2062,Non-profit,01/01/1984,39.760982, -84.192203,false,true
310,11T076,DEKALB MEDICAL,2701 NORTH DECATUR ROAD,DECATUR,GA,30033,DeKalb,(404) 501-1000,Non-profit,07/01/1997,33.773556, -84.296562,false,true
311,23T146,HENRY FORD WYANDOTTE HOSPITAL,2333 BIDDLE,WYANDOTTE,MI,48192,Wayne,(734) 246-8962,Non-profit,10/01/1983,42.201008, -83.150254,false,true
312,36T076,ATRIUM MEDICAL CENTER,ONE MEDICAL CENTER DR,FRANKLIN,OH,45005,Butler,(513) 420-5232,Non-profit,01/01/1985,39.562089, -84.302602,false,true
313,39T162,EASTON HOSPITAL,250 SOUTH 21ST. ST.,EASTON,PA,18042,Northampton,(610) 250-4230,For profit,07/01/1984,40.689353, -75.216698,false,true
314,36T163,THE CHRIST HOSPITAL REHAB UNIT,2139 AUBURN AVENUE,CINCINNATI,OH,45219,Hamilton,(513) 585-5000,Non-profit,01/01/1986,39.104427, -84.513808,false,true
315,26T180,CHRISTIAN HOSPITAL/BJC HEALTHCARE,11133 DUNN ROAD,ST LOUIS,MO,63136,St. Louis,(314) 653-5307,Non-profit,01/01/2003,38.630276, -90.200309,false,true
316,033025,HEALTHSOUTH SCOTTSDALE REHABILITATION HOSPITAL,9630 EAST SHEA BOULEVARD,SCOTTSDALE,AZ,85260,Maricopa,(480) 551-5400,For profit,01/19/1989,33.494909, -111.926061,false,true
317,34T155,DURHAM REGIONAL HOSPITAL,3643 N ROXBORO ROAD,DURHAM,NC,27704,Durham,(919) 470-7217,Government,07/01/2014,35.996948, -78.899023,false,true
318,24T057,ABBOTT NORTHWESTERN HOSPITAL,800 E 28TH ST,MINNEAPOLIS,MN,55407,Hennepin,(612) 863-0881,Non-profit,01/01/1984,44.977479, -93.264346,false,true
319,113033,REHABILITATION HOSPITAL OF SAVANNAH,6510 SEAWRIGHT DRIVE,SAVANNAH,GA,31404,Chatham,(912) 235-6000,For profit,04/23/2015,32.08059, -81.090103,false,true
320,323026,NEW MEXICO REHABILITATION CENTER,72 GAIL HARRIS AVENUE,ROSWELL,NM,88203,Chaves,(575) 347-3400,Government,07/01/1985,33.393142, -104.522734,false,true
321,19T004,THIBODAUX REGIONAL MEDICAL CENTER,602 NORTH ACADIA ROAD,THIBODAUX,LA,70301,Lafourche,(502) 596-6346,Government,10/01/1992,29.795742, -90.822529,false,true
322,05T503,SCRIPPS MEMORIAL ENCINITAS,354 SANTA FE DR,ENCINITAS,CA,92024,San Diego,(760) 633-6194,Non-profit,10/01/1988,33.044805, -117.292447,false,true
323,27T049,ST VINCENT HEALTHCARE,PO BOX 35200,BILLINGS,MT,59101,Yellowstone,(502) 596-6346,Non-profit,06/01/1992,45.78265, -108.504578,false,true
324,16T117,UNITYPOINT FINLEY HOSPITAL,350 N GRANDVIEW AVE,DUBUQUE,IA,52001,Dubuque,(563) 589-2642,Non-profit,01/01/2005,42.505512, -90.667314,false,true
325,073025,MOUNT SINAI REHABILITATION HOSPITAL INC,490 BLUE HILLS AVENUE,HARTFORD,CT,6112,Hartford,(860) 714-3500,Non-profit,06/15/1995,41.765775, -72.673356,false,true
326,14T172,ST. JAMES HOSPITAL,1423 CHICAGO ROAD,CHICAGO HEIGHTS,IL,60411,Cook,(708) 756-1000,For profit,07/01/1985,41.501481, -87.641605,false,true
327,20T039,THE PHYSICAL REHAB UNIT,35 MEDICAL CENTER PARKWAY TERRACE LEVEL,AUGUSTA,ME,4330,Kennebec,(207) 248-0042,Non-profit,04/01/1992,44.307692, -69.780785,false,true
328,33T219,ERIE COUNTY MEDICAL CENTER,462 GRIDER ST,BUFFALO,NY,14215,Erie,(716) 898-6167,Non-profit,01/01/1986,42.887691, -78.879374,false,true
329,26T183,ST FRANCIS MEDICAL CENTER,211 SAINT FRANCIS DR,CAPE GIRARDEAU,MO,63703,Cooper,(573) 331-5335,Non-profit,04/01/2004,37.313167, -89.552421,false,true
330,26T096,NORTH KANSAS CITY HOSPITAL,2800 CLAY EDWARDS DRIVE,NORTH KANSAS CITY,MO,64116,Clay,(502) 596-6346,Government,07/01/2006,39.141964, -94.577267,false,true
331,20T033,EASTERN MAINE MEDICAL CENTER,489 STATE STREET,BANGOR,ME,4401,Penobscot,(207) 973-4391,Non-profit,09/27/1998,44.801602, -68.771334,false,true
332,16T083,MERCY MEDICAL CENTER - DES MOINES,1111 6TH AVE.,DES MOINES,IA,50314,Polk,(515) 643-0488,Non-profit,07/01/2008,41.588822, -93.620309,false,true
333,10T246,LAWNWOOD PHYSICAL REHAB CENTER,1860 N. LAWNWOOD CIR.,FORT PIERCE,FL,34950,St. Lucie,(772) 467-3903,For profit,11/22/2004,27.447119, -80.337237,false,true
334,13T006,ST. LUKE'S REHABILITATION HOSPITAL,"600 N ROBBINS ROAD, PO BOX 110",BOISE,ID,83701,Ada,(208) 489-4444,Non-profit,10/01/2014,43.615791, -116.201579,false,true
335,15T051,IU HEALTH BLOOMINGTON INC,601 W 2ND ST,BLOOMINGTON,IN,47402,Monroe,(812) 353-5566,Non-profit,10/01/2002,39.166587, -86.534893,false,true
336,15T008,THE REHABILITATION CENTER AT ST. CATHERINE HOSPITA,4321 FIR STREET,EAST CHICAGO,IN,46312,Lake,(502) 596-6346,Non-profit,01/01/2002,41.639418, -87.480869,false,true
337,22T065,NOBLE HOSPITAL,115 W SILVER ST NOBLE HOSPITAL,WESTFIELD,MA,1086,Hampden,(502) 596-6346,Non-profit,10/01/1990,42.121185, -72.749082,false,true
338,193074,UNITED MEDICAL HEALTHWEST-NEW ORLEANS,"3201 WALL BLVD, STE B",GRETNA,LA,70056,Jefferson,(504) 433-5551,For profit,11/30/2001,29.912239, -90.051566,false,true
339,03T011,CARONDELET ST JOSEPH'S INPATIENT REHABILITATION,350 N. WILMOT,TUCSON,AZ,85711,Pima,(520) 873-5847,Non-profit,07/01/1985,32.221878, -110.971225,false,true
340,23T117,BORGESS MEDICAL CENTER,1521 GULL RD,KALAMAZOO,MI,49048,Kalamazoo,(269) 226-6618,Non-profit,07/01/1993,42.289777, -85.584682,false,true
341,34T141,NEW HANOVER REGIONAL MEDICAL CENTER REHABILITATION,2131 SOUTH 17TH STREET,WILMINGTON,NC,28402,New Hanover,(^) -,Government,10/01/2016,34.2367, -77.946197,false,true
342,363033,HEALTHSOUTH REHABILITATION HOSPITAL OF DAYTON,ONE ELIZABETH PLACE,DAYTON,OH,45408,Montgomery,(937) 424-8200,For profit,03/24/2005,39.760982, -84.192203,false,true
343,34T097,REGIONAL REHAB CENTER AT HUGH CHATHAM,700 JOHNSON RIDGE ROAD,ELKIN,NC,28621,Surry,(336) 527-7052,Non-profit,10/01/2009,36.248106, -80.851666,false,true
344,11T007,PHOEBE PUTNEY MEMORIAL HOSPITAL,2000 PALMYRA RD,ALBANY,GA,31701,Dougherty,(229) 434-2264,Government,10/01/1999,31.57846, -84.155875,false,true
345,103033,HEALTHSOUTH REHABILITATION HOSPITAL OF TALLAHASSEE,1675 RIGGINS RD,TALLAHASSEE,FL,32308,Leon,(850) 656-4800,For profit,09/15/1986,30.440741, -84.278328,false,true
346,06T119,MEDICAL CENTER OF THE ROCKIES,2500 ROCKY MOUNTAIN AVE,LOVELAND,CO,80538,Larimer,(970) 624-5324,Non-profit,07/01/2013,40.394386, -105.070584,false,true
347,29T003,SUNRISE HOSPITAL MEDICAL CENTER,3186 S. MARYLAND PKWY. W300,LAS VEGAS,NV,89109,Clark,(702) 731-8310,For profit,09/01/1997,36.169202, -115.140597,false,true
348,453048,PAM REHABILITATION HOSPITAL OF BEAUMONT,3340 PLAZA 10 DRIVE,BEAUMONT,TX,77707,Jefferson,(409) 835-0835,For profit,03/28/1991,30.08617, -94.102012,false,true
349,05T145,COMM HOSP MONTEREY PENINSULA,23625 HOLMAN HWY,MONTEREY,CA,93942,Monterey,(831) 625-4748,Non-profit,01/01/2014,36.596808, -121.897127,false,true
350,453065,CHRISTUS ST MICHAEL REHAB HOSPITAL,2400 ST MICHAEL DRIVE,TEXARKANA,TX,75503,Bowie,(903) 614-4000,For profit,03/03/1994,33.44221, -94.06408,false,true
351,33T005,KALEIDA HEALTH,100 HIGH ST.,BUFFALO,NY,14203,Erie,(716) 859-2556,Non-profit,01/01/1988,42.887691, -78.879374,false,true
352,42T036,SPRING MEMORIAL HOSPITAL,800 W MEETING ST,LANCASTER,SC,29720,Lancaster,(803) 313-3233,For profit,10/01/1995,34.721126, -80.771316,false,true
353,35T015,SANFORD REHABILITATION CENTER,300 NORTH 7TH STREET,BISMARCK,ND,58501,Burleigh,(701) 323-6000,Non-profit,07/01/2017,46.80537, -100.781609,false,true
354,39T057,GRAND VIEW HOSPITAL,700 LAWN AVENUE,SELLERSVILLE,PA,18960,Bucks,(215) 453-4731,Non-profit,07/01/2005,40.3616, -75.311905,false,true
355,19T027,CHRISTUS ST PATRICK HOSPITAL,524 DR. MICHAEL DEBAKEY DRIVE,LAKE CHARLES,LA,70601,Calcasieu,(337) 491-7595,Non-profit,07/01/1988,30.229289, -93.217112,false,true
356,36T003,"UNIVERSITY HOSPITAL, INC",234 GOODMAN STREET,CINCINNATI,OH,45267,Hamilton,(513) 558-4628,Non-profit,,39.104427, -84.513808,false,true
357,39T125,WAYNE MEMORIAL HOSPITAL,601 PARK STREET,HONESDALE,PA,18431,Wayne,(570) 253-8100,Non-profit,07/01/2006,41.577395, -75.256764,false,true
358,39T016,JAMESON HOSPITAL,1211 WILMINGTON RD,NEW CASTLE,PA,16105,Lawrence,(724) 462-5516,Non-profit,07/01/1990,41.003604, -80.344422,false,true
359,05T441,STANFORD HOSPITAL  &  CLINICS,300 PASTEUR DR,PALO ALTO,CA,94305,Santa Clara,(650) 498-7804,Non-profit,09/01/1992,37.445103, -122.160363,false,true
360,26T062,ST LUKES NORTHLAND HOSPITAL,601 SOUTH 169 HIGHWAY,SMITHVILLE,MO,64089,Clay,(816) 532-3700,Non-profit,01/01/2003,39.387131, -94.58084,false,true
361,113032,HEALTHSOUTH REHABILITATION HOSPITAL OF NEWNAN,2101 EAST NEWNAN CROSSING BLVD,NEWNAN,GA,30265,Coweta,(678) 552-6200,For profit,12/22/2014,33.37438, -84.799617,false,true
362,44T046,HORIZON REHABILITATION CENTER,111 HIGHWAY 70 EAST,DICKSON,TN,37055,Dickson,(615) 326-2781,For profit,06/01/2003,36.077264, -87.374948,false,true
363,22T046,BERKSHIRE MEDICAL CENTER,THE CENTER FOR REHAB,PITTSFIELD,MA,1201,Berkshire,(413) 447-2203,Non-profit,10/01/1985,42.445027, -73.252804,false,true
364,403025,HEALTH SOUTH REHABILITATION HOSPITAL OF SAN JUAN, UNIVERSITY DISTRICT HOSPITAL -- 3RD  FLOOR,SAN JUAN,PR,936,San Juan,(787) 274-5100,For profit,07/07/2000,18.446344, -66.07558,false,true
365,33T285,UNIV OF ROCHESTER MEDICAL CTR,601 ELMWOOD AVE,ROCHESTER,NY,14642,Monroe,(585) 275-6978,Non-profit,01/01/1985,43.155708, -77.612547,false,true
366,41T001,MEMORIAL HOSP OF RHODE ISLAND,111 BREWSTER ST,PAWTUCKET,RI,2860,Providence,(502) 596-6346,Non-profit,10/01/1984,41.8799, -71.382408,false,true
367,36T118,OHIOHEALTH MEDCENTRAL MANSFIELD HOSPITAL,335 GLESSNER AVENUE,MANSFIELD,OH,44903,Richland,(419) 520-2884,Non-profit,01/01/1997,40.758553, -82.515469,false,true
368,36T056,MERCY HOSPITAL FAIRFIELD,3000 MACK ROAD,FAIRFIELD,OH,45014,Butler,(502) 596-6346,Non-profit,01/01/2010,39.335484, -84.559671,false,true
369,10T128,TAMPA GENERAL HOSPITAL,1 TAMPA GENERAL CIRCLE,TAMPA,FL,33606,Hillsborough,(813) 844-7815,Non-profit,10/01/1983,27.947423, -82.458776,false,true
370,23T207,MCLAREN OAKLAND/POH MEDICAL CENTER,50 N. PERRY STREET,PONTIAC,MI,48342,Oakland,(248) 338-5157,Non-profit,07/01/2000,42.638782, -83.292696,false,true
371,13T028,PORTNEUF MEDICAL CENTER,777 HOSPITAL WAY,POCATELLO,ID,83202,Bannock,(208) 239-1460,For profit,05/10/2011,42.866617, -112.443496,false,true
372,39T201,LEHIGH VALLEY HOSPITAL - POCONO,206 E BROWN ST,EAST STROUDSBURG,PA,18301,Monroe,(610) 402-7062,Non-profit,07/01/2017,41.002827, -75.183229,false,true
373,44T150,SUMMIT MEDICAL CENTER,5655 FRIST BLVD,HERMITAGE,TN,37076,Davidson,(615) 391-7310,For profit,01/01/2014,36.197898, -86.623157,false,true
374,16T079,MERCY MEDICAL CENTER - CEDAR RAPIDS,701 TENTH STREET SE,CEDAR RAPIDS,IA,52403,Linn,(319) 398-6712,Non-profit,07/01/2008,41.978122, -91.669808,false,true
375,39T081,DELAWARE COUNTY MEMORIAL HOSPITAL,501 N. LANSDOWNE AVE,DREXEL HILL,PA,19026,Delaware,(610) 284-8674,Non-profit,07/01/1986,39.949544, -75.307373,false,true
376,28T081,IMMANUEL REHABILITATION INSTITUTE,6901 NORTH 72ND,OMAHA,NE,68122,Douglas,(402) 572-3949,Non-profit,10/01/1987,41.258652, -95.937195,false,true
377,29T022,DESERT SPRINGS ACUTE REHABILITATION,2075 E FLAMINGO ROAD,LAS VEGAS,NV,89135,Clark,(702) 369-7606,For profit,01/01/2012,36.169202, -115.140597,false,true
378,15T112,COLUMBUS REGIONAL HOSPITAL,2400 EAST 17TH ST,COLUMBUS,IN,47201,Bartholomew,(812) 376-5699,Government,01/01/1984,39.201397, -85.921027,false,true
379,323029,SAN JUAN REGIONAL REHABILITATION HOSPITAL INC,525 SOUTH SCHWARTZ AVENUE,FARMINGTON,NM,87401,San Juan,(505) 609-2625,Non-profit,02/02/1989,36.748146, -108.173377,false,true
380,10T087,SARASOTA MEMORIAL HOSPITAL,1700 SOUTH TAMIAMI TRAIL,SARASOTA,FL,34239,Sarasota,(941) 917-9000,Government,10/01/2002,27.336483, -82.538602,false,true
381,05T191,ST MARY MEDICAL CENTER,1050 LINDEN AVE,LONG BEACH,CA,90813,Los Angeles,(562) 491-9170,Non-profit,07/01/1984,33.767168, -118.193723,false,true
382,39T090,WESTERN PENNSYLVANIA HOSPITAL,4800 FRIENDSHIP AVE,PITTSBURGH,PA,15224,Allegheny,(412) 578-1093,Non-profit,07/01/1984,40.442169, -79.994945,false,true
383,223034,SPAULDING REHABILITATION HOSPITAL,300 FIRST AVENUE,CHARLESTOWN,MA,2129,Suffolk,(617) 720-6400,For profit,01/01/1987,42.3778, -71.0625,false,true
384,36T009,LIMA MEMORIAL HEALTH SYSTEM,1001 BELLEFONTAINE AVE.,LIMA,OH,45804,Allen,(419) 998-4542,Non-profit,09/22/1999,40.742696, -84.104987,false,true
385,103032,HEALTHSOUTH TREASURE COAST REHABILITATION HOSPITAL,1600 37TH ST,VERO BEACH,FL,32960,Indian River,(772) 778-2100,For profit,08/14/1986,27.638883, -80.38908,false,true
386,15T115,MEMORIAL HOSPITAL AND HEALTH CARE CENTER,800 W 9TH ST,JASPER,IN,47546,Dubois,(812) 996-2345,Non-profit,07/01/2005,38.391483, -86.931758,false,true
387,25T004,NORTH MISSISSIPPI MEDICAL CENTER,830 S GLOSTER STREET,TUPELO,MS,38801,Lee,(662) 377-3780,Non-profit,10/01/1988,34.257443, -88.703408,false,true
388,14T007,PRESENCE ST JOSEPH MEDICAL CENTER,333 N. MADISON,JOLIET,IL,60435,Will,(502) 596-6346,Non-profit,09/01/1987,41.524956, -88.082979,false,true
389,42T030,COLLETON MEDICAL CENTER,501 ROBERTSON BLVD PO BOX 5001,WALTERBORO,SC,29488,Colleton,(843) 782-2455,For profit,08/17/2012,32.906899, -80.666618,false,true
390,11T177,DOCTORS HOSPITAL,3651 WHEELER ROAD,AUGUSTA,GA,30909,Richmond,(706) 651-6129,For profit,09/01/1984,33.472494, -81.964397,false,true
391,25T078,FORREST GENERAL HOSPITAL,PO BOX 16389,HATTIESBURG,MS,39404,Forrest,(601) 288-3862,Government,10/01/1988,31.326447, -89.289635,false,true
392,26T017,PHELPS COUNTY REGIONAL MED CENTER,1000 WEST TENTH ST,ROLLA,MO,65401,Phelps,(502) 596-6346,Government,01/01/2000,37.951497, -91.772551,false,true
393,17T137,LAWRENCE MEMORIAL HOSPITAL,325 MAINE STREET,LAWRENCE,KS,66044,Douglas,(785) 505-5000,Government,01/01/2004,38.973037, -95.235957,false,true
394,10T236,FAWCETT MEMORIAL HOSPITAL,21298 OLEAN BOULEVARD,PORT CHARLOTTE,FL,33949,Charlotte,(941) 624-8970,For profit,01/01/2011,26.981878, -82.101078,false,true
395,10T213,BLAKE MEDICAL CENTER,2020 59TH ST W,BRADENTON,FL,34209,Manatee,(941) 798-6192,For profit,05/01/1984,27.488962, -82.562798,false,true
396,05T057,KAWEAH DELTA REHABILITATION HOSPITAL,840 S. AKERS RD,VISALIA,CA,93277,Tulare,(559) 624-3857,Government,07/01/1994,36.33012, -119.29888,false,true
397,41T009,KENT COUNTY MEMORIAL HOSPITAL,455 TOLL GATE RD.,WARWICK,RI,2886,Kent,(502) 596-6346,For profit,10/01/1996,41.698709, -71.460018,false,true
398,24T019,SMDC MEDICAL CENTER DBA ESSENTIA HEALTH-DULUTH,502 EAST SECOND STREET,DULUTH,MN,55805,St. Louis,(218) 786-5980,Non-profit,01/01/1984,46.782882, -92.105457,false,true
399,05T599,UC DAVIS MEDICAL CENTER,2315 STOCKTON BLVD.,SACRAMENTO,CA,95817,Sacramento,(916) 734-7712,Non-profit,06/27/1994,38.582087, -121.50012,false,true
400,39T091,UPMC NORTHWEST,100 FAIRFIELD AVE.,SENECA,PA,16346,Venango,(814) 678-4911,Non-profit,07/01/1986,41.385474, -79.698514,false,true
401,31T010,UMCPP - ACUTE REHABILITATION UNIT,UMCPP ONE PLAINSBORO RD.,PLAINSBORO,NJ,8536,Mercer,(609) 853-7922,Non-profit,01/01/1998,40.33735, -74.592178,false,true
402,10T007,FLORIDA HOSPITAL REHABILITATION AND SPORTS MEDICIN,5165 ADANSON,ORLANDO,FL,32804,Orange,(407) 303-7609,Non-profit,01/01/2007,28.538331, -81.378879,false,true
403,18T009,KING'S DAUGHTER MEDICAL CENTER,KINGS DAUGHTERS MEDICAL CENTER 2201 LEXINGTON AVE,ASHLAND,KY,41101,Boyd,(606) 408-5288,Non-profit,10/01/1986,38.475807, -82.646675,false,true
404,23T038,SPECTRUM HEALTH CENTER FOR ACUTE REHABILITATION,1840 WEALTHY ST SE,GRAND RAPIDS,MI,49506,Kent,(616) 486-3080,Non-profit,07/01/2012,42.965446, -85.670209,false,true
405,19T020,LANE REHABILITATION CENTER,4601 MCHUGH ROAD,ZACHARY,LA,70791,East Baton Rouge,(502) 596-6346,Government,07/01/2000,30.647804, -91.150453,false,true
406,19T025,SAVOY MEDICAL CENTER,801 POINCIANA AVE,MAMOU,LA,70554,Evangeline,(337) 468-0281,Government,10/01/1993,30.633586, -92.415177,false,true
407,10T034,MOUNT SINAI MEDICAL CENTER,INPATIENT REHAB DEPT. 4300 ALTON ROAD,MIAMI BEACH,FL,33140,Miami-Dade,(305) 674-2121,For profit,08/01/2002,25.792236, -80.134852,false,true
408,39T102,UPMC ST MARGARET,815 FREEPORT ROAD,PITTSBURGH,PA,15215,Allegheny,(412) 784-4000,Non-profit,07/01/1984,40.442169, -79.994945,false,true
409,103028,HEALTHSOUTH SUNRISE REHABILITATION HOSPITAL,4399 NOB HILL RD,SUNRISE,FL,33351,Broward,(954) 749-0300,For profit,04/02/1985,26.169208, -80.293714,false,true
410,10T086,BROWARD HEALTH NORTH-INPATIENT REHABILITATION UNIT,201 EAST SAMPLE ROAD,DEERFIELD BEACH,FL,33064,Broward,(954) 786-6445,Government,07/01/1992,26.320584, -80.099781,false,true
411,15T109,ST. ELIZABETH INPATIENT REHABILITATION CENTER,1501 HARTFORD ST.,LAFAYETTE,IN,47904,Tippecanoe,(765) 446-4829,Non-profit,01/01/1995,40.417328, -86.890617,false,true
412,33T067,ST FRANCIS HOSP HEALTH CARE,241 NORTH RD,POUGHKEEPSIE,NY,12601,Dutchess,(845) 431-8873,Non-profit,01/01/1986,41.699322, -73.921694,false,true
413,10T223,FORT WALTON BEACH MEDICAL CENTER,1000 MAR WALT DRIVE,FORT WALTON BEACH,FL,32547,Okaloosa,(850) 863-7651,For profit,06/01/2011,30.404156, -86.613219,false,true
414,44T067,LAKEWAY REGIONAL HOSPITAL,726 MCFARLAND ST.,MORRISTOWN,TN,37814,Hamblen,(423) 522-6191,For profit,06/01/1996,36.214459, -83.295107,false,true
415,33T261,PHELPS MEMORIAL HOSPITAL,701 NORTH BROADWAY,SLEEPY HOLLOW,NY,10591,Westchester,(914) 366-3708,Non-profit,01/01/1986,41.092455, -73.862459,false,true
416,26T138,ST LUKES HOSPITAL KANSAS CITY,4401 WORNALL RD,KANSAS CITY,MO,64111,Jackson,(816) 932-2428,Government,01/01/1995,39.099792, -94.578559,false,true
417,38T047,ST. CHARLES MEDICAL CENTER,2500 NE NEFF ROAD,BEND,OR,97701,Deschutes,(541) 706-2611,Non-profit,01/01/1990,44.058088, -121.31515,false,true
418,14T224,ST JOSEPH HOSPITAL,2900 N LAKE SHORE DRIVE,CHICAGO,IL,60657,Cook,(773) 665-3910,Non-profit,01/05/2015,41.883229, -87.632398,false,true
419,18T029,HAZARD ARH REGIONAL MEDICAL CENTER,100 MEDICAL CENTER DRIVE,HAZARD,KY,41701,Perry,(502) 596-6346,Non-profit,07/01/1999,37.252046, -83.195258,false,true
420,05T603,SADDLEBACK MEMORIAL MEDICAL CENTER,24451 HEALTH CENTER DRIVE,LAGUNA HILLS,CA,92653,Orange,(949) 452-7025,Non-profit,03/17/2005,33.612927, -117.710412,false,true
421,05T115,PALOMAR MEDICAL CENTER,555 EAST VALLEY PARKWAY,ESCONDIDO,CA,92025,San Diego,(502) 596-6346,Government,07/01/2002,33.130363, -117.085357,false,true
422,05T043,ALTA BATES SUMMIT MEDICAL CENTER,350 HAWTHORNE AVENUE 2ND FLOOR,OAKLAND,CA,94609,Alameda,(510) 869-6329,Non-profit,01/01/2015,37.804828, -122.27248,false,true
423,443027,HEALTHSOUTH REHABILITATION HOSPITAL,113 CASSEL DRIVE,KINGSPORT,TN,37660,Sullivan,(423) 246-7240,For profit,09/05/1991,36.538956, -82.540855,false,true
424,25T040,SINGING RIVER HOSPITAL,2809 DENNY AVENE,PASCAGOULA,MS,39581,Jackson,(502) 596-6346,Government,10/01/2004,30.365765, -88.547309,false,true
425,453035,WARM SPRINGS REHAB HOSPITAL OF SAN ANTONIO LLC,5101 MEDICAL DR,SAN ANTONIO,TX,78229,Bexar,(210) 616-0100,For profit,02/22/1989,29.425173, -98.494599,false,true
426,23T254,CRITTENTON HOSPITAL MEDICAL CENTER,1101 WEST UNIVERSITY DRIVE,ROCHESTER,MI,48307,St. Clair,(502) 596-6346,Non-profit,01/01/1995,42.682057, -83.133822,false,true
427,36T241,EDWIN SHAW REHAB,EDWIN SHAW ADMINISTRATION 405 TALLMADGE RD.,CUYAHOGA FALLS,OH,44221,Summit,(330) 436-0953,Government,01/01/1984,41.136394, -81.484254,false,true
428,28T003,BRYAN MEDICAL CENTER,2300 SOUTH 16TH STREET,LINCOLN,NE,68502,Lancaster,(402) 481-9399,Non-profit,06/01/2003,40.813599, -96.70261,false,true
429,33T058,GENEVA GENERAL HOSPITAL,196 NORTH STREET,GENEVA,NY,14456,Ontario,(315) 787-5495,Non-profit,01/01/1998,42.867972, -76.985573,false,true
430,26T113,MISSOURI DELTA MEDICAL CENTER,1008 N. MAIN ST.,SIKESTON,MO,63801,Scott,(573) 472-7224,Non-profit,10/01/2003,36.881087, -89.586197,false,true
431,36T032,JOINT TOWNSHIP DISTRICT MEMORIAL HOSPITAL,200 ST. CLAIR AVE,ST. MARYS,OH,45885,Auglaize,(419) 394-3335,Non-profit,01/01/2004,40.542236, -84.390324,false,true
432,14T217,PRESENCE ST JOSEPH - ELGIN,77 N. AIRLITE STREET,ELGIN,IL,60123,Kane,(502) 596-6346,Non-profit,11/22/2000,42.039567, -88.283975,false,true
433,11T125,FAIRVIEW PARK HOSPITAL,200 INDUSTRIAL BLVD,DUBLIN,GA,31040,Laurens,(478) 274-3264,For profit,05/01/1995,32.539994, -82.904572,false,true
434,15T021,PARKVIEW HOSPITAL,2200 RANDALLIA DRIVE,FORT WAYNE,IN,46805,Allen,(260) 373-4555,Non-profit,01/01/1984,41.077474, -85.137495,false,true
435,33T236,NEW YORK METHODIST HOSPITAL,506 6TH ST,BROOKLYN,NY,11215,Kings,(718) 780-5228,Non-profit,01/01/1985,40.692529, -73.990996,false,true
436,17T185,SAINT LUKE'S SOUTH HOSPITAL,12300 METCALF,OVERLAND PARK,KS,66213,Johnson,(913) 317-7715,Non-profit,12/21/2004,38.974799, -94.683622,false,true
437,33T406,SUNNYVIEW HOSPITAL AND REHABILITATION,1270 BELMONT AVE.,SCHENECTADY,NY,12308,Schenectady,(518) 382-4500,Non-profit,01/01/2005,42.814219, -73.944103,false,true
438,14T052,SAINT ANTHONYS HEALTH CENTER,915 E 5TH ST,ALTON,IL,62002,Madison,(618) 463-5137,Non-profit,01/01/1993,38.903341, -90.149352,false,true
439,15T035,PORTER HOSPITAL,3630 WILLOWCREEK RD,PORTAGE,IN,46368,Porter,(219) 263-7115,For profit,01/01/2009,41.584213, -87.183255,false,true
440,34T015,ROWAN REGIONAL MEDICAL CENTER,612 MOCKSVILLE AVENUE,SALISBURY,NC,28114,Rowan,(704) 210-5308,Non-profit,10/01/2016,35.668328, -80.470993,false,true
441,33T350,SUNY DOWNSTATE MEDICAL CENTER,450 CLARKSON AVEUE,BROOKLYN,NY,11203,Kings,(718) 270-8325,Government,01/01/1986,40.692529, -73.990996,false,true
442,193080,SPECIALTY REHABILITATION HOSPITAL,1110 RINGGOLD AVENUE,COUSHATTA,LA,71019,Red River,(318) 932-1770,For profit,07/16/2002,32.024194, -93.340211,false,true
443,17T103,NEWTON MEDICAL CENTER,600 MEDICAL CENTER DRIVE,NEWTON,KS,67114,Harvey,(502) 596-6346,Non-profit,07/01/2005,38.04396, -97.345092,false,true
444,05T058,GLENDALE MEMORIAL HOSPITAL,1420 S. CENTRAL AVE,GLENDALE,CA,91204,Los Angeles,(502) 596-6346,Non-profit,10/01/1983,34.148138, -118.246437,false,true
445,23T002,ST MARY MERCY HOSPITAL,36475 FIVE MILE ROAD,LIVONIA,MI,48154,Wayne,(734) 655-2815,Non-profit,07/01/2006,42.39709, -83.36961,false,true
446,15T089,IU HEALTH BALL MEMORIAL HOSP,2401 UNIVERSITY AVE CARDINAL HEALTH SYSTEM,MUNCIE,IN,47303,Delaware,(765) 747-4228,Non-profit,07/01/1986,40.193655, -85.386524,false,true
447,32T065,LEA REGIONAL MEDICAL CENTER,5419 N LOVINGTON HWY,HOBBS,NM,88240,Lea,(505) 492-5474,For profit,04/01/1995,32.700807, -103.136211,false,true
448,453072,ETMC REHAB,701 OLYMPIC PLAZA CIRCLE,TYLER,TX,75701,Smith,(903) 596-3000,Non-profit,08/10/1995,32.350763, -95.300644,false,true
449,06T014,PRESBYTERIAN/ST LUKE'S MEDICAL CTR,1719 E 19TH AVE,DENVER,CO,80218,Denver,(303) 839-6100,Government,,39.738453, -104.984853,false,true
450,39T032,ALLEGHENY VALLEY HOSPITAL,1301 CARLISLE ST,NATRONA,PA,15065,Allegheny,(412) 224-5100,Non-profit,07/01/2017,40.614399, -79.719704,false,true
451,19T060,LAKE CHARLES MEMORIAL HOSPITAL,1701 OAK PARK BLVD.,LAKE CHARLES,LA,70601,Calcasieu,(337) 494-2663,Non-profit,01/01/1987,30.229289, -93.217112,false,true
452,10T073,HOLY CROSS HOSPITAL,4725 NORTH FEDERAL HIGHWAY,FORT LAUDERDALE,FL,33308,Broward,(954) 267-7535,Non-profit,01/01/1996,26.124163, -80.143586,false,true
453,38T018,ROGUE VALLEY MEDICAL CENTER,2825 EAST BARNETT RD,MEDFORD,OR,97504,Jackson,(541) 789-7667,Non-profit,10/01/2007,42.326543, -122.872185,false,true
454,313032,KESSLER INSTITUTE FOR REHABILITATION,92 BRICK ROAD,MARLTON,NJ,8053,Burlington,(856) 988-8778,For profit,06/27/1995,39.891353, -74.922136,false,true
455,10T113,SHANDS REHAB HOSPITAL,4101 NW 89TH BOULEVARD,GAINESVILLE,FL,32606,Alachua,(352) 265-5491,Non-profit,07/01/1984,29.651958, -82.325024,false,true
456,06T011,DENVER HEALTH MEDICAL CENTER,777 BANNOCK ST.,DENVER,CO,80204,Denver,(303) 602-7320,Government,01/01/2012,39.738453, -104.984853,false,true
457,103034,HEALTHSOUTH SEA PINES REHABILITATION HOSPITAL,101 E FLORIDA AVENUE,MELBOURNE,FL,32901,Brevard,(321) 984-4600,For profit,12/03/1986,28.079931, -80.603516,false,true
458,133027,REHABILITATION HOSPITAL OF THE NORTHWEST,3372 E JENALAN AVE,POST FALLS,ID,83854,Kootenai,(208) 262-8700,For profit,01/31/2014,47.719693, -116.948048,false,true
459,06T064,PORTER ADVENTIST HOSPITAL,2525 S. DOWNING ST.,DENVER,CO,80210,Denver,(303) 765-6194,Non-profit,01/01/1996,39.738453, -104.984853,false,true
460,33T181,GLEN COVE HOSPITAL,101 ST. ANDREWS LANE,GLEN COVE,NY,11542,Nassau,(516) 458-9330,Non-profit,01/01/2014,40.867785, -73.63976,false,true
461,183029,SOUTHERN KENTUCKY REHABILITATION HOSPITAL,1300 CAMPBELL LANE,BOWLING GREEN,KY,42104,Warren,(270) 782-6900,For profit,09/09/1992,37.002405, -86.443486,false,true
462,39T147,MONONGAHELA VALLEY HOSPITAL,COUNTRY CLUB ROAD,MONONGAHELA,PA,15063,Washington,(724) 258-1405,Non-profit,07/01/1988,40.203059, -79.926103,false,true
463,29T039,MOUNTAINVIEW HOSPITAL,3100 N TENAYA WAY,LAS VEGAS,NV,89128,Clark,(702) 562-5560,For profit,01/01/2012,36.169202, -115.140597,false,true
464,39T180,CROZER CHESTER MEDICAL CENTER,ONE MEDICAL CENTER BOULEVARD,UPLAND,PA,19103,Delaware,(610) 447-2429,Non-profit,07/01/1984,39.856567, -75.378995,false,true
465,15T034,ST. MARY MEDICAL CENTER INC,1500 S. LAKE PARK AVENUE,HOBART,IN,46342,Lake,(502) 596-6346,Non-profit,01/01/2001,41.532423, -87.253701,false,true
466,04T041,S. MARYS REGIONAL MEDICAL CENTER,1808 WEST MAIN STREET,RUSSELLVILLE,AR,72801,Pope,(502) 596-6346,For profit,08/26/1992,35.278146, -93.133722,false,true
467,063030,HEALTHSOUTH REHABILITATION HOSPITAL OF CO SPGS,325 PARKSIDE DRIVE,COLORADO SPRINGS,CO,80910,El Paso,(719) 630-8000,For profit,01/16/1991,38.835224, -104.819798,false,true
468,193086,LEESVILLE REHABILITATION HOSPITAL,900 SOUTH SIXTH STREET,LEESVILLE,LA,71446,Vernon,(337) 392-8118,For profit,09/25/2003,31.143259, -93.263776,false,true
469,033029,SOUTHERN ARIZONA REGIONAL REHABILITATION HOSPITAL,1921 WEST HOSPITAL DRIVE,TUCSON,AZ,85704,Pima,(520) 742-2800,For profit,05/26/1992,32.221878, -110.971225,false,true
470,36T025,FIRELANDS REGIONAL MEDICAL CTR,INPATIENT REHABILITATION 1111 HAYES AVENUE,SANDUSKY,OH,44870,Erie,(419) 557-7564,Non-profit,01/01/1991,41.454934, -82.710963,false,true
471,42T091,CAROLINAS HOSPITAL SYSTEM,121 E CEDAR STREET,FLORENCE,SC,29501,Florence,(843) 661-3384,For profit,09/26/1991,34.195772, -79.761968,false,true
472,013032,HEALTHSOUTH REHABILITATION HOSPITAL OF GADSDEN,801 GOODYEAR AVE,GADSDEN,AL,35903,Etowah,(256) 439-5000,For profit,08/14/2001,34.011579, -86.021173,false,true
473,24T038,UNITED HOSPITAL,333 SMITH AVE N MR660104,ST PAUL,MN,55102,Ramsey,(612) 863-0881,Non-profit,01/01/1984,44.943719, -93.094281,false,true
474,35T006,TRINITY REHABCARE CENTER,407 3RD ST. SE,MINOT,ND,58701,Ward,(502) 596-6346,Non-profit,07/01/2003,48.235533, -101.296061,false,true
475,45T032,GOOD SHEPHERD MEDICAL CENTER - MARSHALL,811 S. WASHINGTON,MARSHALL,TX,75670,Harrison,(903) 927-6000,Non-profit,09/27/2000,32.545002, -94.363315,false,true
476,313035,HEALTHSOUTH REHABILITATION HOSPITAL OF TINTON FALL,2 CENTRE PLAZA,TINTON FALLS,NJ,7724,Monmouth,(732) 460-5320,For profit,05/30/2002,40.302745, -74.098195,false,true
477,36T070,MERCY MEDICAL CENTER,MERCY MEDICAL CENTER,CANTON,OH,44708,Stark,(330) 489-1000,Non-profit,01/01/1985,40.797388, -81.377036,false,true
478,10T288,ST MARY'S WEST PALM BEACH,ST. MARY'S MEDICAL CENTER 901 45TH STREET,WEST PALM BEACH,FL,33407,Miami-Dade,(561) 841-9409,For profit,06/01/2011,26.714439, -80.054947,false,true
479,29T007,RANCHO REHABILITATION,4333 NORTH RANCHO DR.,LAS VEGAS,NV,89130,Clark,(702) 656-0467,Government,12/31/1995,36.169202, -115.140597,false,true
480,32T085,MOUNTAIN VIEW REGIONAL MEDICAL CENTER,4311 EAST LOHMAN AVENUE,LAS CRUCES,NM,88011,Dona Ana,(505) 556-6975,For profit,04/01/2005,32.316215, -106.780434,false,true
481,06T020,PARKVIEW MEDICAL CENTER,400 W. 16TH ST.,PUEBLO,CO,81003,Pueblo,(719) 595-7020,Non-profit,07/01/1994,38.265425, -104.610415,false,true
482,11T143,WELLSTAR COBB HOSPITAL,3950 AUSTELL ROAD 3950 AUSTELL RD,AUSTELL,GA,30106,Cobb,(770) 732-5033,Non-profit,07/01/1997,33.813161, -84.63473,false,true
483,313033,SHORE REHABILITATION INSTITUTE,"425 JACK MARTIN BOULEVARD, SECOND FLOOR, EAST WING",BRICK,NJ,8724,Ocean,(732) 836-4530,Non-profit,06/29/1995,40.074835, -74.153109,false,true
484,25T084,MERIT HEALTH NATCHEZ,54 SEARGENT PRENTISS DRIVE,NATCHEZ,MS,39120,Adams,(601) 443-2570,For profit,10/01/2001,31.561592, -91.405318,false,true
485,053037,BALLARD REHABILITATION HOSPITAL,1760 WEST 16TH ST,SAN BERNARDINO,CA,92411,San Bernardino,(909) 473-1275,Non-profit,07/27/1993,34.108323, -117.29415,false,true
486,01T157,JW SOMMER REHABILITATION UNIT,201 AVALON AVE,MUSCLE SHOALS,AL,35661,Colbert,(256) 386-1687,Government,01/01/2009,34.74491, -87.667715,false,true
487,013030,HEALTHSOUTH REHABILITATION HOSPITAL,1736 EAST MAIN STREET,DOTHAN,AL,36301,Houston,(334) 712-6333,For profit,05/12/1994,31.224297, -85.391121,false,true
488,05T078,PROVIDENCE LITTLE CO OF MARY MEDICAL CTR SAN PEDRO,1300 W. SEVENTH STREET,SAN PEDRO,CA,90732,Los Angeles,(310) 514-5402,Non-profit,01/01/1984,33.735802, -118.291397,false,true
489,23T021,"LAKELAND HOSPITAL, ST. JOSEPH",1234 NAPIER AVENUE,SAINT JOSEPH,MI,49085,Berrien,(269) 983-8586,Non-profit,10/01/1988,42.110545, -86.479361,false,true
490,44T058,SOUTHERN TENNESSEE MEDICAL CTR,185 HOSPITAL ROAD,WINCHESTER,TN,37398,Franklin,(931) 967-8390,For profit,01/01/2003,35.186788, -86.111798,false,true
491,36T016,JEWISH HOSPITAL-MERCY HEALTH,4777 E. GALBRAITH ROAD,CINCINNATI,OH,45236,Hamilton,(502) 596-6346,Non-profit,01/01/1986,39.104427, -84.513808,false,true
492,18T027,MURRAY CALLOWAY COUNTY HOSPITAL,803 POPLAR STREET,MURRAY,KY,42071,Calloway,(502) 596-6346,Non-profit,10/01/2007,36.610582, -88.315258,false,true
493,14T015,BLESSING HOSPITAL,BROADWAY @ 11TH,QUINCY,IL,62305,Adams,(217) 223-8400,Non-profit,10/01/1985,39.93553, -91.388754,false,true
494,343025,CAREPARTNERS  REHABILITATION HOSP,68 SWEETEN CREEK RD,ASHEVILLE,NC,28813,Buncombe,(828) 274-2400,Non-profit,10/01/1986,35.595889, -82.550039,false,true
495,39T151,CHAMBERSBURG HOSPITAL,112 N SEVENTH ST,CHAMBERSBURG,PA,17201,Franklin,(717) 267-3000,Non-profit,07/01/1987,39.937306, -77.659708,false,true
496,24T004,MILAND E KNAPP REHAB CENTER,701 PARK AVE,MINNEAPOLIS,MN,55415,Hennepin,(612) 873-8544,Government,09/11/1996,44.977479, -93.264346,false,true
497,33T047,ST. MARY'S HOSPITAL AT AMSTERDAM,427 GUY PARK AVENUE,AMSTERDAM,NY,12010,Montgomery,(518) 842-1900,Non-profit,07/01/2009,42.937753, -74.190343,false,true
498,23T156,ST. JOSEPH MERCY HOSPITAL-ANN ARBOR,5301 EAST HURON RIVER DRIVE,ANN ARBOR,MI,48106,Washtenaw,(734) 712-5358,Non-profit,07/01/1984,42.281419, -83.748478,false,true
499,443032,HEALTHSOUTH CHATTANOOGA REHAB HOSPITAL,2412 MCCALLIE AVENUE,CHATTANOOGA,TN,37404,Hamilton,(423) 698-0221,For profit,06/01/2014,35.045756, -85.308287,false,true
500,453042,HEALTHSOUTH CITY VIEW REHAB HOSPITAL,6701 OAKMONT BOULEVARD,FORT WORTH,TX,76132,Tarrant,(817) 370-4700,For profit,07/10/1990,32.739977, -97.340038,false,true
501,36T082,EUCLID HOSPITAL,18901 LAKESHORE BOULEVARD,EUCLID,OH,44119,Cuyahoga,(216) 531-9000,Non-profit,01/01/1984,41.598797, -81.526797,false,true
502,37T149,UNITY HEALTH CENTER,1900 GORDON COOPER DRIVE,SHAWNEE,OK,74801,Pottawatomie,(405) 395-5400,Non-profit,,35.327404, -96.924828,false,true
503,19T041,CHRISTUS SCHUMPERT HEALTH SYSTEM,1 ST. MARY PLACE,SHREVEPORT,LA,71101,Caddo,(318) 848-8665,Non-profit,07/01/1989,32.51424, -93.747757,false,true
504,23T029,ST JOSEPH MERCY - OAKLAND,44405 WOODWARD AVE.,PONTIAC,MI,48341,Oakland,(248) 858-6311,Non-profit,07/01/1984,42.638782, -83.292696,false,true
505,24T010,ST MARYS HOSPITAL,1216 2 ST. SW 200 FIRST STREET SW,ROCHESTER,MN,55902,Olmsted,(507) 538-4168,Non-profit,07/01/1984,44.019331, -92.458867,false,true
506,103026,ST CATHERINE'S REHABILITATION HOSPITAL,1050 NE 125TH ST,NORTH MIAMI,FL,33161,Miami-Dade,(305) 891-8850,Non-profit,02/07/1984,25.890378, -80.184467,false,true
507,33T059,MONTEFIORE MEDICAL CENTER,600 E 233 STREET,BRONX,NY,10466,Bronx,(718) 920-4906,Non-profit,01/01/1986,40.826153, -73.920265,false,true
508,443031,HEALTHSOUTH REHABILITATION HOSPITAL - NORTH,4100 AUSTIN PEAY HIGHWAY,MEMPHIS,TN,38128,Shelby,(901) 213-5400,For profit,03/08/2002,35.143378, -90.052136,false,true
509,013029,HEALTHSOUTH REHABILITATION HOSPITAL OF NORTH AL,107 GOVERNORS DRIVE,HUNTSVILLE,AL,35801,Madison,(205) 535-2300,For profit,06/04/1987,34.577718, -86.835836,false,true
510,05T174,SANTA ROSA MEMORIAL HOSPITAL,1165 MONTGOMERY DR.,SANTA ROSA,CA,95405,Sonoma,(707) 547-5486,Non-profit,02/01/2000,38.439698, -122.715642,false,true
511,14T010,EVANSTON HOSPITAL,2650 RIDGE AVENUE,EVANSTON,IL,60201,Cook,(847) 570-2000,Non-profit,10/01/1983,42.052157, -87.687867,false,true
512,45T015,PARKLAND HEALTH HOSPITAL SYS,5200 HARRY HINES BLVD,DALLAS,TX,75235,Dallas,(469) 419-2024,Government,09/01/2015,32.777977, -96.796215,false,true
513,14T213,SILVER CROSS HOSPITAL,1900 SILVER CROSS BLVD.,NEW LENOX,IL,60451,Will,(815) 300-1100,Non-profit,10/01/2012,41.512186, -87.965824,false,true
514,33T053,MEDINA MEMORIAL HEALTH CARE,COMPREHENSIVE MEDICAL REHAB,MEDINA,NY,14103,Orleans,(585) 798-8151,Non-profit,01/01/1998,43.2204, -78.386928,false,true
515,03T117,VALLEY VIEW MEDICAL CENTER,5330 S HIGHWAY 95,FT MOHAVE,AZ,86426,Mohave,(928) 788-7005,For profit,06/28/2006,35.004241, -114.58032,false,true
516,05T485,LONG BEACH MEMORIAL MEDICAL CENTER,2801 ATLANTIC AVENUE,LONG BEACH,CA,90806,Los Angeles,(562) 933-9074,Non-profit,10/01/1983,33.767168, -118.193723,false,true
517,07T033,DANBURY HOSPITAL,24 HOSPITAL AVENUE,DANBURY,CT,6810,Fairfield,(203) 739-7978,Non-profit,10/01/1983,41.393666, -73.451539,false,true
518,24T052,LAKE REGION HEALTHCARE CORPORATION,712 SOUTH CASCADE STREET,FERGUS FALLS,MN,56537,Otter Tail,(218) 736-8000,Non-profit,01/01/2002,46.27836, -96.074161,false,true
519,14T008,GOTTLIEB MEMORIAL HOSPITAL,701 W NORTH AVE,MELROSE PARK,IL,60160,Cook,(708) 538-4219,Non-profit,07/01/2016,41.893429, -87.85661,false,true
520,33T128,ELMHURST HOSPITAL CENTER,79-01 BROADWAY,"ELMHURST, NEW YORK",NY,11373,Queens,(718) 334-2611,Government,01/01/1985,42.089823, -76.808259,false,true
521,103044,HEALTHSOUTH REHABILITATION HOSPITAL AT MARTIN HEAL,5850 SE COMMUNITY DR,STUART,FL,34997,Martin,(772) 324-3522,For profit,06/24/2013,27.177909, -80.236911,false,true
522,43T077,REGIONAL REHABILITATION INSTITUTE,2908 5TH ST.,RAPID CITY,SD,57701,Pennington,(605) 755-1205,Non-profit,07/01/2017,44.082995, -103.224443,false,true
523,39T036,HERITAGE VALLEY BEAVER,1000 DUTCH RIDGE ROAD,BEAVER,PA,15009,Beaver,(724) 773-1959,Non-profit,07/01/2010,40.694266, -80.307203,false,true
524,05T167,SAN JOAQUIN GENERAL HOSPITAL,500 W. HOSPITAL ROAD,FRENCH CAMP,CA,95231,San Joaquin,(209) 468-7280,Government,07/01/1984,37.885226, -121.271517,false,true
525,063033,NORTHERN COLORADO REHABILITATION HOSPITAL INC,4401 UNION STREET,JOHNSTOWN,CO,80534,Weld,(970) 619-3400,Non-profit,08/24/2005,40.334795, -104.920849,false,true
526,44T193,UNIVERSITY MEDICAL CENTER,500 PARK AVENUE,LEBANON,TN,37087,Wilson,(615) 453-7261,Non-profit,06/01/1995,36.213087, -86.306476,false,true
527,26T193,ST MARYS MEDICAL CENTER,201 NW R.D. MIZE,BLUE SPRINGS,MO,64014,Jackson,(816) 655-5516,Non-profit,07/01/2000,39.0239, -94.276029,false,true
528,39T327,WELLSPAN SURGERY AND REHABILITATION HOSPITAL,55 MONUMENT RD,YORK,PA,17403,York,(717) 812-6100,Non-profit,04/26/2012,39.960339, -76.734668,false,true
529,10T126,PALMS OF PASADENA HOSPITAL,1501 PASADENA AVE S,ST PETERSBURG,FL,33707,Pinellas,(727) 341-7885,For profit,12/01/2005,27.772069, -82.638488,false,true
530,34T027,LENOIR MEMORIAL HOSPITAL REHAB UNIT,100 AIRPORT RD,KINSTON,NC,28501,Lenoir,(252) 522-7772,Non-profit,10/01/2014,35.258873, -77.57946,false,true
531,23T197,GENESYS REGIONAL MEDICAL CTR,ONE GENESYS PARKWAY,GRAND BLANC,MI,48439,Genesee,(810) 606-6543,Non-profit,10/01/1990,42.924785, -83.62255,false,true
532,14T116,CENTEGRA HOSPITAL - MCHENRY,4201 MEDICAL CENTER DRIVE,MCHENRY,IL,60050,McHenry,(815) 759-4612,Non-profit,07/01/2004,42.344597, -88.27339,false,true
533,193079,UNITED MEDICAL REHABILITATION HOSPITAL,15717 BELLE DRIVE,HAMMOND,LA,70403,Tangipahoa,(985) 340-5998,For profit,06/03/2002,30.503682, -90.458285,false,true
534,34T004,HIGH POINT REGIONAL HOSPITAL,601 N ELM ST,HIGH POINT,NC,27262,Guilford,(336) 878-6442,Non-profit,07/01/2015,35.953972, -80.003935,false,true
535,23T070,COVENANT HEALTHCARE,515 MICHIGAN AVENUE,SAGINAW,MI,48602,Saginaw,(502) 596-6346,Non-profit,07/01/1991,43.419547, -83.946359,false,true
536,33T024,MT SINAI MEDICAL CENTER,ONE GUSTAVE L LEVY PLACE,NEW YORK,NY,10029,New York,(212) 659-9373,Non-profit,01/01/1987,40.713054, -74.007228,false,true
537,38T051,SALEM HOSPITAL,890 OAK STREET PO BOX 14001,SALEM,OR,97301,Marion,(503) 814-4731,Non-profit,10/01/1983,44.939016, -123.039307,false,true
538,05T016,ARROYO GRANDE COMMUNITY HOSPITAL,345 SOUTH HALCYON ROAD,ARROYO GRANDE,CA,93420,San Luis Obispo,(805) 473-7663,Non-profit,07/01/2011,35.124098, -120.576388,false,true
539,39T211,SHARON REGIONAL HEALTH SYSTEM,740 E STATE ST,SHARON,PA,16146,Mercer,(724) 983-5677,For profit,07/01/1990,41.233012, -80.495345,false,true
540,39T156,MERCY FITZGERALD HOSPITAL,INPATIENT REHABILITATION UNIT,DARBY,PA,19023,Delaware,(610) 237-2766,Non-profit,07/01/1984,39.918212, -75.260717,false,true
541,193097,COVINGTON - A M G PHYSICAL REHABILITATION HOSPITAL,5025 KEYSTONE BLVDSUITE 200,COVINGTON,LA,70433,St. Tammany,(985) 888-0301,For profit,05/10/2016,30.477748, -90.107139,false,true
542,19T144,MINDEN MEDICAL CENTER REHAB,1 MEDICAL CENTER,MINDEN,LA,71055,Webster,(318) 371-3291,For profit,09/01/2001,32.615324, -93.286199,false,true
543,19T065,BATON ROUGE GENERAL MEDICAL CENTER,3600 FLORIDA BLVD.,BATON ROUGE,LA,70806,East Baton Rouge,(225) 387-7000,Non-profit,10/01/1992,30.443319, -91.187488,false,true
544,37T020,MERCY HOSPITAL ADA,430 NORTH MONTE VISTA,ADA,OK,74820,Pontotoc,(580) 421-1183,Non-profit,10/01/2004,34.774512, -96.678643,false,true
545,44T009,CUMBERLAND MEDICAL CENTER,421 S MAIN STREET,CROSSVILLE,TN,38555,Cumberland,(931) 459-7768,Non-profit,07/01/2010,35.953117, -85.036241,false,true
546,193044,"NORTH OAKS REHABILITATION HOSPITAL, L L C",1900 S MORRISON BLVD,HAMMOND,LA,70403,Tangipahoa,(985) 542-7777,Government,08/24/1995,30.503682, -90.458285,false,true
547,443033,QUILLEN REHABILITATION HOSPITAL,2511 WESLEY STREET,JOHNSON CITY,TN,37601,Washington,(423) 952-1700,For profit,12/16/2014,36.320614, -82.342538,false,true
548,23T093,MECOSTA COUNTY MEDICAL CENTER,605 OAK ST,BIG RAPIDS,MI,49307,Mecosta,(231) 592-4455,Government,07/01/1995,43.702205, -85.48398,false,true
549,05T624,HENRY MAYO NEWHALL MEM HOSP,23834 MCBEAN PKWY,VALENCIA,CA,91355,Los Angeles,(661) 253-8979,Non-profit,10/01/1994,34.389444, -118.564722,false,true
550,013033,REGIONAL REHABILITATION HOSPITAL,3715 HIGHWAY 280,PHENIX CITY,AL,36869,Russell,(334) 732-2200,For profit,11/12/2003,32.47292, -85.000787,false,true
551,14T150,UNIVERSITY OF ILLINOIS MEDICAL CENTER AT CHICAGO,1740 W. TAYLOR ST. M/C 889,CHICAGO,IL,60612,Cook,(312) 996-3698,Government,07/01/1988,41.883229, -87.632398,false,true
552,36T041,UNIVERSITY HOSPITALS PARMA MEDICAL CENTER,7007 POWERS BLVD.,PARMA,OH,44129,Cuyahoga,(440) 743-4302,Non-profit,01/01/1989,41.384498, -81.734664,false,true
553,05T283,VALLEY MEMORIAL HOSPITAL,1111 EAST STANLEY BLVD.,LIVERMORE,CA,94550,Alameda,(925) 373-4183,Non-profit,07/01/2003,37.675914, -121.758862,false,true
554,23T270,OAKWOOD HERITAGE HOSPITAL,10000 TELEGRAPH,TAYLOR,MI,48101,Wayne,(313) 295-5139,Non-profit,07/01/1988,42.226578, -83.262638,false,true
555,06T034,SWEDISH GENERAL REHABILITATION,501 E. HAMPDEN AVE.,ENGLEWOOD,CO,80113,Arapahoe,(303) 788-6754,For profit,09/01/1996,39.649436, -104.98891,false,true
556,26T119,POPLAR BLUFF REGIONAL MED CTR,3100 OAK GROVE ROAD,POPLAR BLUFF,MO,63901,Butler,(573) 778-5163,For profit,01/01/1993,36.764901, -90.402334,false,true
557,17T006,VIA CHRISTI HOSP PITTSBURG,1102 E. CENTENNIAL,PITTSBURG,KS,66762,Crawford,(502) 596-6346,Non-profit,10/01/2003,37.411115, -94.704813,false,true
558,19T190,CALDWELL MEMORIAL HOSPITAL,P.O. BOX 899,COLUMBIA,LA,71418,Caldwell,(318) 649-6111,For profit,01/01/2004,32.102316, -92.074722,false,true
559,26T005,SSM ST. JOSEPH HEALTH CENTER,300 FIRST CAPITOL DRIVE,ST. CHARLES,MO,63301,St. Charles,(636) 947-5381,Non-profit,01/01/2008,38.781153, -90.486926,false,true
560,23T066,HACKLEY HOSPITAL,1700 CLINTON STREET,MUSKEGON,MI,49443,Muskegon,(231) 728-4007,Non-profit,04/01/1988,43.234221, -86.246388,false,true
561,423028,HEALTHSOUTH REHABILITATION HOSPITAL OF ROCK HILL,1795 FRANK GASTON BLVD,ROCK HILL,SC,29732,York,(803) 326-3500,For profit,05/25/2000,34.94133, -81.0301,false,true
562,24T063,ST JOSEPHS HOSPITAL,69 WEST EXCHANGE STREET,SAINT PAUL,MN,55102,Ramsey,(612) 291-3122,Non-profit,07/01/1985,44.943719, -93.094281,false,true
563,14T209,UNITYPOINT HEALTH METHODIST/PROCTOR,221 NE GLEN OAK AVE,PEORIA,IL,61636,Peoria,(309) 671-8263,Non-profit,01/01/1984,40.694592, -89.590362,false,true
564,11T115,WELLSTAR ATLANTA MEDICAL CENTER,303 PARKWAY DR. NE,ATLANTA,GA,30312,Fulton,(404) 265-1066,For profit,01/01/1987,33.748547, -84.391502,false,true
565,183030,GATEWAY REHABILITATION HOSPITAL,5940 MERCHANTS STREET,FLORENCE,KY,41042,Boone,(859) 426-2400,Non-profit,01/11/2001,38.998876, -84.626609,false,true
566,19T045,ST TAMMANY PARISH HOSPITAL,1202 SOUTH TYLER STREET,COVINGTON,LA,70433,St. Tammany,(985) 898-4453,Government,01/01/2003,30.477748, -90.107139,false,true
567,103037,HEALTHSOUTH REHABILITATION HOSPITAL OF LARGO,901 CLEARWATER LARGO RD N,LARGO,FL,34641,Pinellas,(727) 586-2999,For profit,01/23/1989,27.91829, -82.774936,false,true
568,37T026,ST MARYS REGIONAL MEDICAL CTR,305 S FIFTH ST,ENID,OK,73701,Garfield,(580) 548-5072,For profit,01/05/2014,36.393157, -97.87832,false,true
569,39T058,CARLISLE REGIONAL MEDICAL CENTER,361 ALEXANDER SPRING ROAD,CARLISLE,PA,17013,Cumberland,(717) 960-3262,For profit,07/01/2000,40.201476, -77.189095,false,true
570,19T039,WEST JEFFERSON MEDICAL CENTER,1101 MEDICAL CENTER BOULEVARD,MARRERO,LA,70072,Jefferson,(502) 596-6346,Non-profit,01/01/1997,29.889449, -90.113961,false,true
571,043033,CONWAY REGIONAL REHABILITATION HOSPITAL,2210 ROBINSON STREET,CONWAY,AR,72034,Faulkner,(501) 932-3500,For profit,12/17/2004,35.091798, -92.4367,false,true
572,33T246,ST CHARLES HOSPITAL,200 BELLE TERRE ROAD,PORT JEFFERSON,NY,11777,Suffolk,(631) 474-6826,Non-profit,01/01/1985,40.945139, -73.067893,false,true
573,373034,ST JOHN REHAB HOSPITAL AFFILIATED W/HEALTHSOUTH,1200 W ALBANY DRIVE,TULSA,OK,74104,Tulsa,(918) 744-2291,For profit,09/26/2016,36.155327, -95.992083,false,true
574,36T211,THE TRINITY REHABILITATION CENTER,380 SUMMIT AVE,STEUBENVILLE,OH,43952,Jefferson,(740) 283-7809,Non-profit,12/22/1998,40.369896, -80.632082,false,true
575,05T502,ST. VINCENT MEDICAL CENTER,2131 W. THIRD STREET,LOS ANGELES,CA,90057,Los Angeles,(502) 596-6346,Non-profit,07/01/2008,34.052238, -118.243344,false,true
576,13T049,KOOTENAI MEDICAL CENTER,2003 LINCOLN WAY,COEUR D ALENE,ID,83814,Kootenai,(208) 666-2956,Government,12/01/1986,47.673517, -116.784122,false,true
577,05T082,ST JOHNS REGIONAL MEDICAL CENTER,1600 NORTH ROSE AVENUE,OXNARD,CA,93030,Ventura,(805) 988-2658,Non-profit,07/01/1992,34.197663, -119.175947,false,true
578,263029,MERCY REHABILITATION HOSPITAL ST LOUIS,14561 NORTH OUTER FORTY,CHESTERFIELD,MO,63017,St. Louis,(314) 889-2704,For profit,08/09/2007,38.661405, -90.564272,false,true
579,40T003,REHABCARE CENTER AT HOSPITAL DR. PILA,AVENUE LAS AMERICAS,PONCE,PR,733,Ponce,(787) 848-5600,Non-profit,07/01/2004,18.012628, -66.626038,false,true
580,44T231,TRUSTPOINT HOSPITAL OF MURFREESBORO,1009 N THOMPSON LANE,MURFREESBORO,TN,37129,Rutherford,(615) 867-1111,For profit,09/18/2012,35.845963, -86.391449,false,true
581,14T082,WEISS MEMORIAL HOSPITAL,4646 N. MARINE DRIVE,CHICAGO,IL,60640,Cook,(773) 878-8700,For profit,07/01/1993,41.883229, -87.632398,false,true
582,363039,UNIVERSITY HOSPITALS AVON REHABILITATION HOSPITAL,37900 CHESTER ROAD,AVON,OH,44011,Lorain,(440) 695-7101,For profit,03/10/2016,41.45164, -82.035051,false,true
583,16T069,MERCY MEDICAL CENTER - DUBUQUE,250 MERCY DRIVE,DUBUQUE,IA,52001,Dubuque,(563) 589-8488,Non-profit,07/10/2000,42.505512, -90.667314,false,true
584,14T240,WESTLAKE HOSPITAL,1225 WEST LAKE STREET,MELROSE PARK,IL,60160,Cook,(708) 681-3000,Non-profit,01/01/1985,41.893429, -87.85661,false,true
585,343026,CAROLINAS REHABILITATION,1100 BLYTHE BOULEVARD,CHARLOTTE,NC,28203,Mecklenburg,(704) 355-4370,Government,01/01/1996,35.222936, -80.840161,false,true
586,36T066,ST RITAS MEDICAL CENTER,730 W MARKET ST,LIMA,OH,45801,Allen,(419) 227-3361,Non-profit,01/01/1991,40.742696, -84.104987,false,true
587,153037,SOUTHERN INDIANA REHABILITATION HOSPITAL,3104 BLACKISTON BLVD,NEW ALBANY,IN,47150,Floyd,(812) 941-6106,Non-profit,03/01/2002,38.283507, -85.823002,false,true
588,07T007,LAWRENCE MEMORIAL HOSPITAL,365 MONTAUK AVE,NEW LONDON,CT,6320,New London,(860) 442-0711,Non-profit,10/01/1983,41.355167, -72.099561,false,true
589,193092,BETHESDA REHABILITATION HOSPITAL,8225 SUMMA AVE,BATON ROUGE,LA,70809,East Baton Rouge,(225) 767-2034,For profit,12/20/2005,30.443319, -91.187488,false,true
590,393047,GEISINGER HEALTHSOUTH REHABILITATION HOSPITAL,2 REHAB LANE,DANVILLE,PA,17821,Montour,(570) 271-6110,For profit,11/20/1997,40.964384, -76.617014,false,true
591,13T018,EASTERN IDAHO REGIONAL MEDICAL CENTER,3100 CHANNING WAY P.O. BOX 2077,IDAHO FALLS,ID,83403,Bonneville,(208) 529-7679,For profit,01/01/1990,43.490842, -112.039087,false,true
592,05T757,ALVARADO HOSPITAL LLC,6645 ALVARADO RD,SAN DIEGO,CA,92120,San Diego,(619) 229-7125,For profit,01/01/2007,32.71576, -117.163817,false,true
593,11T165,SOUTHERN REGIONAL MEDICAL CENTER,11 UPPER RIVERDALE RD SW,RIVERDALE,GA,30274,Clayton,(770) 991-8000,Non-profit,07/01/2005,33.572628, -84.412534,false,true
594,36T155,SOUTHWEST GENERAL HOSPITAL,"18697 BAGLEY RD ONE SOUTH, ACUTE REHAB UNIT",MIDDLEBURG HEIGHTS,OH,44130,Cuyahoga,(440) 816-4075,Non-profit,01/01/2008,41.370822, -81.80789,false,true
595,25T099,THE LEFLORE REHABILITATION CENTER,1401 RIVER RD.,GREENWOOD,MS,38930,Leflore,(662) 451-5181,Government,10/01/2002,33.521468, -90.192849,false,true
596,453056,CHRISTUS TRINITY MOTHER FRANCES REHABILITATION HOS,3131 TROUP HWY,TYLER,TX,75701,Smith,(903) 510-7000,For profit,02/04/1993,32.350763, -95.300644,false,true
597,043028,HEALTHSOUTH REHABILITATION HOSPITAL OF FORT SMITH,1401 SOUTH J STREET,FORT SMITH,AR,72901,Sebastian,(479) 785-3300,For profit,11/12/1986,35.386636, -94.424357,false,true
598,05T625,CEDARS-SINAI MEDICAL CENTER,8700 BEVERLY BLVD,LOS ANGELES,CA,90048,Los Angeles,(310) 423-4255,Non-profit,04/01/1984,34.052238, -118.243344,false,true
599,103027,ST ANTHONY'S REHABILITATION HOSPITAL,3487 NW 30TH ST,LAUDERDALE LAKES,FL,33311,Broward,(954) 739-6233,Non-profit,11/02/1984,26.16856, -80.2062,false,true
600,323027,HEALTHSOUTH REHABILITATION HOSPITAL,7000 JEFFERSON STREET NE,ALBUQUERQUE,NM,87109,Bernalillo,(505) 344-9478,For profit,03/09/1988,35.084248, -106.649241,false,true
601,44T151,RIVER PARK INPATIENT REHABILITATION,1559 SPARTA RD,MCMINNVILLE,TN,37110,Warren,(502) 596-6346,For profit,04/30/1998,35.681402, -85.774444,false,true
602,43T016,AVERA MCKENNAN HOSPITAL,1325 S. CLIFF AVE,SIOUX FALLS,SD,57105,Minnehaha,(605) 322-5010,Non-profit,08/04/2016,43.488765, -96.743185,false,true
603,37T032,DEACONESS HOSPITAL,5501 N. PORTLAND,OKLAHOMA CITY,OK,73112,Oklahoma,(405) 604-4119,For profit,11/01/2005,35.468494, -97.521264,false,true
604,14T091,CARLE FOUNDATION HOSPITAL,611 W. PARK,URBANA,IL,61801,Champaign,(217) 383-6423,Non-profit,07/01/1991,40.112458, -88.207457,false,true
605,28T125,FAITH REGIONAL HEALTH SERVICES,1500 KOENIGSTEIN,NORFOLK,NE,68701,Madison,(402) 644-7184,Non-profit,01/01/2005,42.032834, -97.411879,false,true
606,11T122,SOUTH GEORGIA MEDICAL CENTER,2501 N PATTERSON ST,VALDOSTA,GA,31603,Lowndes,(229) 259-4289,Government,10/01/1991,30.830747, -83.278796,false,true
607,04T118,NEA BAPTIST MEMORIAL HOSPITAL,4800 E JOHNSON AVE,JONESBORO,AR,72401,Craighead,(870) 936-1030,Non-profit,10/01/2015,35.838393, -90.710505,false,true
608,043035,CHI ST VINCENT HOT SPRINGS REHABILITATION HOSPITAL,1636 HIGDON FERRY ROAD,HOT SPRINGS,AR,71913,Garland,(501) 622-1887,For profit,04/11/2016,34.502785, -93.055659,false,true
609,29T019,CARSON TAHOE REGIONAL MEDICAL CENTER,1600 MEDICAL PARKWAY,CARSON CITY,NV,89703,Carson City,(775) 445-5053,Non-profit,12/08/2008,39.16458, -119.766919,false,true
610,10T052,WINTER HAVEN HOSPITAL,JOY-FULLER REHAB CENTER,WINTER HAVEN,FL,33881,Polk,(863) 291-6780,Non-profit,10/01/1988,28.025878, -81.732884,false,true
611,19T002,LAFAYETTE GENERAL SOUTHWEST,2810 AMBASSADOR CAFFERY PKWY.,LAFAYETTE,LA,70505,Lafayette,(337) 406-4162,Non-profit,10/01/1985,30.22126, -92.018773,false,true
612,23T019,PROVIDENCE HOSPITAL,16001 W 9 MILE RD,SOUTHFIELD,MI,48174,Oakland,(248) 849-5802,Non-profit,07/01/1991,42.477952, -83.240756,false,true
613,29T008,NORTHEASTERN NV REGIONAL HOSPITAL,2001 ERRECART BLVD,ELKO,NV,89801,Elko,(775) 738-5151,Non-profit,07/01/2011,40.835734, -115.759456,false,true
614,323032,"REHABILITATION HOSPITAL OF SOUTHERN NEW MEXICO,INC",4441 EAST LOHMAN AVENUE,LAS CRUCES,NM,88011,Dona Ana,(575) 521-6400,For profit,03/25/2005,32.316215, -106.780434,false,true
615,14T117,PRESENCE RESURRECTION MEDICAL CENTER,7435 W TALCOTT AVE,CHICAGO,IL,60631,Cook,(773) 990-6627,Non-profit,07/01/1991,41.883229, -87.632398,false,true
616,23T054,MARQUETTE GENERAL HEALTH SYS,420 W MAGNETIC ST,MARQUETTE,MI,49855,Marquette,(502) 596-6346,Government,07/01/1984,46.54391, -87.397554,false,true
617,26T108,MISSOURI BAPTIST MEDICAL CTR,3015 N BALLAS RD,ST LOUIS,MO,63131,St. Louis,(314) 713-4931,Non-profit,04/02/2001,38.630276, -90.200309,false,true
618,18T040,FRAZIER REHAB INSTITUTE,220 ABRAHAM FLEXNER WAY,LOUISVILLE,KY,40202,Jefferson,(502) 587-4413,Non-profit,01/01/1995,38.256078, -85.751569,false,true
619,33T199,METROPOLITAN HOSPITAL CENTER,1901 FIRST AVENUE REHABILITATION MEDICINE-RM 327,NYC,NY,10029,New York,(212) 423-7723,Government,01/01/1985,40.713054, -74.007228,false,true
620,39T173,REHAB CARE CENTER AT INDIANA REGIONAL MEDICAL CENT,835 HOSPITAL ROAD,INDIANA,PA,15701,Indiana,(502) 596-6346,Non-profit,07/01/2003,40.622982, -79.156034,false,true
621,24T084,ESSENTIA HEALTH VIRGINIA,901 9TH STREET NORTH,VIRGINIA,MN,55792,St. Louis,(502) 596-6346,Government,12/31/1999,47.523153, -92.538658,false,true
622,10T017,HALIFAX HEALTH,350 N. CLYDE MORRIS BLVD,DAYTONA BEACH,FL,32114,Volusia,(386) 254-4000,Government,10/01/2013,29.207056, -81.020739,false,true
623,05T126,VALLEY PRESBYTERIAN HOSPITAL REHABILITATION CENTER,15107 VANOWEN STREET,VAN NUYS,CA,91405,Los Angeles,(502) 596-6346,Non-profit,11/01/1994,34.186699, -118.448097,false,true
624,44T183,SAINT FRANCIS HOSPITAL,5959 PARK AVENUE,MEMPHIS,TN,38119,Shelby,(901) 765-2400,For profit,03/01/1985,35.143378, -90.052136,false,true
625,14T135,DECATUR MEMORIAL HOSPITAL,2300 NORTH EDWARD STREET,DECATUR,IL,62526,Macon,(217) 876-8121,Non-profit,10/01/1989,39.841454, -88.955851,false,true
626,22T074,SOUTHCOAST HOSPITALS GROUP INC.,CHARLTON MEMORIAL HOSPITAL 363 HIGHLAND AVENUE,FALL RIVER,MA,2720,Plymouth,(508) 973-7554,Non-profit,10/01/1990,41.701025, -71.155389,false,true
627,39T041,UNIONTOWN HOSPITAL,500 W. BERKELEY ST.,UNIONTOWN,PA,15401,Fayette,(724) 430-5141,Non-profit,07/01/1998,39.899226, -79.7283,false,true
628,03T061,BANNER BOSWELL MEDICAL CENTER - ACUTE REHABILITATI,10601 W SANTA FE DRIVE,SUN CITY,AZ,85351,Maricopa,(623) 832-4940,Non-profit,01/01/1984,33.63401, -112.272751,false,true
629,15T012,ST. JOSEPH REGIONAL MEDICAL CENTER,60205 BODNAR BLVD,MISHAWAKA,IN,46544,St. Joseph,(574) 335-8889,Non-profit,06/01/1984,41.661126, -86.1793,false,true
630,14T191,INGALLS MEMORIAL HOSPITAL,ONE INGALLS DRIVE,HARVEY,IL,60426,Cook,(708) 915-4686,Non-profit,01/01/1990,41.609919, -87.644598,false,true
631,453053,HEALTHSOUTH  REHABILITATION HOSPITAL OF TEXARKANA,515 WEST 12TH ST,TEXARKANA,TX,75501,Bowie,(903) 793-0088,For profit,04/30/1992,33.44221, -94.06408,false,true
632,39T009,SAINT VINCENT HOSPITAL,232 WEST 25TH STREET,ERIE,PA,16544,Erie,(^) -,Non-profit,07/01/1984,42.127951, -80.08258,false,true
633,013025,HEALTHSOUTH LAKESHORE REHABILITATION HOSPITAL,3800 RIDGEWAY DRIVE,BIRMINGHAM,AL,35209,Jefferson,(205) 868-2000,For profit,10/01/1983,33.522859, -86.807705,false,true
634,05T128,TRI-CITY MEDICAL CENTER,4002 VISTA WAY,OCEANSIDE,CA,92056,San Diego,(760) 940-7868,Government,07/01/1986,33.195906, -117.379517,false,true
635,36T153,BELMONT COMMUNITY HOSPITAL,4697 HARRISON ST,BELLAIRE,OH,43906,Belmont,(740) 671-1274,Non-profit,01/01/1997,40.022047, -80.742501,false,true
636,32T063,CARLSBAD MEDICAL CENTER,2430 WEST PIERCE STREET,CARLSBAD,NM,88220,Eddy,(505) 887-4458,For profit,01/01/1997,32.412716, -104.227819,false,true
637,42T101,COASTAL CAROLINA MEDICAL CENTER,1000 MEDICAL CENTER DRIVE,HARDEEVILLE,SC,29927,Jasper,(843) 784-8066,For profit,04/06/2005,32.281658, -81.074333,false,true
638,39T304,ROXBOROUGH MEMORIAL HOSPITAL,5800 RIDGE AVENUE,PHILADELPHIA,PA,19128,Philadelphia,(215) 487-4551,For profit,12/19/2002,39.951061, -75.16562,false,true
639,24T001,NORTH MEMORIAL MEDICAL CENTER,3300 OAKDALE AVENUE NORTH,ROBBINSDALE,MN,55422,Hennepin,(763) 520-4967,Non-profit,01/01/1984,45.029657, -93.33737,false,true
640,33R319,MEDINA MEMORIAL HEALTH CARE,COMPREHENSIVE MEDICAL REHAB 200 OHIO ST,MEDINA,NY,14103,Orleans,(585) 798-8151,Non-profit,01/01/1998,43.2204, -78.386928,false,true
641,39T328,UPMC EAST,2735 MOSSIDE BLVD,MONROEVILLE,PA,15146,Allegheny,(412) 648-6617,Non-profit,07/01/2014,40.424653, -79.79027,false,true
642,36T174,UPPER VALLEY MEDICAL CENTER,3130 N 25A,TROY,OH,45373,Miami,(937) 440-4855,Non-profit,01/01/1989,40.041657, -84.208058,false,true
643,443035,HEALTHSOUTH REHABILITATION HOSPITAL OF FRANKLIN,1000 PHYSICIANS WAY,FRANKLIN,TN,37067,Williamson,(205) 970-7739,For profit,01/25/2016,35.923652, -86.867827,false,true
644,36T121,COMMUNITY HOSPITALS OF WILLIAMS COUNTY,433 WEST HIGH STREET,BRYAN,OH,43506,Williams,(419) 485-3154,Non-profit,10/01/1994,41.474609, -84.551024,false,true
645,06T012,ST. MARY-CORWIN MEDICAL CENTER IRF,1008 MINNEQUA AVE.,PUEBLO,CO,81004,Pueblo,(719) 557-5149,Non-profit,07/01/1999,38.265425, -104.610415,false,true
646,363034,HEALTHSOUTH REHABILITATION HOSPITAL OF CINCINNATI,151 WEST GALBRAITH ROAD,CINCINNATI,OH,45216,Hamilton,(513) 418-5600,For profit,01/17/2012,39.104427, -84.513808,false,true
647,193090,"THE NEUROMEDICAL CENTER REHABILITATION HOSPITAL, L",10101 PARK ROWE AVENUE,BATON ROUGE,LA,70810,East Baton Rouge,(225) 906-2999,For profit,08/08/2005,30.443319, -91.187488,false,true
648,07T028,MF91,2800 MAIN STREET 10 EAST,BRIDGEPORT,CT,6606,Fairfield,(475) 210-5364,Non-profit,10/01/1999,41.179195, -73.189476,false,true
649,36T098,LAKE HOSPITAL SYSTEM,10977 CAPITAL PARKWAY,CONCORD,OH,44077,Lake,(440) 953-6251,Non-profit,01/01/2004,41.674502, -81.224258,false,true
650,44T175,CROCKETT HOSPITAL REHAB UNIT,1607 S LOCUST AVE,LAWRENCEBURG,TN,38464,Lawrence,(931) 766-3344,For profit,03/01/1997,35.251345, -87.326511,false,true
651,23T130,BEAUMONT - ROYAL OAK,3601 W 13 MILE RD.,ROYAL OAK,MI,48073,Oakland,(248) 898-1949,Non-profit,01/01/1984,42.489801, -83.144285,false,true
652,16T153,MERCY MEDICAL CENTER - SIOUX CITY,"801 5TH STREET 6NW, ROOM 6617",SIOUX CITY,IA,51101,Woodbury,(712) 279-2023,Non-profit,07/01/1994,42.496323, -96.406436,false,true
653,19T160,GLENWOOD REHABILITATION CENTER,503 MCMILAN ROAD,WEST MONROE,LA,71291,Ouachita,(318) 329-3667,For profit,09/01/1996,32.520528, -92.146504,false,true
654,453036,BAYLOR INSTITUTE FOR REHABILITATION,909 NORTH WASHINGTON AVENUE,DALLAS,TX,75246,Dallas,(214) 820-9543,For profit,02/16/1989,32.777977, -96.796215,false,true
655,14T208,ADVOCATE CHRIST MEDICAL CENTER,ADVOCATE CHRIST MEDICAL CENTER 4440 WEST 95TH STREET,OAK LAWN,IL,60453,Cook,(708) 684-2000,Non-profit,01/01/1984,41.719979, -87.750562,false,true
656,19T014,TECHE REGIONAL MEDICAL CENTER,1125 MARGUERITE STREET,MORGAN CITY,LA,70380,St. Mary,(985) 380-4397,For profit,01/01/2011,29.698443, -91.197065,false,true
657,253027,HEALTHSOUTH REHABILITATION HOSPITAL OF GULFPORT,"4500 13TH STREET, 3RD FLOOR, EAST TOWER",GULFPORT,MS,39501,Harrison,(228) 822-6965,Non-profit,05/01/2017,30.369834, -89.091582,false,true
658,03T093,DEL E. WEBB MEMORIAL HOSPITAL,14502 WEST MEEKER BLVD.,SUN CITY WEST,AZ,85375,Maricopa,(623) 214-4000,Non-profit,01/01/1993,33.656937, -112.350925,false,true
659,11T087,GLANCY REHABILITATION CENTER,3215 MCCLURE BRIDGE ROAD,DULUTH,GA,30096,Gwinnett,(678) 312-6000,Government,07/01/1995,34.003794, -84.145552,false,true
660,36T001,MERCY HEALTH ANDERSON HOSPITAL - REHAB UNIT,7500 STATE ROAD,CINCINNATI,OH,45255,Hamilton,(502) 596-7486,Non-profit,01/01/2017,39.104427, -84.513808,false,true
661,39T002,UPMC MCKEESPORT HOSPITAL,1500 FIFTH AVE.,MCKEESPORT,PA,15132,Allegheny,(412) 648-6617,Non-profit,07/01/1989,40.35077, -79.866644,false,true
662,10T231,WEST FLORIDA REHAB INSTITUTE,8391 NORTH DAVIS HIGHWAY,PENSACOLA,FL,32514,Escambia,(850) 494-6147,For profit,06/01/1985,30.406931, -87.217578,false,true
663,19T111,WILLIS-KNIGHTON MEDICAL CENTER,2600 GREENWOOD ROAD,SHREVEPORT,LA,71103,Caddo,(318) 212-4437,Non-profit,10/01/1991,32.51424, -93.747757,false,true
664,36T059,METROHEALTH MEDICAL CENTER,2500 METROHEALTH DRIVE,CLEVELAND,OH,44109,Cuyahoga,(216) 778-3136,Non-profit,07/01/1984,41.505546, -81.6915,false,true
665,113028,ROOSEVELT WARM SPRINGS REHABILITATION HOSPITAL,"6135 ROOSEVELT HIGHWAY, P O BOX 280",WARM SPRINGS,GA,31830,Meriwether,(706) 655-5515,Government,07/01/2006,32.890675, -84.679445,false,true
666,153028,REHABILITATION HOSPITAL OF INDIANA INC,4141 SHORE DR,INDIANAPOLIS,IN,46254,Marion,(317) 329-2000,Non-profit,02/10/1992,39.76845, -86.156212,false,true
667,34T113,CAROLINAS MEDICAL CENTER,1000 BLYTHE BLVD,CHARLOTTE,NC,28203,Mecklenburg,(704) 355-4602,Government,01/01/2017,35.222936, -80.840161,false,true
668,173032,REHABILITATION HOSPITAL OF OVERLAND PARK,5100 INDIAN CREEK PARKWAY,OVERLAND PARK,KS,66207,Johnson,(913) 544-1957,For profit,03/24/2015,38.974799, -94.683622,false,true
669,39T066,THE GOOD SAMARITAN HOSPITAL,4TH AND WALNUT STREETS,LEBANON,PA,17042,Lebanon,(717) 270-7500,Non-profit,07/01/1989,40.339785, -76.426335,false,true
670,173028,VIA CHRISTI REHABILITATION HOSPITAL INC,1151 N ROCK ROAD,WICHITA,KS,67206,Sedgwick,(316) 634-3400,Non-profit,04/15/1992,37.686024, -97.335571,false,true
671,10T173,FLORIDA HOSPITAL TAMPA,3100 EAST FLETCHER AVENUE,TAMPA,FL,33613,Hillsborough,(813) 615-7200,Non-profit,10/01/2007,27.947423, -82.458776,false,true
672,23T275,HEALTHSOURCE SAGINAW,3340 HOSPITAL RD,SAGINAW,MI,48603,Saginaw,(989) 790-7812,Non-profit,01/01/1984,43.419547, -83.946359,false,true
673,313025,KESSLER INSTITUTE FOR REHABILITATION - WEST FAC,1199 PLEASANT VALLEY WAY,WEST ORANGE,NJ,7052,Essex,(973) 731-3600,For profit,01/01/1985,40.792503, -74.269745,false,true
674,103039,BROOKS REHABILITATION HOSPITAL,3599 UNIVERSITY BLVD S,JACKSONVILLE,FL,32216,Duval,(904) 858-7625,Non-profit,01/03/1995,30.325968, -81.65676,false,true
675,39T127,REGIONAL REHAB CENTER,140 NUTT RD,PHOENIXVILLE,PA,19460,Chester,(610) 983-1440,For profit,07/01/2013,40.132857, -75.515819,false,true
676,14T133,HOLY CROSS HOSPITAL,2701 W 68TH ST,CHICAGO,IL,60629,Cook,(773) 884-7340,Non-profit,06/30/1984,41.883229, -87.632398,false,true
677,23T132,HURLEY MEDICAL CENTER,ONE HURLEY PLAZA,FLINT,MI,48503,Genesee,(810) 262-6200,Non-profit,07/01/1994,43.00992, -83.685109,false,true
678,36T151,AFFINITY MEDICAL CENTER,875 EIGHTH ST NE,MASSILLON,OH,44648,Stark,(330) 830-6990,For profit,04/01/2007,40.7968, -81.522001,false,true
679,14T046,GOOD SAMARITAN REGIONAL HEALTH CENTER,605 N 12TH ST,MT. VERNON,IL,62864,Jefferson,(618) 899-3196,Non-profit,01/01/1990,38.317612, -88.904734,false,true
680,373025,"VALIR REHABILITATION HOSPITAL OF OKC, LLC",700 NORTHWEST 7TH STREET,OKLAHOMA CITY,OK,73102,Oklahoma,(405) 236-3131,For profit,06/01/1984,35.468494, -97.521264,false,true
681,043026,BAPTIST HEALTH REHABILITATION INSTITUTE,9601 BAPTIST HEALTH DRIVE,LITTLE ROCK,AR,72205,Pulaski,(501) 202-7578,For profit,01/01/1984,34.748745, -92.275105,false,true
682,44T120,TENNOVA REHAB CARE CENTER,900 E. OAK HILL AVENUE,KNOXVILLE,TN,37917,Knox,(865) 545-7161,For profit,01/01/1992,35.962631, -83.916677,false,true
683,233026,MARY FREE BED HOSPITAL  &  REHABILITATION CENTER,235 WEALTHY SE,GRAND RAPIDS,MI,49503,Kent,(616) 242-0300,Non-profit,05/16/1984,42.965446, -85.670209,false,true
684,03T103,MAYO CLINIC HOSPITAL,5777 E. MAYO BOULEVARD,PHOENIX,AZ,85054,Maricopa,(480) 342-1826,Non-profit,11/18/1998,33.448204, -112.072585,false,true
685,39T113,MEADVILLE MEDICAL CENTER,1034 GROVE STREET,MEADVILLE,PA,16335,Crawford,(814) 333-5320,Non-profit,07/01/1993,41.646099, -80.147115,false,true
686,16T089,OTTUMWA REGIONAL HEALTH CENTER,1001 PENNSYLVANIA AVENUE,OTTUMWA,IA,52501,Wapello,(502) 596-6346,For profit,04/01/2006,41.023246, -92.413173,false,true
687,423031,"SPARTANBURG REHABILITATION INSTITUTE, INC",160 HAROLD FLEMING COURT,SPARTANBURG,SC,29303,Spartanburg,(864) 641-6510,For profit,09/19/2013,34.947914, -81.934664,false,true
688,15T100,ST. VINCENT EVANSVILLE,3700 WASHINGTON AVENUE,EVANSVILLE,IN,47750,Vanderburgh,(812) 485-5614,Non-profit,07/01/1999,37.975708, -87.569907,false,true
689,05T396,COTTAGE REHABILITATION HOSPITAL,PO BOX 689,SANTA BARBARA,CA,93105,Santa Barbara,(805) 569-7395,Non-profit,01/01/2008,34.420867, -119.698342,false,true
690,033034,YUMA REHABILITATION HOSPITAL,901 WEST 24TH STREET,YUMA,AZ,85364,Yuma,(928) 726-5000,For profit,04/22/2003,32.722313, -114.62088,false,true
691,453029,HEALTHSOUTH REHABILITATION HOSPITAL OF HUMBLE,19002 MCKAY DRIVE,HUMBLE,TX,77338,Harris,(281) 319-9509,For profit,11/21/1984,29.999022, -95.261315,false,true
692,33T405,HELEN HAYES HOSPITAL,ROUTE 9W,WEST HAVERSTRAW,NY,10993,Rockland,(845) 786-4000,Government,03/18/2005,41.20973, -73.985544,false,true
693,16T064,MERCY MEDICAL CENTER NORTH IOWA,1000 4TH ST SW,MASON CITY,IA,50401,Cerro Gordo,(641) 428-6182,Non-profit,07/01/2002,43.153621, -93.201042,false,true
694,05T278,PROVIDENCE HOLY CROSS MEDICAL CENTER,15031 RINALDI ST,MISSION HILLS,CA,91345,Los Angeles,(818) 496-4415,Non-profit,06/01/1992,32.7528, -117.186096,false,true
695,10T068,FLORIDA HOSPITAL OCEANSIDE,264 SOUTH ATLANTIC AVE,ORMOND BEACH,FL,32176,Volusia,(386) 671-5021,Non-profit,01/01/2006,29.319025, -81.098428,false,true
696,38T061,PROVIDENCE PORTLAND MEDICAL CENTER,4805 NE GLISAN,PORTLAND,OR,97213,Multnomah,(503) 215-5710,Non-profit,01/01/1984,45.516018, -122.681425,false,true
697,04T022,NORTHWEST MEDICAL CENTER INPATIENT REHAB,"609 W. MAPLE AVE. TOWER II, 3RD FLOOR",SPRINGDALE,AR,72764,Washington,(479) 757-2340,For profit,05/26/1998,36.185104, -94.138521,false,true
698,113030,HEALTHSOUTH WALTON REHABILITATION HOSPITAL,1355 INDEPENDENCE DRIVE,AUGUSTA,GA,30901,Richmond,(706) 724-7746,For profit,04/26/2013,33.472494, -81.964397,false,true
699,36T064,ST. ELIZABETH HEALTH CENTER,1044 BELMONT AVENUE,YOUNGSTOWN,OH,44501,Mahoning,(330) 480-3999,Non-profit,01/01/1998,41.100083, -80.649387,false,true
700,39T204,NAZARETH HOSPITAL REHAB,2601 HOLME AVENUE,PHILADELPHIA,PA,19152,Philadelphia,(215) 335-6420,Non-profit,07/01/1993,39.951061, -75.16562,false,true
701,42T087,ROPER REHABILITATION HOSPITAL,316 CALHOUN ST,CHARLESTON,SC,29401,Charleston,(843) 724-2825,Non-profit,10/01/1995,32.77647, -79.931027,false,true
702,01T033,SPAIN REHABILITATION CENTER,SRC 223E,BIRMINGHAM,AL,35249,Jefferson,(205) 934-4940,Government,10/01/1997,33.522859, -86.807705,false,true
703,10T157,LAKELAND REGIONAL HEALTH,1324 LAKELAND HILLS BLVD,LAKELAND,FL,33805,Polk,(863) 687-1100,Non-profit,10/01/2015,28.040507, -81.954113,false,true
704,05T135,SOUTHERN CALIFORNIA HOSPITAL AT CULVER CITY,3828 DELMAS TERRACE,CULVER CITY,CA,90231,Los Angeles,(310) 202-4777,For profit,01/01/2013,34.0225, -118.394287,false,true
705,393025,MAIN LINE HOSPITAL BRYN MAWR REHABILITATION,414 PAOLI PIKE,MALVERN,PA,19355,Chester,(610) 251-5400,Non-profit,07/01/1984,40.033434, -75.512711,false,true
706,01T144,SPRINGHILL MEDICAL CENTER,3719 DAUPHIN STREET,MOBILE,AL,36608,Mobile,(502) 596-6346,For profit,01/01/2016,30.688943, -88.044822,false,true
707,423027,"HEALTHSOUTH REHABILITATION HOSP OF CHARLESTON, INC",9181 MEDCOM ST,NORTH CHARLESTON,SC,29406,Charleston,(843) 820-7777,For profit,01/13/1994,32.87887, -80.013227,false,true
708,123025,REHABILITATION HOSPITAL OF THE PACIFIC,226 N KUAKINI STREET,HONOLULU,HI,96817,Honolulu,(808) 531-3511,Non-profit,10/01/1984,21.30992, -157.858158,false,true
709,02T001,PROVIDENCE ALASKA MEDICAL CTR,3200 PROVIDENCE DR.,ANCHORAGE,AK,99519,Anchorage,(907) 212-8458,Non-profit,01/01/1986,61.216583, -149.899597,false,true
710,04T078,NATIONAL PARK MEDICAL CENTER,1910 MALVERN AVE.,HOT SPRINGS,AR,71901,Garland,(502) 596-6346,For profit,01/01/1994,34.502785, -93.055659,false,true
711,173025,THE KANSAS REHABILITATION HOSPITAL,1504 SW 8TH AVENUE,TOPEKA,KS,66606,Shawnee,(785) 235-6600,For profit,11/28/1988,39.050976, -95.670433,false,true
712,32T009,ST JOSEPH MEDICAL CENTER,601 DR MARTIN LUTHER KING JR AVE NE,ALBUQUERQUE,NM,87102,Bernalillo,(505) 224-8000,Non-profit,07/01/1984,35.084248, -106.649241,false,true
713,38T075,PROVIDENCE MEDFORD MEDICAL CENTER,1111 CRATER LAKE AVENUE,MEDFORD,OR,97504,Jackson,(541) 732-6346,Non-profit,01/01/1984,42.326543, -122.872185,false,true
714,17T020,HUTCHINSON HOSPITAL CORP,1701 E. 23RD AVE.,HUTCHINSON,KS,67502,Reno,(502) 596-6346,For profit,07/01/1987,38.070534, -97.913101,false,true
715,36T086,COMMUNITY OF SPRINGFIELD,2615 E HIGH ST 1343 N FOUNTAIN BLVD,SPRINGFIELD,OH,45504,Clark,(502) 596-6346,Non-profit,01/01/1984,39.924581, -83.810137,false,true
716,33T307,CAYUGA MEDICAL CTR @ ITHACA,101 DATES DRIVE,ITHACA,NY,14850,Tompkins,(607) 274-4555,Non-profit,01/01/1997,42.422372, -76.461572,false,true
717,14T054,MACNEAL HOSPITAL,3249 S. OAK PARK AVE,BERWYN,IL,60402,Cook,(708) 783-9100,For profit,10/01/2015,41.843284, -87.791872,false,true
718,15T059,RIVERVIEW HOSPITAL,395 WESTFIELD ROAD,NOBLESVILLE,IN,46060,Hamilton,(502) 596-6346,Government,01/01/1994,40.045604, -86.012241,false,true
719,34T040,PITT COUNTY MEMORIAL HOSPITAL,PO BOX 8447,GREENVILLE,NC,27835,Pitt,(252) 847-0873,Non-profit,10/01/2016,35.611332, -77.3741,false,true
720,10T249,SEVEN RIVERS REGIONAL MEDICAL CENTER,6201 N SUNCOAST BLVD,CRYSTAL RIVER,FL,34428,Citrus,(352) 795-8342,For profit,06/01/2011,28.899724, -82.5942,false,true
721,24T064,GRAND ITASCA CLINIC HOSPITAL,1601 GOLF COURSE RD,GRAND RAPIDS,MN,55744,Itasca,(218) 999-1573,Non-profit,07/01/2004,47.231455, -93.526879,false,true
722,05T009,QUEEN OF THE VALLEY HOSPITAL,1000 TRANCAS ST,NAPA,CA,94558,Napa,(707) 252-4411,Non-profit,07/01/1995,38.297242, -122.289405,false,true
723,29T009,ST MARY'S REGIONAL MEDICAL CTR,235 WEST SIXTH STREET,RENO,NV,89503,Washoe,(775) 770-3000,Non-profit,01/01/1997,39.526903, -119.813283,false,true
724,33T126,ORANGE REGIONAL MEDICAL CENTER,707 E MAIN ST,MIDDLETOWN,NY,10940,Orange,(845) 333-4260,Non-profit,01/01/1992,41.445053, -74.420024,false,true
725,10T018,NCH HEALTHCARE SYSTEM,11190 HEALTHPARK BLVD,NAPLES,FL,34110,Collier,(239) 552-7219,Non-profit,10/01/2002,26.147369, -81.795483,false,true
726,33T204,BELLEVUE HOSPITAL CENTER,27TH AT 1ST AVENUE,NEW YORK,NY,10016,New York,(212) 562-3625,Government,01/01/1985,40.713054, -74.007228,false,true
727,05T026,GROSSMONT HOSPITAL SHARP,5555 GROSSMONT CENTER DRIVE,LA MESA,CA,91942,San Diego,(858) 939-3152,Government,07/01/1984,32.766157, -117.024725,false,true
728,19T102,OUR LADY OF LOURDES REGIONAL MEDICAL CTR,4801 AMBASSADOR CAFFREY PKWY,LAFAYETTE,LA,70508,Lafayette,(337) 470-4902,Non-profit,07/01/2000,30.22126, -92.018773,false,true
729,393036,JOHN HEINZ INSTITUTE OF REHABILITATION,150 MUNDY STREET,WILKES BARRE TOWNSHI,PA,18702,Luzerne,(570) 826-3800,Non-profit,07/01/1984,41.246249, -75.881184,false,true
730,33T056,THE BROOKLYN HOSPITAL CENTER,121 DEKALB AVE,BROOKLYN,NY,11201,Kings,(718) 250-6589,Non-profit,01/01/2000,40.692529, -73.990996,false,true
731,05T038,SANTA CLARA VALLEY MEDICAL CENTER,751 S BASCOM AVE 2325 ENBORG LN SUITE 340,SAN JOSE,CA,95128,Santa Clara,(408) 885-2030,Government,07/01/1993,37.334807, -121.888128,false,true
732,19T008,TERREBONNE GENERAL MEDICAL CENTER,8166 MAIN STREET,HOUMA,LA,70360,Terrebonne,(985) 873-4721,Government,04/01/1988,29.595849, -90.719367,false,true
733,33T290,ST VINCENTS HOSPITAL MANHATTAN,170 WEST 12TH ST.,NEW YORK,NY,10011,New York,(212) 604-2059,Non-profit,01/01/1986,40.713054, -74.007228,false,true
734,25T081,ANDERSON MEDICAL CENTER,1102 CONSTITUTION AVE RILEY HOSPITAL,MERIDIAN,MS,39301,Lauderdale,(502) 596-6346,For profit,01/01/2000,32.365044, -88.702527,false,true
735,15T058,MEMORIAL REGIONAL REHAB CENTER,615 N MICHIGAN ST,SOUTH BEND,IN,46601,St. Joseph,(574) 647-3083,Non-profit,01/01/1984,41.675032, -86.251962,false,true
736,15T061,DAVIESS COMMUNITY HOSPITAL,1314 E WALNUT ST,WASHINGTON,IN,47501,Daviess,(812) 254-2760,Non-profit,01/01/2011,38.659575, -87.170213,false,true
737,063027,SPALDING REHABILITATION HOSPITAL,900 POTOMAC STREET,AURORA,CO,80011,Adams,(303) 367-1166,For profit,07/01/1984,39.711213, -104.819356,false,true
738,26T023,MERCY HOSPITAL JEFFERSON,HWY 61 SOUTH PO BOX 350,CRYSTAL CITY,MO,63019,Jefferson,(636) 933-1000,Non-profit,10/01/2007,38.229802, -90.378268,false,true
739,36R325,GALION COMMUNITY HOSPITAL,269 PORTLAND WAY SOUTH,GALION,OH,44833,Crawford,(419) 468-0885,Non-profit,10/01/2004,40.733891, -82.789488,false,true
740,23T047,HENRY FORD MACOMB HOSPITAL,15855 NINETEEN MILE ROAD,CLINTON TOWNSHIP,MI,48038,Macomb,(586) 263-2489,For profit,07/01/1990,42.556496, -82.907822,false,true
741,15T090,FRANCISCAN HEALTH DYER HAMMOND,5454 HOHMAN AVE.,HAMMOND,IN,46320,Lake,(219) 932-2300,Non-profit,01/01/2002,41.604595, -87.508921,false,true
742,05T008,CALIFORNIA PACIFIC REGIONAL REHABILITATION CENTER,P O BOX 7999,SAN FRANCISCO,CA,94120,San Francisco,(415) 600-6153,Non-profit,01/01/1996,37.78008, -122.420168,false,true
743,393045,HEALTHSOUTH REHABILITATION HOSPITAL OF SEWICKLEY,303 CAMP MEETING ROAD,SEWICKLEY,PA,15143,Allegheny,(412) 741-9500,Non-profit,07/01/1991,40.54024, -80.18038,false,true
744,173026,MIDAMERICA REHABILITATION HOSPITAL,5701 W 110TH STREET,OVERLAND PARK,KS,66211,Johnson,(913) 491-2410,For profit,06/06/1989,38.974799, -94.683622,false,true
745,08T001,CTR FOR REHABILITATION AT WILMINGTON HOSPITAL,501 WEST 14TH STREET,WILMINGTON,DE,19899,New Castle,(302) 733-1321,Non-profit,07/01/1994,39.744432, -75.5451,false,true
746,06T006,MONTROSE MEMORIAL HOSPITAL,800 S 3RD ST,MONTROSE,CO,81401,Montrose,(970) 249-2211,Non-profit,01/01/2008,38.478034, -107.876806,false,true
747,33T306,LUTHERAN MEDICAL CENTER,150 55TH ST STATION 3-06,BROOKLYN,NY,11220,Kings,(718) 630-7425,Non-profit,01/01/1986,40.692529, -73.990996,false,true
748,33T239,WCA HOSPITAL,207 FOOTE AVE,JAMESTOWN,NY,14701,Chautauqua,(716) 664-8296,Non-profit,01/01/1990,42.098961, -79.242051,false,true
749,36T234,MERCY WEST HOSPITAL,3300 MERCY HEALTH BLVD,CINCINNATI,OH,45211,Hamilton,(502) 596-6346,Non-profit,01/01/1984,39.104427, -84.513808,false,true
750,14T166,ST MARYS HOSPITAL,1800 E LAKE SHORE DR,DECATUR,IL,62521,Macon,(217) 464-5195,Non-profit,07/01/2008,39.841454, -88.955851,false,true
751,43T012,AVERA SACRED HEART HOSPITAL,501 SUMMIT,YANKTON,SD,57078,Yankton,(605) 668-8297,Non-profit,07/01/1997,42.871088, -97.392228,false,true
752,18T044,PIKEVILLE MEDICAL CENTER,911 BYPASS RD,PIKEVILLE,KY,41501,Pike,(606) 218-3500,Non-profit,10/01/2003,37.479465, -82.51967,false,true
753,443034,BAPTIST MEMORIAL REHABILITATION HOSPITAL,1240 S GERMANTOWN ROAD,GERMANTOWN,TN,38138,Shelby,(901) 757-1350,For profit,11/20/2014,35.084531, -89.78727,false,true
754,143027,MARIANJOY REHABILITATION HOSPITAL,26 W 171 ROOSEVELT ROAD,WHEATON,IL,60187,DuPage,(630) 588-7817,Non-profit,07/01/1985,41.866128, -88.106633,false,true
755,36T054,HOLZER MEDICAL CENTER,100 JACKSON PIKE,GALLIPOLIS,OH,45631,Gallia,(740) 446-5902,Non-profit,03/13/1992,38.819123, -82.194754,false,true
756,23T013,NORTH OAKLAND MEDICAL CENTERS,461 W HURON,PONTIAC,MI,48341,Oakland,(248) 857-7061,For profit,01/01/1990,42.638782, -83.292696,false,true
757,26T077,ST ANTHONYS MEDICAL CENTER,10010 KENNERLY ROAD,ST. LOUIS,MO,63128,St. Louis,(314) 467-2146,Non-profit,07/01/2003,38.630276, -90.200309,false,true
758,32T002,ST VINCENT HOSPITAL,455 ST MICHAELS DRIVE,SANTA FE,NM,87505,Santa Fe,(505) 820-5728,Non-profit,07/01/1991,35.692133, -105.939593,false,true
759,03T038,SCOTTSDALE HEALTHCARE,7400 E OSBORN ROAD,SCOTTSDALE,AZ,85251,Maricopa,(480) 882-4000,For profit,10/01/1984,33.494909, -111.926061,false,true
760,06T022,UNIVERSITY OF COLORADO HEALTH - MEMORIAL HEALTH,MEMORIAL HOSPITAL CENTRAL 1400 E. BOULDER,COLORADO SPRINGS,CO,80909,El Paso,(719) 365-2702,Government,01/01/2017,38.835224, -104.819798,false,true
761,14T114,SWEDISH COVENANT HOSPITAL,SWEDISH COVENANT HOSPITAL,CHICAGO,IL,60625,Cook,(773) 989-6248,Non-profit,04/01/1984,41.883229, -87.632398,false,true
762,01T092,NORTHPORT MEDICAL CENTER,"809 UNIVERSITY BOULEVARD, EAST",TUSCALOOSA,AL,35401,Tuscaloosa,(205) 759-7111,Government,05/01/2011,33.210617, -87.565564,false,true
763,15T125,COMMUNITY HOSPITAL,901 MACARTHUR BLVD,MUNSTER,IN,46321,Lake,(502) 596-6346,Non-profit,07/01/1997,41.561282, -87.508975,false,true
764,19T140,FRANKLIN MEDICAL CENTER,2106 LOOP RD.,WINNSBORO,LA,71295,Franklin,(318) 412-5400,Government,05/01/2017,32.160967, -91.722908,false,true
765,39T049,ST LUKES HOSPITAL,801 OSTRUM ST,BETHLEHEM,PA,18015,Northampton,(484) 526-2304,Non-profit,07/01/2006,40.632222, -75.407938,false,true
766,10T038,MEMORIAL HOSPITAL,3501 JOHNSON ST,HOLLYWOOD,FL,33021,Broward,(954) 518-5726,Government,04/30/2009,26.011757, -80.139055,false,true
767,16T057,GREAT RIVER MEDICAL CENTER,1221 S. GEAR AVE.,WEST BURLINGTON,IA,52655,Des Moines,(319) 768-4211,Non-profit,07/01/2006,40.826034, -91.161628,false,true
768,44T050,TAKOMA REGIONAL HOSPITAL,401 TAKOMA AVENUE,GREENEVILLE,TN,37743,Greene,(423) 639-3151,Non-profit,01/01/2003,36.162235, -82.831451,false,true
769,39T086,PENN HIGHLANDS DUBOIS,100 HOSPITAL AVE,DUBOIS,PA,15801,Clearfield,(814) 375-3058,Non-profit,07/01/1995,41.119614, -78.763426,false,true
770,33T027,NASSAU UNIVERSITY MEDICAL CENTER,2201 HEMPSTEAD TURNPIKE,EAST MEADOW,NY,11554,Nassau,(516) 572-6713,Government,01/01/1985,40.714157, -73.559501,false,true
771,42T078,ROGER C. PEACE,701 GROVE ROAD,GREENVILLE,SC,29605,Greenville,(864) 455-3779,Non-profit,10/01/2007,34.850746, -82.398964,false,true
772,29T049,RENOWN REHABILITATION HOSPITAL,1495 MILL STREET,RENO,NV,89502,Carson City,(775) 982-3501,Non-profit,02/01/2004,39.526903, -119.813283,false,true
773,36T081,MERCY ST CHARLES HOSPITAL,2600 NAVARRE AVENUE,OREGON,OH,43616,Lucas,(419) 696-5690,Non-profit,01/01/2004,41.637053, -83.467205,false,true
774,14T148,MEMORIAL MEDICAL CENTER,701 N 1ST ST,SPRINGFIELD,IL,62781,Sangamon,(217) 788-3303,Non-profit,10/01/1983,39.79936, -89.643624,false,true
775,18T038,OWENSBORO HEALTH REGIONAL HOSPITAL,REGIONAL REHAB CENTER 1201 PLEASANT VALLEY RD,OWENSBORO,KY,42303,Daviess,(270) 417-2910,Non-profit,11/30/1990,37.772696, -87.111033,false,true
776,303026,NORTHEAST REHABILITATION HOSPITAL,70 BUTLER STREET,SALEM,NH,3079,Rockingham,(603) 893-2900,For profit,12/13/1984,42.788567, -71.200929,false,true
777,14T033,VISTA HEALTH REHAB UNIT,2615 WASHINGTON STREET,WAUKEGAN,IL,60085,Lake,(847) 360-2173,Non-profit,09/01/1990,42.359584, -87.8339,false,true
778,36T218,LICKING MEMORIAL HOSPITAL,1320 W MAIN ST,NEWARK,OH,43055,Licking,(220) 564-1863,Non-profit,01/01/2013,40.056807, -82.405897,false,true
779,36T085,OHIO STATE UNIVERSITY HOSPITAL,410 W 10TH AVE,COLUMBUS,OH,43210,Franklin,(614) 293-8000,Government,07/01/1984,39.962649, -82.996216,false,true
780,03T030,PHOENIX BAPTIST HOSPITAL,2000 W. BETHANY HOME RD.,PHOENIX,AZ,85015,Maricopa,(602) 246-5314,For profit,04/01/2015,33.448204, -112.072585,false,true
781,39T027,TEMPLE UNIVERSITY HOSPITAL,3401 N. BROAD STREET,PHILADELPHIA,PA,19140,Philadelphia,(215) 707-6402,Non-profit,07/01/2006,39.951061, -75.16562,false,true
782,06T015,CENTURA HEALTH-ST. ANTHONY HOSPITAL,11600 W 2ND PLACE,LAKEWOOD,CO,80228,Denver,(720) 321-1502,Non-profit,07/01/2000,39.710997, -105.088872,false,true
783,28T061,THE ACUTE REHAB UNIT AT REGIONAL WEST MEDICAL CENT,4021 AVENUE B,SCOTTSBLUFF,NE,69361,Scotts Bluff,(308) 630-1070,Non-profit,01/01/2002,41.867595, -103.664175,false,true
784,15T023,UNION HOSPITAL,MEDICAL REHABILITATION UNIT 1606 N 7TH ST,TERRE HAUTE,IN,47804,Vigo,(812) 238-7362,Non-profit,09/01/1989,39.466479, -87.414045,false,true
785,37T001,HILLCREST KAISER REHABILITATION CENTER,1125 S. TRENTON,TULSA,OK,74120,Tulsa,(918) 579-7133,For profit,06/30/2006,36.155327, -95.992083,false,true
786,03T085,NORTHWEST MEDICAL CENTER/CHS,6200 N LA CHOLLA BLVD,TUCSON,AZ,85741,Pima,(520) 469-8366,For profit,10/01/2013,32.221878, -110.971225,false,true
787,17T016,ST FRANCIS HEALTH CENTER,1700 SW 7TH ST,TOPEKA,KS,66606,Shawnee,(785) 295-5454,Non-profit,01/01/2004,39.050976, -95.670433,false,true
788,37T114,ST JOHN MEDICAL CENTER,1923 S. UTICA AVENUE,TULSA,OK,74104,Tulsa,(918) 744-2694,Non-profit,10/01/2004,36.155327, -95.992083,false,true
789,37T037,ST ANTHONY HOSPITAL REHAB CTR,1000 N LEE ST,OKLAHOMA CITY,OK,73101,Oklahoma,(405) 272-7287,Non-profit,01/01/2004,35.468494, -97.521264,false,true
790,05T717,LAC/RANCHO LOS AMIGOS NATIONAL MED CTR,7601 E IMPERIAL HWY,DOWNEY,CA,90242,Orange,(562) 401-7913,Government,07/01/1997,33.940946, -118.12752,false,true
791,10T006,ORLANDO REGIONAL REHAB INSTITUTE,1414 KUHL AVE,ORLANDO,FL,32806,Orange,(321) 841-4165,Non-profit,10/01/1999,28.538331, -81.378879,false,true
792,34T061,UNC HOSPITALS INPATIENT REHAB,101 MANNING DR,CHAPEL HILL,NC,27514,Orange,(919) 966-5889,Government,07/01/2015,35.910262, -79.055474,false,true
793,223027,HEALTHSOUTH BRAINTREE REHABILITATION HOSPITAL,250 POND STREET,BRAINTREE,MA,2184,Norfolk,(781) 848-5353,For profit,09/30/1985,42.207125, -71.004215,false,true
794,36T036,WOOSTER COMMUNITY HOSPITAL,1761 BEALL AVE,WOOSTER,OH,44691,Wayne,(330) 263-8137,Government,01/01/2007,40.79818, -81.939946,false,true
795,42T068,THE REGIONAL MEDICAL CENTER,3000 ST MATTHEWS RD,ORANGEBURG,SC,29118,Orangeburg,(803) 395-2200,Government,10/01/1993,33.487414, -80.863927,false,true
796,15T010,ST VINCENT KOKOMO HOSPITAL HEALTH CENTER,1907 SYCAMORE STREET,KOKOMO,IN,46901,Howard,(765) 456-5210,Non-profit,07/01/2002,40.486508, -86.131244,false,true
797,23T195,ST JOHN MACOMB HOSPITAL,11800 E. 12 MILE,WARREN,MI,48093,Macomb,(586) 573-5958,Non-profit,07/01/2004,42.52144, -83.020184,false,true
798,05T017,MERCY GENERAL HOSPITAL,4001 J STREET,SACRAMENTO,CA,95819,Sacramento,(916) 453-4531,Non-profit,04/01/1986,38.582087, -121.50012,false,true
799,45T007,SID PETERSON MEMORIAL HOSPITAL,551 HILL COUNTRY DR.,KERRVILLE,TX,78028,Kerr,(830) 258-7554,Non-profit,07/01/2002,30.042787, -99.135299,false,true
800,05T308,EL CAMINO HOSP OF LOS GATOS,355 DARDANELLI,LOS GATOS,CA,95032,Santa Clara,(502) 596-6346,Government,07/01/2010,37.221339, -121.979636,false,true
801,03T037,ST. LUKES ACUTE REHAB,1800 E VAN BUREN,PHOENIX,AZ,85006,Maricopa,(602) 251-8545,For profit,07/01/1996,33.448204, -112.072585,false,true
802,14T239,ROCKFORD MEMORIAL HOSPITAL,2400 NORTH ROCKTON AVENUE,ROCKFORD,IL,61103,Winnebago,(815) 971-5000,Non-profit,03/01/1984,42.266802, -89.088377,false,true
803,42T098,WACCAMAW REHABILITATION CENTER,4070 HIGHWAY 17 BYPASS,MURRELLS INLET,SC,29576,Georgetown,(843) 652-1329,Non-profit,10/31/2002,33.551824, -79.048357,false,true
804,393035,"GOOD SHEPHERD REHABILITATION HOSPITAL, THE",850 SOUTH FIFTH STREET,ALLENTOWN,PA,18103,Lehigh,(610) 776-3223,Non-profit,07/01/1984,40.602753, -75.469759,false,true
805,34T107,VIDANT EDGECOMB REHAB UNIT,111 HOSPITAL DRIVE,TARBORO,NC,27886,Edgecombe,(252) 641-7460,Government,10/01/2016,35.899727, -77.536269,false,true
806,35T019,ALTRU HEALTH SYSTEM,4500 SOUTH WASHINGTON STREET PO BOX 6002,GRAND FORKS,ND,58201,Grand Forks,(701) 780-2411,Government,01/01/1996,47.925705, -97.036068,false,true
807,19T146,EAST JEFFERSON GENERAL HOSPITAL,4200 HOUMA BLVD.,METAIRIE,LA,70006,Jefferson,(502) 596-6346,Government,01/01/1986,30.003581, -90.155404,false,true
808,34T098,CAROLINAS MEDICAL CENTER - PINEVILLE REHABILITATIO,10628 PARK ROAD,CHARLOTTE,NC,28210,Mecklenburg,(704) 355-4602,Government,01/01/2017,35.222936, -80.840161,false,true
809,39T231,ABINGTON MEMORIAL HOSPITAL,1200 OLD YORK ROAD,ABINGTON,PA,19001,Montgomery,(215) 481-2000,Non-profit,07/01/1987,40.115354, -75.116999,false,true
810,15T084,ST VINCENT HOSP HEALTH CARE,2001 W 86TH ST,INDIANAPOLIS,IN,46260,Marion,(317) 338-5339,Non-profit,07/01/2012,39.76845, -86.156212,false,true
811,14T125,GATEWAY REGIONAL MEDICAL CTR,2100 MADISON AVE,GRANITE CITY,IL,62040,Madison,(618) 798-3670,For profit,01/01/2002,38.704408, -90.140476,false,true
812,37T089,TAHLEQUAH CITY HOSPITAL,1400 E. DOWNING,TAHLEQUAH,OK,74464,Cherokee,(502) 596-6346,Government,05/10/2010,35.911688, -94.971727,false,true
813,04T071,JEFFERSON REGIONAL MEDICAL CENTER,1600 WEST 40TH AVE.,PINE BLUFF,AR,71603,Jefferson,(502) 596-6346,Non-profit,03/23/2007,34.221586, -92.002005,false,true
814,39T270,GEISINGER WYOMING VALLEY,100 E. MOUNTAIN DRIVE,WILKES-BARRE,PA,18711,Luzerne,(570) 808-3312,Non-profit,01/07/1984,41.246249, -75.881184,false,true
815,26T137,FREEMAN HEALTH SYSTEMS,1102 W 32ND ST,JOPLIN,MO,64804,Jasper,(417) 347-1246,Non-profit,04/01/1996,37.087628, -94.512248,false,true
816,01T104,GRANDVIEW MEDICAL CENTER,3690 GRANDVIEW PARKWAY,BIRMINGHAM,AL,35243,Jefferson,(205) 971-4519,For profit,06/15/1998,33.522859, -86.807705,false,true
817,303027,HEALTHSOUTH REHABILITATION HOSPITAL,254 PLEASANT STREET,CONCORD,NH,3301,Merrimack,(603) 226-9800,For profit,10/29/1992,43.208452, -71.536941,false,true
818,36T074,FLOWER REHABILITATION CENTER,5150 HARROUN ROAD,SYLVANIA,OH,43560,Lucas,(419) 824-1095,Non-profit,10/11/1986,41.715606, -83.703091,false,true
819,05T336,LODI MEMORIAL HOSPITAL-ADVENTIST HEALTH,975 SOUTH FAIRMONT AVE,LODI,CA,95240,San Joaquin,(209) 334-3411,Non-profit,06/01/1988,38.135674, -121.279196,false,true
820,33T044,FAXTON-ST. LUKES HEALTHCARE,1650 CHAMPLIN AVENUE,UTICA,NY,13502,Oneida,(315) 624-8759,Non-profit,01/01/2002,43.102016, -75.230012,false,true
821,23T230,E W SPARROW INPATIENT REHAB,1215 EAST MICHIGAN,LANSING,MI,48909,Ingham,(517) 364-2092,Non-profit,01/01/1985,42.733625, -84.553927,false,true
822,29T041,SUMMERLIN HOSPITAL MEDICAL CTR,657 TOWN CENTER DRIVE,LAS VEGAS,NV,89144,Clark,(702) 233-7937,For profit,01/01/2001,36.169202, -115.140597,false,true
823,39T145,WESTMORELAND REGIONAL HOSPITAL,532 WEST PITTSBURGH STREET 532 W PITTSBURGH ST,GREENSBURG,PA,15601,Westmoreland,(724) 537-1515,Non-profit,07/01/1990,40.310785, -79.547152,false,true
824,33T202,KINGS COUNTY HOSPITAL CENTER,451 CLARKSON AVENUE C-1117B,BROOKLYN,NY,11203,Kings,(718) 245-7313,Government,07/01/2002,40.692529, -73.990996,false,true
825,10T032,BAYFRONT HEALTH ST. PETERSBURG,701 6TH ST SOUTH,ST. PETERSBURG,FL,33701,Pinellas,(727) 893-6042,Non-profit,01/01/2005,27.772069, -82.638488,false,true
826,24T106,REGIONS HOSPITAL REHAB INSTITUTE,640 JACKSON ST. MAILSTOP 11102D,ST PAUL,MN,55101,Ramsey,(651) 254-2060,Non-profit,01/01/1984,44.943719, -93.094281,false,true
827,17T012,SALINA REGIONAL HEALTH CENTER,400 S SANTA FE,SALINA,KS,67402,Saline,(502) 596-6346,Non-profit,06/01/2004,38.840558, -97.612409,false,true
828,183028,HEALTHSOUTH LAKEVIEW REHAB HOSPITAL OF CENTRAL KY,134 HEARTLAND DRIVE,ELIZABETHTOWN,KY,42701,Hardin,(270) 769-3100,For profit,12/19/1987,37.695903, -85.863066,false,true
829,05T737,GARFIELD MEDICAL CENTER,525 N. GARFIELD AVENUE,MONTEREY PARK,CA,91754,Los Angeles,(626) 307-2130,For profit,11/01/2004,34.062407, -118.127542,false,true
830,05T471,GOOD SAMARITAN HOSPITAL,1225 WILSHIRE BLVD,LOS ANGELES,CA,90017,Los Angeles,(213) 977-2387,For profit,09/02/1984,34.052238, -118.243344,false,true
831,453057,HEALTHSOUTH REHABILITATION OF MIDLAND ODESSA,1800 HERITAGE BOULEVARD,MIDLAND,TX,79707,Midland,(915) 520-1600,For profit,02/17/1993,31.997433, -102.078043,false,true
832,39T198,MILLCREEK COMMUNITY HOSPITAL,5515 PEACH ST,ERIE,PA,16509,Erie,(814) 868-2462,Non-profit,07/01/2013,42.127951, -80.08258,false,true
833,23T244,GARDEN CITY HOSPITAL,6245 N INKSTER RD,GARDEN CITY,MI,48135,Wayne,(734) 458-3350,Non-profit,10/01/1988,42.325572, -83.330914,false,true
834,05T238,METHODIST HOSP S CALIFORNIA,300 W HUNTINGTON DR,ARCADIA,CA,91007,Los Angeles,(412) 209-8936,Non-profit,01/01/1985,34.136534, -118.040889,false,true
835,34T014,WHITAKER REHABILITATION CENTER,3333 SILAS CREEK PARKWAY,WINSTON SALEM,NC,27103,Forsyth,(336) 718-1629,Non-profit,01/01/2016,36.096261, -80.243735,false,true
836,23T046,UNIVERSITY OF MICHIGAN HOSPITAL,1500 E. MEDICAL CENTER DR.,"ANN ARBOR,",MI,48109,Washtenaw,(734) 936-7114,Non-profit,07/01/1984,42.281419, -83.748478,false,true
837,04T036,BAPTIST HEALTH REHAB INSTITUTE - NORTH LITTLE ROCK,3333 SPRINGHILL DRIVE,NORTH LITTLE ROCK,AR,72117,Pulaski,(501) 202-7257,Non-profit,01/01/1997,34.756059, -92.267774,false,true
838,033037,HEALTHSOUTH EAST VALLEY REHABILITATION HOSPITAL,5652 EAST BASELINE ROAD,MESA,AZ,85206,Maricopa,(480) 567-0350,For profit,10/26/2009,33.41514, -111.831498,false,true
839,05T060,LEON S PETERS REHABILATION,2823 FRESNO ST,FRESNO,CA,93721,Fresno,(559) 459-6405,Non-profit,09/01/1984,36.731654, -119.785856,false,true
840,363035,SUMMA REHAB HOSPITAL,29 NORTH ADAMS STREET,AKRON,OH,44304,Summit,(330) 572-7300,For profit,02/13/2012,41.084821, -81.515607,false,true
841,193093,LAFAYETTE PHYSICAL REHABILITATION HOSPITAL,307 POLLY LANE,LAFAYETTE,LA,70508,Lafayette,(337) 314-1111,Physician,02/22/2006,30.22126, -92.018773,false,true
842,44T006,SKYLINE REHAB CENTER,3441 DICKERSON PIKE,NASHVILLE,TN,37207,Davidson,(615) 769-7867,Non-profit,05/31/2011,36.166687, -86.779932,false,true
843,043032,HEALTHSOUTH REHAB HOSP IN PART W/WASHINGTON REGION,153 E MONTE PAINTER DRIVE,FAYETTEVILLE,AR,72703,Washington,(479) 444-2200,For profit,08/06/1991,36.061928, -94.160583,false,true
844,193096,IBERIA REHABILITATION HOSPITAL,532 JEFFERSON TERRACE STREET,NEW IBERIA,LA,70560,Iberia,(337) 364-6923,For profit,06/01/2015,30.002558, -91.816975,false,true
845,33T191,GLENS FALLS HOSPITAL,100 PARK STREET,GLENS FALLS,NY,12801,Warren,(518) 926-2043,Non-profit,01/01/2003,43.308932, -73.6434,false,true
846,39T093,THE REHAB CTR @ CLARION HOSP,ONE HOSPITAL DR,CLARION,PA,16214,Clarion,(814) 226-9500,Non-profit,07/01/2009,41.211475, -79.380948,false,true
847,16T030,MARY GREELEY MEDICAL CENTER,1111 DUFF AVENUE,AMES,IA,50010,Story,(502) 596-6346,Government,12/12/2001,42.026802, -93.620181,false,true
848,033036,MOUNTAIN VALLEY REGIONAL REHABILITATION HOSPITAL,3700 NORTH WINDSONG DRIVE,PRESCOTT VALLEY,AZ,86314,Yavapai,(928) 759-8800,For profit,07/24/2006,34.594532, -112.336407,false,true
849,05T417,SUTTER COAST HOSPITAL,800 EAST WASHINGTON BLVD,CRESCENT CITY,CA,95531,Del Norte,(502) 596-6346,Government,01/01/2016,41.754772, -124.204373,false,true
850,39T267,FORBES REGIONAL HOSPITAL,2570 HAYMAKER RD,MONROEVILLE,PA,15146,Allegheny,(412) 858-2898,Non-profit,07/01/2003,40.424653, -79.79027,false,true
851,39T174,THOMAS JEFFERSON UNIVERSITY HOSPITAL,375 MAIN BUILDING,PHILADELPHIA,PA,19107,Philadelphia,(215) 955-5299,Non-profit,07/01/1984,39.951061, -75.16562,false,true
852,05T309,SUTTER ROSEVILLE MEDICAL CENTER,6 MEDICAL PLAZA DRIVE,ROSEVILLE,CA,95661,Placer,(916) 878-2660,Non-profit,01/01/2009,38.74806, -121.285202,false,true
853,08T009,MILFORD MEMORIAL HOSPITAL,21 W CLARKE AVE,MILFORD,DE,19963,Sussex,(502) 596-6346,Non-profit,07/01/2011,38.912498, -75.428532,false,true
854,04T084,SALINE MEMORIAL HOSPITAL,1 MEDICAL PARK DR.,BENTON,AR,72015,Saline,(502) 596-6346,For profit,08/01/1993,34.569286, -92.585398,false,true
855,23T041,BAY MEDICAL CENTER FOR REHABILITATION,3190 E. MIDLAND ROAD,BAY CITY,MI,48706,Bay,(989) 667-6898,Non-profit,07/01/1989,43.597772, -83.884521,false,true
856,23T269,BEAUMONT HEALTH SYSTEMS,44201 DEQUINDRE RD,TROY,MI,48085,Oakland,(248) 964-7996,Non-profit,01/01/2013,42.56294, -83.154042,false,true
857,15T018,ELKHART GENERAL HEALTHCARE SYSTEMS,600 E. BOULEVARD,ELKHART,IN,46514,Elkhart,(574) 523-3242,Government,01/01/1993,41.687381, -85.973536,false,true
858,30T034,CATHOLIC MEDICAL CENTER,100 MCGREGOR STREET,MANCHESTER,NH,3102,Hillsboro,(603) 663-2042,Non-profit,07/01/1988,42.990926, -71.463091,false,true
859,14T223,ADVOCATE LUTHERAN GENERAL HOSPITAL,1775 WEST DEMPTER,PARK RIDGE,IL,60068,Cook,(847) 723-7218,Non-profit,06/30/1984,42.011007, -87.835869,false,true
860,01T029,EAMC- LANIER,2000 PEPPERELL PARKWAY.,OPELIKA,AL,36801,Lee,(502) 596-6346,Government,10/01/2016,32.650881, -85.37797,false,true
861,31T034,RIVERVIEW REHABILITATION CENTER,1 RIVERIVEW PLAZA,RED BANK,NJ,7701,Monmouth,(732) 530-2368,For profit,01/01/1998,40.347098, -74.064964,false,true
862,05T107,MARIAN REGIONAL MEDICAL CENTER,1400 E CHURCH STREET,SANTA MARIA,CA,93454,Santa Barbara,(502) 596-6346,Non-profit,01/10/2013,34.948403, -120.435881,false,true
863,39T042,THE WASHINGTON HOSPITAL,155 WILSON AVENUE,WASHINGTON,PA,15301,Washington,(724) 229-2449,Non-profit,07/01/2002,40.170885, -80.245438,false,true
864,05T152,SAINT FRANCIS MEMORIAL HOSPITAL,900 HYDE ST,SAN FRANCISCO,CA,94109,San Francisco,(415) 353-6764,Non-profit,03/31/1995,37.78008, -122.420168,false,true
865,29T032,NORTHERN NEVADA MEDICAL CENTER,2375 E. PRATER WAY,SPARKS,NV,89434,Washoe,(775) 356-4588,For profit,01/01/2012,39.541213, -119.747997,false,true
866,42T067,THE REHAB UNIT AT BEAUFORT MEMORIAL HOSPITAL,955 RIBAUT RD,BEAUFORT,SC,29902,Beaufort,(843) 522-5821,Non-profit,10/01/2011,32.42931, -80.686724,false,true
867,25T141,BAPTIST HOSPITAL DESOTO,7601 SOUTHCREST PARKWAY,SOUTHAVEN,MS,38671,DeSoto,(662) 772-4314,Non-profit,01/01/1994,34.991864, -90.007966,false,true
868,33T159,COMMUNITY GENERAL HOSPITAL,4900 BROAD ROAD,SYRACUSE,NY,13215,Onondaga,(315) 492-5231,Non-profit,01/01/2004,43.047945, -76.147448,false,true
869,05T549,LOS ROBLES HOSPITAL MEDICAL CENTER,150 VIA MERIDA,WESTLAKE VILLAGE,CA,91362,Ventura,(805) 370-4865,For profit,01/01/1999,34.14381, -118.799648,false,true
870,03T024,ST JOSEPHS HOSP,240 W THOMAS RD,PHOENIX,AZ,85013,Maricopa,(602) 406-4796,Non-profit,07/01/1985,33.448204, -112.072585,false,true
871,393056,HELEN M SIMPSON REHABILITATION HOSPITAL,4300 LONDONDERRY ROAD,HARRISBURG,PA,17109,Dauphin,(717) 920-4300,For profit,03/11/2015,40.259572, -76.881821,false,true
872,18T056,METHODIST HOSPITAL,1305  N.  ELM  ST,HENDERSON,KY,42420,Henderson,(270) 827-7488,Non-profit,07/01/2000,37.836281, -87.590825,false,true
873,103045,HEALTHSOUTH REHABILITATION HOSPITAL OF ALTAMONTE S,831 S STATE RD 434,ALTAMONTE,FL,32714,Seminole,(407) 587-8600,For profit,11/22/2014,28.670401, -81.390362,false,true
874,313030,BACHARACH INSTITUTE FOR REHABILITATION,61 W JIMMIE LEEDS ROAD,POMONA,NJ,8240,Atlantic,(609) 652-7000,Non-profit,01/01/1985,39.471599, -74.565191,false,true
875,393037,HEALTHSOUTH REHABILITATION HOSPITAL OF YORK,1850 NORMANDIE DRIVE,YORK,PA,17404,York,(717) 767-6941,For profit,07/01/1984,39.960339, -76.734668,false,true
876,193058,BASTROP REHABILITATION HOSPITAL - MONROE,4310 SOUTH GRAND STREET,MONROE,LA,71202,Ouachita,(318) 556-8300,For profit,05/31/2000,32.500759, -92.111225,false,true
877,10T167,PLANTATION GENERAL HOSPITAL,401 NW 42ND AVE,PLANTATION,FL,33317,Broward,(305) 519-8326,For profit,09/01/2011,26.128276, -80.242374,false,true
878,01T113,MOBILE INFIRMARY,POB 2144,MOBILE,AL,36652,Mobile,(251) 435-3400,Non-profit,07/01/2017,30.688943, -88.044822,false,true
879,05T235,PROVIDENCE ST JOSEPH MED CTR,501 S BUENA VISTA ST,BURBANK,CA,91505,Los Angeles,(818) 847-3200,Non-profit,01/01/1994,34.182052, -118.307476,false,true
880,37T029,INTEGRIS CLINTON REGIONAL HOSP,100 N 30TH ST,CLINTON,OK,73601,Custer,(580) 323-8292,Non-profit,07/01/2006,35.515624, -98.964237,false,true
881,20T024,CENTRAL MAINE REHABILITATION CENTER,300 MAIN STREET PHYSICAL THERAPY,LEWISTON,ME,4240,Androscoggin,(207) 795-2600,Non-profit,07/01/1984,44.100658, -70.214978,false,true
882,45T002,PROVIDENCE MEMORIAL HOSPITAL,2001 N OREGON ST,EL PASO,TX,79902,El Paso,(915) 542-6011,For profit,01/01/1994,31.76006, -106.492257,false,true
883,33T078,SISTERS OF CHARITY HOSPITAL,2157 MAIN ST,BUFFALO,NY,14214,Erie,(716) 862-2000,Non-profit,01/01/1988,42.887691, -78.879374,false,true
884,30T011,ST JOSEPH HOSPITAL IR CENTER,172 KINSLEY ST,NASHUA,NH,3060,Hillsboro,(603) 882-3000,Non-profit,01/01/1986,42.75787, -71.46395,false,true
885,263027,RUSK REHABILITATION CTR,315 BUSINESS LOOP 70 W,COLUMBIA,MO,65203,Boone,(573) 817-2703,For profit,05/19/1997,38.951551, -92.328594,false,true
886,34T028,CAPE FEAR VALLEY REHABILITATION CENTER,1638 OWEN DRIVE,FAYETTEVILLE,NC,28302,Cumberland,(910) 615-6843,Non-profit,10/01/2014,35.054417, -78.883659,false,true
887,33T394,UHS HOSPITALS,10-42 MITCHELL AVE,BINGHAMTON,NY,13903,Broome,(607) 762-2162,Non-profit,01/01/1985,42.098702, -75.912543,false,true
888,16T082,YOUNKER REHABILITATION,1200 PLEASANT ST,DES MOINES,IA,50309,Polk,(515) 241-5915,Non-profit,01/01/2006,41.588822, -93.620309,false,true
889,23T077,ST MARY'S OF MICHIGAN MEDICAL CENTER,800 S WASHINGTON AVENU,SAGINAW,MI,48601,Saginaw,(989) 776-1677,Non-profit,07/01/2006,43.419547, -83.946359,false,true
890,39T178,UPMC HORIZON - GREENVILLE CAMPUS,110 NORTH MAIN ST.,GREENVILLE,PA,16125,Mercer,(412) 648-6617,Non-profit,07/01/1992,41.406912, -80.383378,false,true
891,23T151,BOTSFORD HOSPITAL,28050 GRAND RIVER AVE,FARMINGTON HILLS,MI,48336,Oakland,(248) 471-8769,Non-profit,01/01/1988,42.485645, -83.357869,false,true
892,39T142,MOSS REHAB,60 TOWNSHIP LINE ROAD,ELKINS PARK,PA,19027,Philadelphia,(215) 663-6510,Non-profit,07/01/1992,40.0769, -75.127197,false,true
893,05T242,DOMINICAN HOSPITAL,1555 SOQUEL DRIVE,SANTA CRUZ,CA,95065,Santa Cruz,(831) 462-7301,Non-profit,06/01/1993,36.97414, -122.028795,false,true
894,23T036,MIDMICHIGAN MEDICAL CENTER-ALPENA,1501 W CHISHOLM ST,ALPENA,MI,49707,Alpena,(989) 356-7334,For profit,07/01/2005,45.06062, -83.431422,false,true
895,14T180,ST MARY AND ST ELIZABETH MED CTR,2233 WEST DIVISION STREET,CHICAGO,IL,60622,Cook,(312) 770-2268,Non-profit,01/01/1984,41.883229, -87.632398,false,true
896,33T259,MERCY MEDICAL CENTER,1000 N.VILLAGE AVE.,ROCKVILLE CENTRE,NY,11570,Nassau,(516) 705-2216,Non-profit,01/01/1995,40.662249, -73.640293,false,true
897,223026,HEALTHSOUTH NEW ENGLAND REHABILITATION HOSPITAL,2 REHABILITATION WAY,WOBURN,MA,1801,Middlesex,(781) 935-5050,For profit,10/05/1983,42.479126, -71.151805,false,true
898,44T035,TENNOVA HEALTHARE - CLARKSVILLE,651 DUNLOP LANE,CLARKSVILLE,TN,37040,Montgomery,(931) 502-4001,Government,01/01/2009,36.527278, -87.360338,false,true
899,063034,HEALTHSOUTH REHABILITATION HOSPITAL OF LITTLETON,1001 WEST MINERAL AVENUE,LITTLETON,CO,80120,Arapahoe,(303) 334-1100,For profit,06/10/2013,39.612653, -105.016198,false,true
900,26T074,MOBERLY REGIONAL MEDICAL CENTER,1515 UNION AVE,MOBERLY,MO,65270,Randolph,(660) 263-8400,For profit,,39.421755, -92.433556,false,true
901,153043,COMMUNITY HEALTH NETWORK REHABILITATION HOSPITAL,7343 CLEARVISTA DRIVE,INDIANAPOLIS,IN,46256,Marion,(317) 585-5400,For profit,07/16/2013,39.76845, -86.156212,false,true
902,393031,HEALTHSOUTH REHAB HOSPITAL OF MECHANICSBURG,175 LANCASTER BOULEVARD,MECHANICSBURG,PA,17055,Cumberland,(717) 691-3720,For profit,07/01/1984,40.213283, -77.008033,false,true
903,103036,WEST GABLES REHABILITATION HOSPITAL,2525 SW 75TH AVE,MIAMI,FL,33155,Miami-Dade,(305) 260-1816,Non-profit,10/06/1988,25.775084, -80.194702,false,true
904,03T088,BANNER BAYWOOD MEDICAL CENTER,6644 EAST BAYWOOD AVENUE,MESA,AZ,85206,Maricopa,(480) 321-4293,Non-profit,01/01/2008,33.41514, -111.831498,false,true
905,37T097,SOUTHWESTERN MEDICAL CENTER,5602 SOUTHWEST LEE BLVD,LAWTON,OK,73505,Oklahoma,(502) 596-6346,For profit,02/05/2014,34.606378, -98.396817,false,true
906,28T032,MARY LANNING MEMORIAL - IRF,715 NORTH ST. JOSEPH AVENUE,HASTINGS,NE,68901,Adams,(402) 461-5365,Non-profit,01/01/2007,40.588918, -98.393718,false,true
907,44T197,SOUTHERN HILLS MEDICAL CENTER,391 WALLACE RD,NASHVILLE,TN,37211,Davidson,(615) 781-3470,For profit,06/01/2011,36.166687, -86.779932,false,true
908,19T019,CHRISTUS ST. FRANCES CABRINI HOSPITAL,3330 MASONIC DR.,ALEXANDRIA,LA,71301,Rapides,(318) 448-6826,Non-profit,07/01/1991,31.2931, -92.463284,false,true
909,05T169,PRESBYTERIAN INTERCOMMUNITY,12401 WASHINGTON BLVD,WHITTIER,CA,90602,Los Angeles,(562) 698-0811,Non-profit,11/01/1992,33.967318, -118.048051,false,true
910,10T008,BAPTIST HOSPITAL DAVIS CTR,8900 N KENDALL DRIVE,MIAMI,FL,33176,Miami-Dade,(786) 596-7120,Non-profit,10/18/1983,25.775084, -80.194702,false,true
911,293033,HEALTHSOUTH DESERT CANYON REHABILITATION HOSPITAL,9175 WEST OQUENDO ROAD,LAS VEGAS,NV,89148,Clark,(702) 252-7342,Non-profit,06/14/2007,36.169202, -115.140597,false,true
912,39T031,SCHUYLKILL STINE REHAB,700 E NORWEGIAN ST,POTTSVILLE,PA,17901,Schuylkill,(560) 621-9505,Non-profit,07/01/2003,40.681577, -76.204738,false,true
913,44T187,JACK M ROE REHABILITATION UNIT,315 OAK ST,LIVINGSTON,TN,38570,Overton,(931) 823-5611,For profit,02/28/1999,36.389987, -85.324653,false,true
914,363038,CLEVELAND CLINIC REHABILITATION HOSPITALS LLC,33355 HEALTH CAMPUS BLVD,AVON,OH,44011,Lorain,(440) 934-0489,For profit,01/09/2016,41.45164, -82.035051,false,true
915,34T116,FRYE REGIONAL MEDICAL CENTER,420 NORTH CENTER STREET,HICKORY,NC,28601,Catawba,(828) 315-5748,For profit,06/01/2016,35.72964, -81.333464,false,true
916,33T201,KINGSBROOK REHABILITATION INSTITUTE,585 SCHENECTADY AVE,BROOKLYN,NY,11203,Kings,(347) 452-4219,Non-profit,01/01/1986,40.692529, -73.990996,false,true
917,39T028,UPMC MERCY,1400 LOCUST STREET,PITTSBURGH,PA,15219,Allegheny,(412) 232-8841,Non-profit,07/01/1984,40.442169, -79.994945,false,true
918,31T015,ATLANTIC REHABILITATION INSTITUTE,95 MT. KEMBLE AVENUE P.O. BOX 1978,MORRISTOWN,NJ,7962,Morris,(973) 971-4416,Non-profit,07/01/2015,40.79664, -74.481595,false,true
919,16T067,COVENANT MEDICAL CENTER,3421 WEST NINTH STREET,WATERLOO,IA,50702,Black Hawk,(319) 272-7929,Non-profit,07/01/1984,42.493469, -92.34364,false,true
920,05T438,HUNTINGTON HOSPITAL,100 W. CALIFORNIA BLVD,PASADENA,CA,91105,Los Angeles,(626) 397-5029,Non-profit,10/01/1983,34.14955, -118.141452,false,true
921,06T027,BOULDER COMMUNITY HOSPITAL,NORTH BROADWAY AND BALSAM,BOULDER,CO,80301,Boulder,(303) 938-5357,Non-profit,01/01/2001,40.015831, -105.27927,false,true
922,20T018,AROOSTOOK MEDICAL CENTER IRF,PO BOX 151 140 ACADEMY STREET,PRESQUE ISLE,ME,4769,Aroostook,(207) 768-4083,Non-profit,01/01/1984,46.681196, -68.015463,false,true
923,103043,HEALTHSOUTH REHABILITATION HOSPITAL OF OCALA,2275 SW 22ND LANE,OCALA,FL,34471,Marion,(352) 282-4000,For profit,12/19/2012,29.189311, -82.137789,false,true
924,15T015,FRANCISCAN ST. ANTHONY HEALTH MICHIGAN CITY,301 W. HOMER STREET,MICHIGAN CITY,IN,46360,LaPorte,(219) 879-8511,Non-profit,01/01/1987,41.719785, -86.901439,false,true
925,11T164,COLISEUM REHABILITATION CENTER,350 HOSPITAL DRIVE,MACON,GA,31217,Bibb,(478) 765-4433,Non-profit,04/01/1994,32.836038, -83.631709,false,true
926,443030,HEALTHSOUTH CANE CREEK REHAB HOSPITAL,180 MT PELIA ROAD,MARTIN,TN,38237,Weakley,(731) 587-4231,For profit,10/09/2001,36.343182, -88.850491,false,true
927,10T290,TVRH REHAB HOSPITAL,1451 EL CAMINO REAL,THE VILLAGES,FL,32159,Sumter,(352) 323-1187,Non-profit,07/01/2016,28.932808, -81.959137,false,true
928,453040,HEALTHSOUTH REHABILITATION HOSPITAL OF ARLINGTON,3200 MATLOCK,ARLINGTON,TX,76015,Tarrant,(817) 468-4000,For profit,05/04/1990,32.735594, -97.10711,false,true
929,173033,MEADOWBROOK REHABILITATION HOSPITAL,427 WEST MAIN STREET,GARDNER,KS,66030,Johnson,(913) 856-8747,For profit,07/01/2015,38.811036, -94.927446,false,true
930,14T258,ALEXIAN BROTHERS MEDICAL CENTER,800 W BIESTERFIELD RD,ELK GROVE VILLAGE,IL,60007,Cook,(847) 437-5500,Non-profit,01/01/1984,42.003369, -88.009198,false,true
931,36T035,MT CARMEL INPATIENT REHAB UNIT,793 W. STATE ST,COLUMBUS,OH,43222,Franklin,(614) 234-3893,Non-profit,01/01/1992,39.962649, -82.996216,false,true
932,39T164,UNIV OF PITTSBURGH MED CTR-MUH,200 LOTHROP ST,PITTSBURGH,PA,15213,Allegheny,(412) 648-6617,Non-profit,07/01/1993,40.442169, -79.994945,false,true
933,373033,MERCY REHABILITATION HOSPITAL OKLAHOMA CITY,5401 WEST MEMORIAL ROAD,OKLAHOMA CITY,OK,73142,Oklahoma,(405) 384-5250,Non-profit,11/14/2012,35.468494, -97.521264,false,true
934,40T021,HOSPITAL DE LA CONCEPCION,HWY 2 KM 173.4,SAN GERMAN,PR,683,San German,(787) 892-1860,Non-profit,01/01/2013,18.081517, -67.044847,false,true
935,423030,"GREENWOOD REGIONAL REHABILITATION HOSPITAL, INC",1530 PARKWAY,GREENWOOD,SC,29646,Greenwood,(864) 330-9070,For profit,11/30/2007,34.187578, -82.159499,false,true
936,44T162,HEALTHSOUTH CHATTANOOGA REHAB HOSPITAL,2412 MCCALLIE AVE,CHATTANOOGA,TN,37404,Hamilton,(423) 698-0221,Government,02/21/1990,35.045756, -85.308287,false,true
937,053034,HEALTHSOUTH TUSTIN REHABILITATION HOSPITAL,14851 YORBA STREET,TUSTIN,CA,92780,Orange,(714) 832-9200,For profit,06/19/1991,33.742072, -117.818805,false,true
938,18T018,SCR INPATIENT REHAB UNIT,222 MEDICAL CIRCLE,MOREHEAD,KY,40351,Rowan,(606) 783-6650,Government,06/26/2000,38.184528, -83.431284,false,true
939,453091,WESLACO REGIONAL REHABILITATION HOSPITAL LLC,906 JAMES STREET,WESLACO,TX,78596,Hidalgo,(956) 969-2222,For profit,10/07/2004,26.161532, -97.982648,false,true
940,23T024,DMC SINAI-GRACE HOSPITAL,6071 WEST OUTER DRIVE,DETROIT,MI,48235,Wayne,(313) 966-3350,For profit,07/01/1984,42.332916, -83.047853,false,true
941,33T211,CLAXTON-HEPBURN MEDICAL CENTER,214 KING STREET,OGDENSBURG,NY,13669,St. Lawrence,(315) 393-8880,Non-profit,01/01/2003,44.697592, -75.492797,false,true
942,283026,MADONNA REHABILITATION HOSPITAL OMAHA,17500 BURKE STREET,OMAHA,NE,68118,Douglas,(402) 401-3100,Non-profit,12/19/2016,41.258652, -95.937195,false,true
943,14T063,RUSH OAK PARK HOSPITAL,520 S. MAPLE,OAK PARK,IL,60304,Cook,(708) 660-3713,Non-profit,01/01/1987,41.88865, -87.794492,false,true
944,26T015,TWIN RIVERS REGIONAL MED CTR,1301 FIRST ST,KENNETT,MO,63857,Dunklin,(573) 888-8493,For profit,01/01/2006,36.236708, -90.05686,false,true
945,44T002,WEST TENNESSEE REHAB,620 SKYLINE DR,JACKSON,TN,38301,Madison,(555) 555-1212,Government,07/01/1989,35.614344, -88.81938,false,true
946,01T139,AMI BROOKWOOD MEDICAL CENTER,2010 BROOKWOOD MEDICAL CTR. DR,HOMEWOOD,AL,35209,Jefferson,(205) 877-1600,For profit,12/17/2014,33.472258, -86.788804,false,true
947,05T018,PACIFIC ALLIANCE MEDICAL CENTER,531 W COLLEGE ST,LOS ANGELES,CA,90012,Los Angeles,(213) 683-9391,For profit,01/01/2001,34.052238, -118.243344,false,true
948,33T157,SAMARITAN MEDICAL CENTER,830 WASHINGTON ST.,WATERTOWN,NY,13601,Jefferson,(315) 786-4954,Non-profit,01/01/1999,43.972377, -75.911254,false,true
949,04T154,BAPTIST HEALTH MEDICAL CENTER-CONWAY,1555 EXCHANGE AVENUE,CONWAY,AR,72032,Faulkner,(501) 585-2000,Non-profit,01/01/2017,35.091798, -92.4367,false,true
950,11T200,NORTHSIDE MEDICAL CENTER,100 FRIST COURT,COLUMBUS,GA,31908,Muscogee,(706) 494-2395,For profit,10/01/1994,32.466682, -84.990405,false,true
951,043034,SOUTHEAST REHABILITATION HOSPITAL,2729 A HIGHWAY 65  &  82 SOUTH,LAKE VILLAGE,AR,71653,Chicot,(870) 265-5343,Physician,12/13/2006,33.330971, -91.281706,false,true
952,193070,M M O REHABILITATION AND WELLNESS CENTER,59215 RIVER WEST DRIVE,PLAQUEMINE,LA,70764,Iberville,(225) 687-8100,Non-profit,12/20/2001,30.289295, -91.234556,false,true
953,05T116,NORTHRIDGE HOSPITAL MEDICAL CENTER,18300 ROSCOE BLVD.,NORTHRIDGE,CA,91328,Los Angeles,(818) 885-8500,Non-profit,07/01/1984,34.228298, -118.535797,false,true
954,013028,HEALTHSOUTH REHABILITATION HOSPITAL OF MONTGOMERY,4465 NARROW LANE RD,MONTGOMERY,AL,36116,Montgomery,(334) 284-7821,For profit,05/11/1987,32.376547, -86.299651,false,true
955,44T125,PATRICIA NEAL REHABILITATION CENTER,1901 CLINCH AVENUE,KNOXVILLE,TN,37916,Knox,(865) 541-1839,Non-profit,01/01/1984,35.962631, -83.916677,false,true
956,453047,HEALTHSOUTH PLANO REHABILITATION HOSPITAL,2800 W 15TH ST,PLANO,TX,75075,Collin,(972) 612-9000,For profit,03/26/1991,33.019695, -96.697586,false,true
957,05T567,MISSION HOSPITAL,27700 MEDICAL CENTER RD,MISSION VIEJO,CA,92691,Orange,(949) 365-2447,Non-profit,01/01/1993,33.595018, -117.659099,false,true
958,06T113,CENTER FOR REHABILITATION,7700 S BROADWAY,LITTLETON,CO,80122,Arapahoe,(303) 730-4426,Non-profit,07/01/2013,39.612653, -105.016198,false,true
959,17T142,VIA CHRISTI HOSP MANHATTAN,1823 COLLEGE AVE,MANHATTAN,KS,66502,Riley,(502) 596-6346,Non-profit,04/24/2012,39.190363, -96.549656,false,true
960,103040,HEALTHSOUTH EMERALD COAST REHABILITATION HOSPITAL,1847 FLORIDA AVE,PANAMA CITY,FL,32403,Bay,(850) 914-8653,For profit,04/28/1997,30.185159, -85.73078,false,true
961,05T024,SOUTH BAY REHABILITATION CTR,2400 EAST 4TH STREET,NATIONAL CITY,CA,91950,San Diego,(619) 472-4577,For profit,01/01/1989,32.671538, -117.105196,false,true
962,11T003,SATILLA REGIONAL REHABILITATION INSTITUTE,2500 SATILLA PARKWAY,WAYCROSS,GA,31503,Ware,(912) 338-8024,Non-profit,01/01/2017,31.213433, -82.354193,false,true
963,193078,SAGE REHABILITATION HOSPITAL,8000 SUMMA AVE,BATON ROUGE,LA,70809,East Baton Rouge,(225) 819-0703,For profit,06/04/2002,30.443319, -91.187488,false,true
964,10T002,BETHESDA MEMORIAL HOSPITAL,2815 SOUTH SEACREST BLVD,BOYNTON BEACH,FL,33435,Palm Beach,(561) 737-7733,Non-profit,10/01/2005,26.528911, -80.064171,false,true
965,36T189,MADISON COUNTY INPATIENT REHAB,210 N MAIN ST,LONDON,OH,43140,Madison,(740) 845-7094,Non-profit,01/01/1998,39.889837, -83.440621,false,true
966,39T110,CRICHTON REHABILITATION CENTER,1086 FRANKLIN STREET,JOHNSTOWN,PA,15905,Cambria,(814) 534-7919,For profit,07/01/1996,40.325942, -78.917492,false,true
967,34T091,MOSES H. CONE MEMORIAL HOSPITAL,1200 NORTH ELM STREET,GREENSBORO,NC,27401,Guilford,(336) 832-7000,Non-profit,10/01/2016,36.072701, -79.793899,false,true
968,39T061,LANCASTER REGIONAL MEDICAL CENTER,250 COLLEGE AVE,LANCASTER,PA,17604,Lancaster,(717) 291-8542,For profit,07/01/1984,40.039401, -76.307078,false,true
969,423026,HEALTHSOUTH REHABILITATION HOSPITAL OF FLORENCE,900 EAST CHEVES ST,FLORENCE,SC,29506,Florence,(843) 679-9000,For profit,09/05/1991,34.195772, -79.761968,false,true
970,05T739,CENTINELA HOSPITAL MEDICAL CTR,1101 MEDICAL CENTER BOULEVARD,INGLEWOOD,CA,90301,Los Angeles,(502) 596-6346,For profit,01/01/2013,33.961767, -118.353336,false,true
971,10T161,CENTRAL FLORIDA REGIONAL HOSPITAL,1401 W SEMINOLE BLVD,SANFORD,FL,32771,Seminole,(407) 562-0924,For profit,06/01/2013,28.800795, -81.273111,false,true
972,03T114,NORTHWEST MED CTR ORO VALLEY,1551 E. TANGERINE RD.,ORO VALLEY,AZ,85755,Pima,(520) 901-6183,For profit,01/25/2005,32.390907, -110.963566,false,true
973,25T001,UNIVERSITY REHABILITATION CTR,777 LAKELAND DR,JACKSON,MS,39216,Hinds,(601) 815-3188,Government,07/01/2003,32.302897, -90.183488,false,true
974,05T327,LOMA LINDA UNIVERSITY MEDICAL CENTER,11234 ANDERSON ST.,LOMA LINDA,CA,92354,San Bernardino,(909) 558-4000,Non-profit,01/01/2005,34.048261, -117.261123,false,true
975,44T200,STONES RIVER HOSPITAL,324 DOOLITTLE ROAD,WOODBURY,TN,37190,Cannon,(615) 563-7296,For profit,01/01/2006,35.825394, -86.069089,false,true
976,39T157,OHIO VALLEY HOSPITAL,25 HECKEL ROAD,MCKEES ROCKS,PA,15136,Allegheny,(502) 596-6346,Non-profit,07/01/1999,40.46554, -80.061334,false,true
977,23T141,MCLAREN REGIONAL MEDICAL CENTER,401 SOUTH BALLENGER HIGHWAY,FLINT,MI,48532,Genesee,(810) 342-5201,Non-profit,10/01/1984,43.00992, -83.685109,false,true
978,223032,SPAULDING REHABILITATION HOSPITAL - CAPE COD,311 SERVICE ROAD,EAST SANDWICH,MA,2537,Barnstable,(508) 833-4262,Non-profit,10/18/1995,41.740206, -70.447596,false,true
979,043029,HEALTHSOUTH REHABILITATION HOSPITAL OF JONESBORO,1201 FLEMING AVE,JONESBORO,AR,72401,Craighead,(870) 932-0440,For profit,12/05/1988,35.838393, -90.710505,false,true
980,33T127,JACOBI MEDICAL CENTER,1400 PELHAM PARKWAY S,BRONX,NY,10461,Bronx,(718) 918-5545,Government,01/01/1985,40.826153, -73.920265,false,true
981,04T088,MEDICAL CENTER OF S ARKANSAS,700 WEST GROVE STREET,EL DORADO,AR,71730,Union,(870) 863-2664,For profit,07/01/1992,33.211855, -92.665489,false,true
982,33T125,ROCHESTER GENERAL HOSPITAL,1425 PORTLAND AVE,ROCHESTER,NY,14621,Monroe,(585) 922-4254,Non-profit,01/01/1997,43.155708, -77.612547,false,true
983,34T069,WAKEMED REHAB,3000 NEW BERN AVE.,RALEIGH,NC,27610,Wake,(919) 350-8864,Non-profit,10/01/2016,35.781295, -78.64167,false,true
984,033039,"COBALT REHABILITATION HOSPITAL IV, LLC",13060 WEST BELL ROAD,SURPRISE,AZ,85378,Maricopa,(623) 499-9100,For profit,03/03/2016,33.628998, -112.330171,false,true
985,19T017,OPELOUSAS GENERAL HEALTH SYS,539 E PRUDHOMME ST,OPELOUSAS,LA,70570,St. Landry,(502) 596-6346,Government,07/01/2000,30.525725, -92.084276,false,true
986,05T073,KAISER FOUNDATION REHAB CENTER,975 SERENO DR.,VALLEJO,CA,94589,Solano,(707) 651-4097,Non-profit,02/11/1993,38.101088, -122.254959,false,true
987,33T043,SOUTHSIDE HOSPITAL,301 E MAIN ST,BAY SHORE,NY,11706,Suffolk,(631) 968-3007,Non-profit,01/01/1986,40.722361, -73.246812,false,true
988,153039,COMMUNITY HOWARD SPECIALTY HOSPITAL,829 N DIXON RD,KOKOMO,IN,46901,Howard,(765) 452-6700,For profit,05/07/2004,40.486508, -86.131244,false,true
989,31T108,JFK JOHNSON REHAB INSTITUTE,65 JAMES STREET,EDISON,NJ,8820,Middlesex,(732) 321-7000,Non-profit,01/01/1998,40.525525, -74.388231,false,true
990,14T186,RIVERSIDE MEDICAL CENTER,350 N WALL,KANKAKEE,IL,60901,Kankakee,(502) 596-6346,Non-profit,01/01/1985,41.118571, -87.859973,false,true
991,39T185,GUNDERSON REHABILITATION CENTER,700 EAST BROAD STREET,HAZLETON,PA,18201,Luzerne,(570) 501-4625,Government,01/01/2000,40.960001, -75.974446,false,true
992,153030,REHABILITATION HOSPITAL OF FORT WAYNE GENERAL PAR,7970 W JEFFERSON BLVD,FORT WAYNE,IN,46804,Allen,(260) 435-6100,For profit,11/22/1993,41.077474, -85.137495,false,true
993,11T054,FLOYD MEDICAL CENTER,304 TURNER MCCALL BLVD,ROME,GA,30162,Floyd,(502) 596-6346,Government,02/05/2007,34.260461, -85.180623,false,true
994,04T027,BAXTER REGIONAL MEDICAL CENTER,624 HOSPITAL DRIVE 624 HOSPITAL DR,MOUNTAIN HOME,AR,72653,Baxter,(870) 508-3393,Non-profit,01/01/1998,36.335882, -92.387497,false,true
995,053032,SAN JOAQUIN VALLEY REHABILITATION HOSP,7173 N SHARON AVENUE,FRESNO,CA,93720,Fresno,(559) 436-3600,For profit,02/15/1991,36.731654, -119.785856,false,true
996,24T196,PHILLIPHS EYE INSTITUTE,2215 PARK AVENUE SOUTH,MINNEAPOLIS,MN,55404,Hennepin,(612) 347-4444,Government,10/01/1983,44.977479, -93.264346,false,true
997,363042,MOUNT CARMEL REHABILITATION HOSPITAL,597 EXECUTIVE CAMPUS DR,WESTERVILLE,OH,43082,Delaware,(614) 392-3400,Non-profit,05/09/2017,40.125943, -82.931621,false,true
998,11T168,REDMOND REGIONAL MEDICAL CENTER,501 REDMOND ROAD,ROME,GA,30165,Floyd,(706) 291-0291,For profit,07/01/2003,34.260461, -85.180623,false,true
999,193094,PATHWAY REHABILITATION HOSPITAL OF BOSSIER,4900 MEDICAL DRIVE,BOSSIER CITY,LA,71112,Bossier,(318) 841-5555,For profit,08/04/2010,32.526293, -93.718154,false,true
1000,45T638,BRYAN INPATIENT REHABILITATION CENTER,710 FM 1960 RD W,HOUSTON,TX,77090,Harris,(281) 440-2251,For profit,04/05/2016,29.760803, -95.369506,false,true
1001,493025,SHELTERING ARMS HOSPITAL,8254 ATLEE ROAD,MECHANICSVILLE,VA,23116,Hanover,(804) 342-4320,Non-profit,10/01/1983,37.601112, -77.368281,false,true
1002,673059,"LAREDO REHABILITATION HOSPITAL, LLC",2005 A BUSTAMANTE STREET,LAREDO,TX,78041,Webb,(956) 764-8555,For profit,02/26/2015,27.507114, -99.507505,false,true
1003,52T045,THEDA CLARK MEDICAL CENTER,130 SECOND ST,NEENAH,WI,54956,Winnebago,(920) 729-2206,Non-profit,01/01/1984,44.178238, -88.477226,false,true
1004,45T670,TOMBALL REGIONAL MEDICAL CTR,605 HOLDERRIETH BLVD,TOMBALL,TX,77375,Harris,(281) 401-7803,For profit,06/30/1996,30.097205, -95.616006,false,true
1005,45T809,NORTH AUSTIN MEDICAL CENTER,12221 NORTH MOPAC EXPRESSWAY,AUSTIN,TX,78758,Travis,(512) 901-1855,For profit,07/01/2003,30.264979, -97.746598,false,true
1006,45T775,KINGWOOD MEDICAL CENTER,22999 U.S. HWY 59,KINGWOOD,TX,77339,Harris,(281) 348-8163,For profit,01/01/1996,30.0333, -95.260803,false,true
1007,50T051,OVERLAKE HOSPITAL MEDICAL CENTER,REHAB SERVICES,BELLEVUE,WA,98004,King,(425) 688-5000,Non-profit,10/01/1983,47.613702, -122.190934,false,true
1008,52T206,AURORA MEDICAL CENTER,36500 AURORA DRIVE,SUMMIT,WI,53066,Waukesha,(262) 434-2605,Non-profit,05/03/2010,45.365604, -89.361448,false,true
1009,45T213,UNIVERSITY HEALTH SYSTEM,4502 MEDICAL DRIVE,SAN ANTONIO,TX,78229,Bexar,(210) 358-4269,Government,01/01/2008,29.425173, -98.494599,false,true
1010,45T358,THE METHODIST HOSPITAL,6447 MAIN STREET,HOUSTON,TX,77030,Harris,(713) 441-7132,Non-profit,01/01/1996,29.760803, -95.369506,false,true
1011,50T001,NORTHWEST HOSPITAL CENTER,1550 N 115TH ST,SEATTLE,WA,98133,King,(206) 368-1794,Non-profit,01/01/1984,47.603229, -122.33028,false,true
1012,493027,RIVERSIDE REHABILITATION INSTITUTE,245 CHESAPEAKE AVENUE,NEWPORT NEWS,VA,23607,Newport News City,(757) 928-8100,Non-profit,07/02/1986,36.977714, -76.430349,false,true
1013,49T024,CARILION CLINIC REHABILITATION,"101 ELM AVENUE, SE",ROANOKE,VA,24013,Roanoke City,(540) 224-4409,Non-profit,10/01/1983,37.270496, -79.940581,false,true
1014,46T005,OGDEN REGIONAL MEDICAL CENTER,5475 S. 500 E.,OGDEN,UT,84405,Weber,(801) 479-2668,For profit,07/01/1997,41.222761, -111.970419,false,true
1015,45T403,MEDICAL CENTER OF MCKINNEY,130 S CENTRAL EXPRESSWAY,MCKINNEY,TX,75070,Collin,(972) 548-5494,For profit,06/01/2015,33.197963, -96.615024,false,true
1016,50T050,SOUTHWEST WASHINGTON MED CTR,400 NE MOTHER JOSEPH PLACE,VANCOUVER,WA,98668,Clark,(360) 514-6855,Non-profit,10/01/1994,45.631061, -122.671567,false,true
1017,513026,HEALTHSOUTH SOUTHERN HILLS REHABILITATION HOSPITAL,120 12TH ST,PRINCETON,WV,24740,Mercer,(304) 487-8000,For profit,04/07/1987,37.365567, -81.101005,false,true
1018,45T046,CHRISTUS SPOHN REHABILITIATION CENTER,600 ELIZABETH ST.,CORPUS CHRISTI,TX,78404,Nueces,(361) 881-3000,Non-profit,07/01/1999,27.796416, -97.404131,false,true
1019,46T004,MCKAY-DEE HOSPITAL,4401 HARRISON BLVD,OGDEN,UT,84403,Weber,(801) 387-2263,Non-profit,01/01/2017,41.222761, -111.970419,false,true
1020,50T002,PROVIDENCE ST MARY MEDICAL CENTER,401 W. POPLAR ST,WALLA WALLA,WA,99362,Walla Walla,(509) 525-3320,Non-profit,01/01/1984,46.065552, -118.333644,false,true
1021,463025,HEALTHSOUTH REHABILITATION HOSPITAL OF UTAH,8074 SOUTH 1300 EAST,SANDY,UT,84094,Salt Lake,(801) 561-3400,For profit,03/28/1988,40.569705, -111.897282,false,true
1022,49T066,SENTARA WILLIAMSBURG REGIONAL,100 SENTARA CIRCLE,WILLIAMSBURG,VA,23188,James City,(757) 984-7409,Non-profit,01/01/2009,37.275563, -76.709017,false,true
1023,45T209,NORTHWEST TEXAS HEALTHCARE SYS,1501 S COULTER,AMARILLO,TX,79109,Potter,(806) 354-1772,Non-profit,01/01/2014,35.207009, -101.832013,false,true
1024,50T005,VIRGINIA MASON MEDICAL CENTER,925 SENECA STREET,SEATTLE,WA,98101,King,(206) 625-7373,Non-profit,01/01/1984,47.603229, -122.33028,false,true
1025,45T424,SAN JACINTO METHODIST HOSPITAL,4401 GARTH RD,BAYTOWN,TX,77521,Harris,(502) 596-6346,Non-profit,01/01/1996,29.732081, -94.967821,false,true
1026,45T518,THE MEDICAL CENTER OF SOUTHEAST TEXAS,2555 JIMMY JOHNSON BLVD,PORT ARTHUR,TX,77640,Jefferson,(409) 853-5796,For profit,01/01/1995,29.872307, -93.934199,false,true
1027,673044,HEALTHSOUTH REHABILITATION HOSPITAL OF THE MIDCITI,2304 HIGHWAY 121,BEDFORD,TX,76021,Tarrant,(817) 684-2000,For profit,11/05/2010,32.844252, -97.143237,false,true
1028,673049,NEW BRAUNFELS REG REHAB HOSP INC,2041 SUNDANCE PARKWAY,NEW BRAUNFELS,TX,78130,Comal,(830) 627-6700,For profit,08/26/2011,29.709884, -98.119725,false,true
1029,45T037,GOOD SHEPHERD MEDICAL CENTER,700 EAST MARSHALL AVENUE,LONGVIEW,TX,75601,Gregg,(903) 315-3299,Non-profit,08/11/2003,32.494556, -94.742336,false,true
1030,46T001,UTAH VALLEY HOSPITAL,1034 NORTH 500 WEST,PROVO,UT,84604,Utah,(801) 357-7765,Non-profit,01/01/2017,40.233677, -111.663926,false,true
1031,673065,CHI ST JOSEPH HEALTHSOUTH REHABILITATION HOSPITAL,1600 JOSEPH DR,BRYAN,TX,77802,Brazos,(979) 821-7506,For profit,09/01/2016,30.670524, -96.370542,false,true
1032,49T050,VIRGINIA HOSPITAL CENTER,1701 N GEORGE MASON DR,ARLINGTON,VA,22205,Arlington,(703) 558-5702,Non-profit,01/01/2006,38.890763, -77.084755,false,true
1033,45T147,DETAR HEALTHCARE SYSTEM,506 E SAN ANTONIO P.O. BOX 2089,VICTORIA,TX,77902,Victoria,(361) 788-6963,For profit,10/01/1995,28.799192, -97.006062,false,true
1034,673061,BAY AREA REHABILITATION HOSPITAL,110 EAST MEDICAL CENTER BLVD,WEBSTER,TX,77598,Harris,(832) 224-9500,For profit,08/20/2015,29.537169, -95.127888,false,true
1035,45T352,HUNT MEMORIAL HOSPITAL DISTRIC,4215 JOE RAMSEY BLVD,GREENVILLE,TX,75401,Hunt,(903) 408-1740,Government,10/01/2011,33.139083, -96.107237,false,true
1036,51T048,LOGAN REGIONAL MEDICAL CENTER,20 HOSPITAL DR,LOGAN,WV,25601,Logan,(304) 831-1325,For profit,10/01/2003,37.846008, -81.989308,false,true
1037,45T079,BAYLOR MEDICAL CENTER AT IRVING,1901 N. MACARTHUR,IRVING,TX,75061,Dallas,(972) 579-8759,Non-profit,07/01/2016,32.813879, -96.949933,false,true
1038,50T019,PROVIDENCE CENTRALIA HOSPITAL,914 SOUTH SCHEUBER ROAD,CENTRALIA,WA,98531,Lewis,(360) 493-7395,Non-profit,01/01/1985,46.718217, -122.964066,false,true
1039,493031,HEALTHSOUTH REHABILITATION HOSPITAL OF PETERSBURG,95 MEDICAL PARK BLVD,PETERSBURG,VA,23805,Petersburg City,(804) 504-8100,For profit,08/03/2006,37.205498, -77.387642,false,true
1040,47R302,MT ASCUTNEY HOSPITAL HEALTH CENTER,289 COUNTY ROAD,WINDSOR,VT,5089,Windsor,(802) 674-7022,Non-profit,10/01/2004,43.479991, -72.386431,false,true
1041,673057,WARM SPRINGS REHABILITATION HOSPITAL OF KYLE,5980 KYLE PARKWAY,KYLE,TX,78640,Hays,(512) 262-0821,For profit,09/08/2014,29.987408, -97.874273,false,true
1042,52T193,AURORA BAYCARE MEDICAL CENTER,PO 8900,GREEN BAY,WI,54308,Brown,(920) 288-8000,For profit,01/01/2003,44.513288, -88.013256,false,true
1043,673035,BAYLOR INSTITUTE FOR REHABILITATION AT FORT WORTH,6601 HARRIS PARKWAY,FORT WORTH,TX,76132,Tarrant,(214) 525-0619,For profit,01/23/2009,32.739977, -97.340038,false,true
1044,49T048,LEWIS-GALE MEDICAL CENTER,1900 ELECTRIC ROAD,SALEM,VA,24153,Salem City,(540) 776-4472,Non-profit,01/01/1985,37.292986, -80.056759,false,true
1045,49T005,WINCHESTER REHABILITATION CTR,333 WEST CORK STREET,WINCHESTER,VA,22601,Winchester City,(540) 536-5114,Non-profit,01/01/1995,39.177858, -78.169844,false,true
1046,45T508,MEMORIAL HOSPITAL CECIL R. BOMAR REHAB,1204 N. MOUND ST.,NACOGDOCHES,TX,75961,Nacogdoches,(502) 596-6346,Government,06/30/1996,31.603869, -94.656017,false,true
1047,673048,TEXAS REHABILITATION HOSPITAL,425 ALABAMA AVENUE,FORT WORTH,TX,76104,Tarrant,(817) 820-3400,For profit,06/09/2011,32.739977, -97.340038,false,true
1048,673046,BAYLOR INSTITUTE FOR REHABILITATION AT FRISCO,2990 LEGACY DRIVE,FRISCO,TX,75034,Collin,(469) 888-5100,For profit,01/26/2011,33.15066, -96.825082,false,true
1049,50T064,HARBORVIEW MEDICAL CENTER,325 9TH AVE BOX 359818,SEATTLE,WA,98104,King,(206) 744-6901,Government,07/01/1984,47.603229, -122.33028,false,true
1050,45T462,PRESBYTERIAN HOSPITAL OF DALLAS,8200 WALNUT HILL LANE JACKSON BUILDING 3RD FLOOR,DALLAS,TX,75231,Dallas,(214) 345-2893,Non-profit,12/02/2015,32.777977, -96.796215,false,true
1051,50T025,SWEDISH MEDICAL CENTER,500 17TH AVE,SEATTLE,WA,98122,King,(206) 320-3990,Non-profit,01/01/1984,47.603229, -122.33028,false,true
1052,45T092,FORT DUNCAN REGIONAL MEDICAL CENTER,3333 N FOSTER MALDONADO BLVD,EAGLE PASS,TX,78852,Maverick,(830) 872-2990,For profit,01/01/2007,28.706045, -100.500457,false,true
1053,673031,METHODIST REHABILITATION HOSPITAL,3020 WEST WHEATLAND ROAD,DALLAS,TX,75237,Dallas,(972) 708-8600,For profit,05/07/2008,32.777977, -96.796215,false,true
1054,493032,HEALTHSOUTH REHABILITATION HOSPITAL OF FREDERICKS,300 PARK HILL DRIVE,FREDERICKSBURG,VA,22401,Fredericksburg City,(540) 368-7300,For profit,09/05/2007,38.303297, -77.460658,false,true
1055,45T661,ODESSA REGIONAL MEDICAL CENTER,520 E 6TH ST,ODESSA,TX,79761,Ector,(432) 582-8395,For profit,10/01/2008,31.849462, -102.374677,false,true
1056,49T032,VCUHS,1300 E MARSHALL ST,RICHMOND,VA,23298,Richmond City,(804) 828-0861,Government,07/01/1984,37.540759, -77.433932,false,true
1057,45T130,NIX HEALTH CARE SYSTEM,4330 VANCE JACKSON,SAN ANTONIO,TX,78230,Bexar,(210) 579-3837,For profit,01/01/1999,29.425173, -98.494599,false,true
1058,51T023,WEIRTON MEDICAL CENTER,601 COLLIERS WAY,WEIRTON,WV,26062,Hancock,(304) 797-6104,Government,07/01/2013,40.417926, -80.574517,false,true
1059,673052,HEALTHSOUTH REHABILITATION HOSPITAL THE VINTAGE,20180 CHASEWOOD PARK DRIVE,HOUSTON,TX,77070,Harris,(972) 308-8567,For profit,05/14/2012,29.760803, -95.369506,false,true
1060,46T047,ST MARKS HOSPITAL,1200 E 3900 SOUTH,SALT LAKE CITY,UT,84124,Salt Lake,(801) 268-7745,Non-profit,08/11/2016,40.758478, -111.888142,false,true
1061,45T651,MEDICAL CENTER OF PLANO,"1620 COIT ROAD BUILDING II, 2ND FLM",PLANO,TX,75075,Collin,(214) 473-7718,For profit,06/01/2015,33.019695, -96.697586,false,true
1062,45T211,MEMORIAL MED CENTER OF EAST TE,1201 WEST FRANK STREET,LUFKIN,TX,75901,Angelina,(936) 639-7648,Non-profit,01/01/1995,31.332913, -94.727903,false,true
1063,45T766,ZALE LIPSHY UNIVERSITY HOSPITAL,5151 HARRY HINES BLVD.,DALLAS,TX,75235,Dallas,(214) 645-4808,Government,06/02/2015,32.777977, -96.796215,false,true
1064,45T718,ROUND ROCK INPT REHAB UNIT,2400 ROUND ROCK AVE,ROUND ROCK,TX,78681,Williamson,(512) 341-1145,Non-profit,03/01/2011,30.508556, -97.678805,false,true
1065,50T108,ST. JOSEPH MEDICAL CENTER,1717 SOUTH J ST,TACOMA,WA,98405,Pierce,(253) 426-6317,Non-profit,07/01/1984,47.25308, -122.44153,false,true
1066,673051,KINDRED REHABILITATION HOSPITAL NORTHEAST HOUSTON,18839 MCKAY BOULEVARD,HUMBLE,TX,77338,Harris,(281) 446-3655,For profit,03/16/2012,29.999022, -95.261315,false,true
1067,52T066,MERCY HEALTH SYSTEM CORP,1000 MINERAL POINT AVE,JANESVILLE,WI,53548,Rock,(608) 756-6862,Non-profit,07/01/1992,42.681349, -89.026904,false,true
1068,45T035,ST. JOSEPH MEDICAL CENTER,1401 ST. JOSEPH PARKWAY GWS 3381,HOUSTON,TX,77002,Harris,(713) 756-5334,For profit,06/30/1996,29.760803, -95.369506,false,true
1069,45T107,LAS PALMAS REHABILITATION HOSPITAL,300 WAYMORE,EL PASO,TX,79902,El Paso,(915) 577-2630,For profit,01/01/2004,31.76006, -106.492257,false,true
1070,673032,RELIANT REHABILITATION HOSPITAL OF CENTRAL TEXAS,1400 HESTER'S CROSSING,ROUND ROCK,TX,78681,Williamson,(972) 308-8517,For profit,07/09/2008,30.508556, -97.678805,false,true
1071,45T617,CLEAR LAKE REGIONAL MEDICAL CENTER,500 MEDICAL CENTER BLVD,WEBSTER,TX,77598,Harris,(281) 338-3972,For profit,04/01/2011,29.537169, -95.127888,false,true
1072,50T058,KADLEC REGIONAL MEDICAL CENTER,888 SWIFT BLVD,RICHLAND,WA,99352,Benton,(509) 942-2641,Non-profit,01/01/1992,46.280452, -119.273684,false,true
1073,513027,HEALTHSOUTH WESTERN HILLS REGIONAL REHAB HOSPITAL,#3 WESTERN HILLS DRIVE,PARKERSBURG,WV,26105,Wood,(304) 420-1300,For profit,02/19/1988,39.263525, -81.544756,false,true
1074,45T236,CHRISTUS MOTHER FRANCES HOSPITAL- SULPHUR SPRINGS,115 AIRPORT ROAD,SULPHUR SPRINGS,TX,75482,Hopkins,(903) 438-4569,For profit,10/01/2003,33.141614, -95.600817,false,true
1075,493029,"UNIVERSITY OF VIRGINIA - HEALTHSOUTH, LLC",515 RAY C HUNT DRIVE,CHARLOTTESVILLE,VA,22903,Charlottesville City,(434) 244-2000,For profit,08/31/1998,38.031046, -78.474159,false,true
1076,673038,MEMORIAL HERMANN REHABILITATION HOSPITAL KATY,"21720 KINGSLAND BLVD, SUITE 102",KATY,TX,77450,Harris,(281) 579-5678,For profit,05/08/2009,29.794857, -95.816531,false,true
1077,49T060,CLINCH VALLEY MEDICAL CENTER,2949 WEST FRONT STREET,RICHLANDS,VA,24641,Tazewell,(276) 596-6000,For profit,09/01/1989,37.094154, -81.800485,false,true
1078,493034,THE REHABILITATION HOSPITAL OF SOUTHWEST VA,103 NORTH STREET,BRISTOL,VA,24201,Bristol City,(276) 642-7900,For profit,09/02/2010,36.615103, -82.172287,false,true
1079,45T862,CHI ST. LUKES HEALTH - BAYLOR REHABILITATION,17200 ST. LUKE'S WAY,THE WOODLANDS,TX,77384,Montgomery,(502) 596-6346,Non-profit,07/01/2016,30.182039, -95.484612,false,true
1080,50T024,PROVIDENCE ST. PETER HOSPITAL,413 LILLY RD NE,OLYMPIA,WA,98506,Thurston,(360) 493-4320,Non-profit,01/01/1993,47.035534, -122.900827,false,true
1081,45T747,PALESTINE REGIONAL MEDICAL CENTER,2900 SOUTH LOOP 256,PALESTINE,TX,75801,Anderson,(903) 731-5278,For profit,01/01/2011,31.761701, -95.631432,false,true
1082,49T118,HDH-PARHAM CAMPUS,7700 EAST PARHAM ROAD 4TH FLOOR,RICHMOND,VA,23294,Henrico,(804) 967-5436,Non-profit,02/18/2004,37.540759, -77.433932,false,true
1083,45T324,REBA MC ENTIRE CTR FOR REHAB,1200 REBA MCENTIRE LANE,DENISON,TX,75020,Grayson,(903) 416-1010,For profit,07/01/1995,33.762128, -96.550512,false,true
1084,46T041,DAVIS HOSPITAL MEDICAL CTR,1600 WEST ANTELOPE DRIVE,LAYTON,UT,84041,Davis,(801) 807-7240,For profit,04/01/2003,41.060161, -111.966274,false,true
1085,45T132,MEDICAL CENTER HOSPITAL,500 W 4TH ST,ODESSA,TX,79761,Ector,(432) 640-1493,Government,10/01/2004,31.849462, -102.374677,false,true
1086,45T388,METROPOLITAN METHODIST HOSPITAL,1310 MCCULLOUGH,SAN ANTONIO,TX,78212,Bexar,(210) 575-0692,For profit,07/01/2002,29.425173, -98.494599,false,true
1087,673063,TRUSTPOINT REHAB HOSPITAL OF LUBBOCK,4302 PRINCETON,LUBBOCK,TX,79415,Lubbock,(806) 740-8413,For profit,08/01/2015,33.583578, -101.855113,false,true
1088,45T697,SOUTHWEST GENERAL HOSPITAL,7400 BARLITE BLVD,SAN ANTONIO,TX,78224,Bexar,(210) 921-3241,For profit,01/01/1994,29.425173, -98.494599,false,true
1089,46T051,JORDAN VALLEY MEDICAL CENTER,3580 W 9000 S,WEST JORDAN,UT,84088,Salt Lake,(801) 601-2368,Non-profit,07/01/2016,40.610919, -111.938765,false,true
1090,52T138,AURORA HEALTH CARE METRO INC,2900 W OKLAHOMA AVE,MILWAUKEE,WI,53215,Sheboygan,(414) 649-5765,Non-profit,01/01/1985,43.041072, -87.909421,false,true
1091,46T021,DIXIE REGIONAL MEDICAL CENTER,544 S 400 EAST,ST GEORGE,UT,84770,Washington,(435) 688-4502,Non-profit,01/01/2017,37.108284, -113.583277,false,true
1092,513025,PETERSON HEALTHCARE AND REHABILITATION HOSPITAL,HOMESTEAD AVENUE,WHEELING,WV,26003,Ohio,(304) 234-0500,For profit,10/01/1983,40.063948, -80.722002,false,true
1093,673056,PAM REHABILITATION HOSPITAL OF VICTORIA,101 JAMES COLEMAN DRIVE,VICTORIA,TX,77904,Victoria,(361) 894-7830,For profit,02/26/2014,28.799192, -97.006062,false,true
1094,52T013,SACRED HEART HOSPITAL,900 W CLAIREMONT AVE,EAU CLAIRE,WI,54701,Eau Claire,(715) 717-4464,Non-profit,07/01/1984,44.812135, -91.49917,false,true
1095,523025,SACRED HEART REHABILITATION INSTITUTE,2301 N LAKE DRIVE  8TH FLOOR,MILWAUKEE,WI,53211,Milwaukee,(414) 585-6700,Non-profit,07/01/1984,43.041072, -87.909421,false,true
1096,50T148,WENATCHEE VALLEY HOSPITAL,820 N CHELAN,WENATCHEE,WA,98801,Chelan,(509) 664-4868,Non-profit,08/01/2001,47.429826, -120.324699,false,true
1097,52T096,WHEATON FRANCISCAN HEALTHCARE-ALL SAINTS,3801 SPRING STREET,RACINE,WI,53405,Racine,(262) 687-5205,Non-profit,07/01/1992,42.726126, -87.789462,false,true
1098,45T072,BRAZOSPORT MEMORIAL HOSPITAL,100 MEDICAL DRIVE,LAKE JACKSON,TX,77566,Brazoria,(979) 285-1869,Non-profit,01/01/1996,29.036192, -95.448867,false,true
1099,49T057,SENTARA VIRGINIA BEACH GENERAL,1060 FIRST COLONIAL RD,VIRGINIA BEACH,VA,23454,Virginia Beach City,(757) 388-4261,Non-profit,01/01/2009,36.845117, -75.975518,false,true
1100,673042,HEALTHSOUTH SUGAR LAND REHABILITATION HOSPITAL,1325 HWY 6,SUGAR LAND,TX,77478,Fort Bend,(281) 276-7599,For profit,10/05/2010,29.597075, -95.620971,false,true
1101,493033,HEALTHSOUTH REHABILITATION HOSPITAL OF NORTHERN VA,24430 MILLSTREAM DRIVE,ALDIE,VA,20105,Loudoun,(703) 957-2000,For profit,07/27/2010,38.975601, -77.641701,false,true
1102,52T075,ST VINCENT HOSPITAL,835 S. VAN BUREN STREET,GREEN BAY,WI,54307,Brown,(920) 431-3316,Non-profit,07/01/1984,44.513288, -88.013256,false,true
1103,45T788,CORPUS CHRISTI MEDICAL CENTER,3315 S ALAMEDA ST,CORPUS CHRISTI,TX,78411,Nueces,(361) 761-5267,For profit,09/01/2012,27.796416, -97.404131,false,true
1104,673045,MESQUITE REHABILITATION INSTITUTE,1023 N BELTLINE ROAD,MESQUITE,TX,75149,Dallas,(972) 216-2400,For profit,11/03/2010,32.774237, -96.609069,false,true
1105,503025,ST LUKES REHABILITATION INSTITUTE,711 SOUTH COWLEY ST,SPOKANE,WA,99202,Spokane,(509) 473-6000,Non-profit,09/20/1994,47.658999, -117.425022,false,true
1106,49T001,REGIONAL REHAB CENTER OF NORTON COMMUNITY HOSPITAL,100 15TH ST NW,NORTON,VA,24273,Norton City,(276) 679-9030,Non-profit,10/01/1999,36.933644, -82.62978,false,true
1107,45T119,EDINBURG REGIONAL MEDICAL CTR,1102 W TRENTON,EDINBURG,TX,78539,Hidalgo,(956) 388-6758,For profit,09/30/1995,26.299359, -98.162704,false,true
1108,45T080,TITUS REGIONAL MEDICAL CENTER,2001 N. JEFFERSON,MT. PLEASANT,TX,75455,Franklin,(903) 577-6579,Government,10/01/1995,33.156684, -94.968574,false,true
1109,513030,HEALTHSOUTH MOUNTAINVIEW REGIONAL REHAB HOSPITAL,1160 VAN VOORHIS ROAD,MORGANTOWN,WV,26504,Monongalia,(304) 598-1100,For profit,03/13/1991,39.629757, -79.955946,false,true
1110,673029,HEALTHSOUTH REHABILITAITON HOSPITAL OF RICHARDSON,3351 WATERVIEW PARKWAY,RICHARDSON,TX,75080,Dallas,(972) 398-5700,For profit,04/02/2008,32.960761, -96.733518,false,true
1111,50T030,ST JOSEPH HOSPITAL,2901 SQUALICUM PARKWAY,BELLINGHAM,WA,98225,Whatcom,(360) 788-8448,Non-profit,01/01/1985,48.754899, -122.478122,false,true
1112,50T124,EVERGREEN HEALTHCARE,12040 NE 128 ST.,KIRKLAND,WA,98034,King,(425) 899-2545,Government,01/01/2003,47.675506, -122.203364,false,true
1113,673028,DALLAS LTACH LLC,8050 MEADOW ROAD,DALLAS,TX,75231,Dallas,(469) 232-6500,For profit,12/10/2007,32.777977, -96.796215,false,true
1114,45T193,ST. LUKES EPISCOPAL HOSPITAL,6720 BERTNER,HOUSTON,TX,77030,Harris,(832) 355-6281,Non-profit,10/01/1995,29.760803, -95.369506,false,true
1115,52T049,BELLIN MEMORIAL HOSPITAL,744 S WEBSTER AVE,GREEN BAY,WI,54301,Brown,(920) 433-3655,Non-profit,10/01/2011,44.513288, -88.013256,false,true
1116,45T097,BAYSHORE MEDICAL CENTER,4000 SPENCER HIGHWAY,PASADENA,TX,77504,Harris,(713) 359-5381,For profit,01/01/1996,29.693379, -95.193333,false,true
1117,673053,CORPUS CHRISTI REHABILITATION HOSPITAL LLC,5726 ESPLANADE DRIVE,CORPUS CHRISTI,TX,78414,Nueces,(361) 991-1007,For profit,06/05/2012,27.796416, -97.404131,false,true
1118,46T010,INTERMOUNTAIN MEDICAL CENTER,5121 SO. COTTONWOOD STREET,MURRAY,UT,84157,Salt Lake,(801) 507-7000,Non-profit,01/01/1990,40.656114, -111.886241,false,true
1119,673050,HEALTHSOUTH REHABILITATION HOSPITAL OF CYPRESS,13031 WORTHAM CENTER DRIVE,HOUSTON,TX,77065,Harris,(832) 280-2500,For profit,11/22/2011,29.760803, -95.369506,false,true
1120,49T021,VIRGINIA BAPTIST HOSPITAL,3300 RIVERMONT AVE,LYNCHBURG,VA,24503,Lynchburg City,(434) 200-5879,Non-profit,10/01/1986,37.414345, -79.143204,false,true
1121,45T040,COVENANT HEALTH SYSTEM,3615 19TH STREET,LUBBOCK,TX,79410,Lubbock,(806) 725-0153,Non-profit,06/30/1995,33.583578, -101.855113,false,true
1122,493028,HEALTHSOUTH REHABILITATION HOSPITAL OF VIRGINIA,5700 FITZHUGH AVENUE,RICHMOND,VA,23226,Henrico,(804) 288-5700,For profit,06/09/1992,37.540759, -77.433932,false,true
1123,673026,GULF STATES LTAC OF NEW BRAUNFELS,1445 HANZ DRIVE,NEW BRAUNFELS,TX,78130,Comal,(830) 627-7600,For profit,11/05/2007,29.709884, -98.119725,false,true
1124,45T563,BAYLOR SCOTT AND WHITE MEDICAL CENTER - GRAPEVINE,1650 W. COLLEGE STREET,GRAPEVINE,TX,76051,Tarrant,(817) 338-4400,Non-profit,07/01/2016,32.939862, -97.078367,false,true
1125,45T033,VALLEY BAPTIST HEALTH SYSTEM REHAB UNIT,2101 PEASE STREET,HARLINGEN,TX,78550,Cameron,(956) 389-1550,For profit,09/01/1995,26.190649, -97.696108,false,true
1126,673054,HEALTHSOUTH REHABILITATION HOSPITAL - SOUTH AUSTIN,330 W BEN WHITE BLVD,AUSTIN,TX,78704,Travis,(972) 308-8567,For profit,07/29/2012,30.264979, -97.746598,false,true
1127,523027,REHABILITATION HOSPITAL OF WISCONSIN,1625 COLD WATER CREEK DRIVE,WAUKESHA,WI,53188,Waukesha,(262) 521-8800,For profit,11/12/2008,43.012805, -88.235085,false,true
1128,45T101,HILLCREST BAPTIST MED CTR,100 HILLCREST MEDICAL BLVD,WACO,TX,76712,McLennan,(254) 202-8494,Non-profit,06/01/2010,31.556767, -97.129989,false,true
1129,673062,WEATHERFORD REHABILITATION HOSPITAL LLC,703 EUREKA STREET,WEATHERFORD,TX,76086,Parker,(682) 803-0100,For profit,12/10/2015,32.757462, -97.814529,false,true
1130,45T231,BSA HEALTH SYSTEM,1600 WALLACE BLVD,AMARILLO,TX,79106,Potter,(806) 212-2000,For profit,12/31/1997,35.207009, -101.832013,false,true
1131,45T229,HENDRICK CENTER FOR REHABILITATION,1934 HICKORY,ABILENE,TX,79601,Taylor,(915) 670-6000,Non-profit,09/01/1998,32.453562, -99.732654,false,true
1132,45T571,SHANNON WEST TEXAS MEMORIAL HOSPITAL,120 E.HARRIS,SAN ANGELO,TX,76903,Tom Green,(325) 481-8434,Non-profit,09/12/1997,31.46378, -100.437304,false,true
1133,45T068,MEMORIAL HERMANN TEXAS MEDICAL CENTER REHAB UNIT,6411 FANNIN,HOUSTON,TX,77030,Harris,(713) 704-2225,Non-profit,10/01/1995,29.760803, -95.369506,false,true
1134,49T007,SENTARA NORFOLK GENERAL HOSP,600 GRESHAM DRIVE,NORFOLK,VA,23507,Norfolk City,(757) 388-4261,Non-profit,05/01/1986,36.846164, -76.285913,false,true
1135,50R337,LOURDES MEDICAL CENTER,520 N 4TH AVE,PASCO,WA,99302,Franklin,(509) 542-3021,Non-profit,02/01/2005,46.241552, -119.117372,false,true
1136,45T869,DOCTORS HOSPITAL AT RENAISSANCE,5501 S. MCCOLL,EDINBURG,TX,78539,Hidalgo,(956) 362-6607,Physician,01/01/2006,26.299359, -98.162704,false,true
1137,673034,RELIANT REHABILITATION HOSPITAL NORTH HOUSTON,117 VISION PARK BLVD,SHENANDOAH,TX,77302,Montgomery,(936) 444-1700,Physician,01/23/2009,30.179105, -95.458471,false,true
1138,45T289,QUENTIN MEASE COMMUNITY HOSPITAL,3601 N MACGREGOR,HOUSTON,TX,77004,Harris,(713) 634-1728,Government,03/01/1996,29.760803, -95.369506,false,true
1139,673041,CARRUS REHABILITATION HOSPITAL,1810 WEST HIGHWAY 82,SHERMAN,TX,75092,Grayson,(903) 870-2600,Physician,08/27/2010,33.63559, -96.609017,false,true
1140,45T196,PARIS REGIONAL MEDICAL CENTER,820 CLARKSVILLE STREET 865 DESHONG DRIVE,PARIS,TX,75460,Lamar,(502) 596-6346,For profit,01/01/1995,33.661426, -95.556321,false,true
1141,45T058,BAPTIST HEALTH SYSTEM,7930 FLOYD CURL,SAN ANTONIO,TX,78229,Bexar,(210) 297-5192,For profit,01/01/2003,29.425173, -98.494599,false,true
1142,50T014,PROVIDENCE EVERETT MEDICAL CENTER,916 PACIFIC AVENUE,EVERETT,WA,98206,Snohomish,(502) 596-6346,Non-profit,01/01/1995,47.97913, -122.195893,false,true
1143,52T177,FROEDTERT MEMORIAL LUTHERAN HOSPITAL,9200 WEST WISCONSIN AVENUE,MILWAUKEE,WI,53226,Milwaukee,(414) 805-2893,Non-profit,06/15/2007,43.041072, -87.909421,false,true
1144,673058,VIBRA  REHABILITATION HOSPITAL OF LAKE TRAVIS,2000 MEDICAL DRIVE,LAKEWAY,TX,78734,Travis,(512) 263-4500,For profit,01/16/2015,30.363025, -97.979391,false,true
1145,513028,HEALTHSOUTH REHABILITATION HOSPITAL OF HUNTINGTON,6900 WEST COUNTRY CLUB DRIVE,HUNTINGTON,WV,25705,Cabell,(304) 733-1060,For profit,01/17/1989,38.419051, -82.445205,false,true
1146,52T088,ST AGNES HOSPITAL,430 E DIVISION ST,FOND DU LAC,WI,54935,Fond du Lac,(920) 926-4762,Non-profit,07/01/1985,43.77195, -88.433826,false,true
1147,45T669,MEDICAL CITY LEWISVILLE,500 W MAIN ST,LEWISVILLE,TX,75057,Denton,(972) 420-1769,Non-profit,06/01/2016,33.046344, -96.994166,false,true
1148,45T668,SIERRA MEDICAL CENTER,1625 MEDICAL CENTER DR.,EL PASO,TX,79902,El Paso,(915) 747-2100,For profit,06/01/2013,31.76006, -106.492257,false,true
1149,673030,KATE DISHMAN REHABILITATION HOSPITAL,2830  CALDER ST 6TH FL SOUTH,BEAUMONT,TX,77702,Jefferson,(409) 899-8380,For profit,04/24/2008,30.08617, -94.102012,false,true
1150,51T022,CHARLESTON AREA MED CNTR,501 MORRIS STREET,CHARLESTON,WV,25301,Kanawha,(304) 388-6306,Non-profit,01/01/2002,38.351194, -81.638362,false,true
1151,49T038,SMYTH COUNTY COMMUNITY HOSPITAL,245 MEDICAL PARK DRIVE,MARION,VA,24354,Smyth,(276) 378-2021,Non-profit,07/01/2011,36.834084, -81.517065,false,true
1152,45T176,MISSION REGIONAL MEDICAL CENTER,900 S. BRYAN RD.,MISSION,TX,78572,Hidalgo,(502) 596-6346,Non-profit,10/01/1998,26.212384, -98.318152,false,true
1153,45T672,PLAZA MEDICAL CTR OF FT WORTH,900 EIGHTH AVE,FORT WORTH,TX,76104,Tarrant,(817) 347-4333,For profit,02/01/2016,32.739977, -97.340038,false,true
1154,52T037,MARSHFIELD MEDICAL CENTER,611 ST. JOSEPH AVENUE,MARSHFIELD,WI,54449,Wood,(715) 387-7548,Non-profit,10/01/1983,44.691876, -90.191621,false,true
1155,673039,RELIANT REHABILITATION HOSPITAL  ABILENE,6401 DIRECTORS PARKWAY,ABILENE,TX,79606,Taylor,(325) 691-1600,For profit,10/30/2009,32.453562, -99.732654,false,true
1156,50T012,YAKIMA REGIONAL,110 SOUTH 9TH AVE,YAKIMA,WA,98902,Yakima,(509) 573-3481,For profit,01/01/1985,46.602234, -120.506093,false,true
1157,673040,SELECT REHABILITATION HOSPITAL OF SAN ANTONIO,19126 STONE HUE,SAN ANTONIO,TX,78258,Bexar,(210) 482-3400,For profit,04/06/2010,29.425173, -98.494599,false,true
1158,523028,UW HEALTH REHABILITATION HOSPITAL,5115 N BILTMORE LN,MADISON,WI,53718,Dane,(608) 592-8173,For profit,10/26/2015,43.073926, -89.385244,false,true
1159,53T014,CHEYENNE REGIONAL MEDICAL CENTER ARU,2600 EAST 18TH ST.,CHEYENNE,WY,82001,Laramie,(502) 596-6346,Non-profit,07/01/2016,41.14024, -104.818802,false,true
1160,52T102,AURORA LAKELAND MEDICAL CENTER REHAB UNIT,W3985 COUNTY RD NN,ELKHORN,WI,53121,Walworth,(262) 741-2000,Non-profit,01/01/2005,42.671889, -88.544799,false,true
1161,45T647,MEDICAL CITY DALLAS HOSPITAL,7777 FOREST LANE 9TH FLOOR - INPATIENT REHAB,DALLAS,TX,75230,Dallas,(972) 566-6751,For profit,06/01/2016,32.777977, -96.796215,false,true
1162,52T103,COMMUNITY MEMORIAL HOSPITAL,W180 N8085 TOWN HALL ROAD,MENOMONEE FALLS,WI,53051,Waukesha,(262) 257-3654,Non-profit,10/01/2009,43.178866, -88.117252,false,true
1163,673025,PAM REHABILITATION HOSPITAL OF ALLEN,1001 RAINTREE CIRCLE,ALLEN,TX,75013,Collin,(972) 908-2015,For profit,11/14/2007,33.104193, -96.671738,false,true
1164,45T104,GUADALUPE REGIONAL MEDICAL CTR,1215 EAST COURT STREET,SEGUIN,TX,78155,Guadalupe,(830) 401-7789,Non-profit,10/01/2004,29.580782, -97.968526,false,true
1165,673036,SELECT REHABILITATION HOSPITAL OF DENTON,2620 SCRIPTURE STREET,DENTON,TX,76201,Denton,(940) 297-6500,For profit,12/24/2008,33.215533, -97.13245,false,true
1166,49T075,DANVILLE REGIONAL MEDICAL CTR,142 SOUTH MAIN STREET,DANVILLE,VA,24541,Danville City,(434) 799-4526,For profit,01/01/1995,36.586137, -79.395299,false,true
1167,52T030,WAUSAU HOSPITAL,333 PINE RIDGE BLVD,WAUSAU,WI,54401,Marathon,(715) 847-2450,For profit,07/01/1989,44.960789, -89.630165,false,true
1168,46T009,UNIVERSITY OF UTAH HOSPITALS AND CLINICS,50 NORTH MEDICAL DRIVE,SALT LAKE CITY,UT,84132,Salt Lake,(801) 585-2800,Government,07/01/1995,40.758478, -111.888142,false,true
1169,49T018,AUGUSTA HEALTH,78 MEDICAL CENTER DR,FISHERSVILLE,VA,22939,Staunton City,(540) 932-5939,Non-profit,01/01/1985,38.101731, -78.973824,false,true
1170,49T122,INOVA REHAB CENTER@INOVA MOUNT VERNON HOSPITAL,2501 PARKERS LANE,ALEXANDRIA,VA,22306,Fairfax,(703) 664-7513,Non-profit,01/01/1984,38.804665, -77.043614,false,true
1171,673060,TEXAS REHABILITATION HOSPITAL OF ARLINGTON,900 W ARBROOK BLVD,ARLINGTON,TX,76015,Tarrant,(682) 308-9867,For profit,08/10/2015,32.735594, -97.10711,false,true
1172,49T112,CJW MEDICAL CENTER,1401 JOHNSTON-WILLIS DRIVE,RICHMOND,VA,23235,Richmond City,(804) 330-2169,For profit,01/01/1996,37.540759, -77.433932,false,true
1173,53T008,SAGEWEST HEALTH CARE,2100 WEST SUNSET BLVD,RIVERTON,WY,82501,Fremont,(307) 335-6384,For profit,01/01/2017,43.024647, -108.392051,false,true
1174,52T087,GUNDERSEN LUTHERAN MEDICAL CENTER INC,1900 SOUTH AVENUE,LA CROSSE,WI,54601,La Crosse,(608) 775-3064,Non-profit,05/01/1984,43.808767, -91.25186,false,true
1175,49T017,MARYVIEW CENTER FOR PHYSICAL REHABILITATION,3636 HIGH STREET,PORTSMOUTH,VA,23707,Portsmouth City,(757) 398-4160,Non-profit,06/17/2002,36.833873, -76.297735,false,true
1176,52T136,ST JOSEPHS HOSPITAL,5000 WEST CHAMBERS STREET,MILWAUKEE,WI,53210,Milwaukee,(414) 447-2130,Non-profit,07/01/1987,43.041072, -87.909421,false,true
1177,45T271,WISE HEALTH SYSTEM,2000 S. FM 51,DECATUR,TX,76234,Wise,(940) 626-2992,Government,11/12/2015,33.234147, -97.586489,false,true
1178,533027,ELKHORN VALLEY REHABILITATION HOSPITAL LLC,5715 EAST 2ND STREET,CASPER,WY,82609,Natrona,(307) 265-0005,For profit,02/26/2008,42.850087, -106.325203,false,true
1179,45T222,CHCA CONROE LP,504 MEDICAL CENTER BLVD,CONROE,TX,77304,Montgomery,(936) 525-3964,For profit,01/01/2014,30.313044, -95.458141,false,true
1180,45T137,BAYLOR MEDICAL CENTER AT ALL SAINTS,1400 EIGHTH AVENUE,FORT WORTH,TX,76104,Tarrant,(817) 926-2544,Non-profit,06/30/2010,32.739977, -97.340038,false,true
1181,463027,NORTHERN UTAH REHABILITATION HOSPITAL,5825 HARRISON BOULEVARD,SOUTH OGDEN,UT,84403,Weber,(801) 475-5254,For profit,05/22/2014,41.191869, -111.969659,false,true
1182,47T003,THE UNIVERSITY OF VERMONT MEDICAL CENTER INPATIENT,FANNY ALLEN CAMPUS 790 COLLEGE PARKWAY,COLCHESTER,VT,5446,Chittenden,(802) 847-5732,Non-profit,10/01/1983,44.543794, -73.148215,false,true
1183,45T184,MEMORIAL HERMANN HOSPITAL,7737 SW FWY,HOUSTON,TX,77074,Harris,(713) 867-3394,Non-profit,06/30/1996,29.760803, -95.369506,false,true
1184,52T048,MERCY MEDICAL CENTER,500 SOUTH OAKWOOD ROAD,OSHKOSH,WI,54904,Winnebago,(920) 223-0199,Non-profit,10/01/1990,44.020796, -88.540014,false,true
1185,673043,HEALTHSOUTH REHABILITATION HOSPITAL OF DALLAS,7930 NORTHAVEN ROAD,DALLAS,TX,75230,Dallas,(214) 706-8200,For profit,10/07/2010,32.777977, -96.796215,false,true
1186,493030,SHELTERING ARMS HOSPITAL SOUTH,13700 SAINT FRANCIS BLVD SUITE 400,MIDLOTHIAN,VA,23114,Chesterfield,(804) 342-4320,Non-profit,11/14/2005,37.503672, -77.651735,false,true
1187,50T079,GOOD SAMARITAN HOSPITAL,407 14TH AVENUE SE,PUYALLUP,WA,98371,Pierce,(253) 697-5192,Non-profit,10/01/1983,47.177438, -122.292318,false,true
1188,50T015,MULTICARE AUBURN MEDICAL CENTER,202 N DIVISION ST,AUBURN,WA,98001,King,(253) 833-7711,Non-profit,01/01/2008,47.307522, -122.22575,false,true
1189,45T347,HUNTSVILLE MEMORIAL HOSPITAL,"110 MEMORIAL HOSPITAL DRIVE P.O. BOX 4001, HUNTSVILLE, TX",HUNTSVILLE,TX,77340,Walker,(936) 291-3411,Non-profit,11/01/2005,30.720391, -95.551435,false,true
1190,45T643,PROVIDENCE IN-PATIENT REHABILITATION CENTER,230 CALLE DEL NORTE,LAREDO,TX,78041,Webb,(956) 693-5094,For profit,01/01/2008,27.507114, -99.507505,false,true
1191,45T431,ST DAVIDS MEDICAL CENTER,919 E 32ND ST,AUSTIN,TX,78705,Travis,(512) 544-5117,Non-profit,10/01/2009,30.264979, -97.746598,false,true
1192,45T346,MEMORIAL HERMANN BAPTIST BEAUMONT,3080 COLLEGE ST,BEAUMONT,TX,77701,Jefferson,(409) 212-5000,Non-profit,08/25/2004,30.08617, -94.102012,false,true
1193,673055,ACCEL REHABILITATION HOSPITAL OF PLANO,2301 MARSH LANE SUITE 200,PLANO,TX,75093,Collin,(972) 899-5510,For profit,01/04/2013,33.019695, -96.697586,false,true
1194,673064,ICARE REHABILITATION HOSPITAL,3100 PETERS COLONY ROAD,FLOWER MOUND,TX,75022,Denton,(214) 513-0310,For profit,07/05/2016,33.034065, -97.079639,false,true
1195,50T008,UNIVERSITY OF WASHINGTON MED CTR,1959 N.E. PACIFIC AVE.,SEATTLE,WA,98195,King,(206) 598-8351,Government,07/01/1984,47.603229, -122.33028,false,true
1196,45T644,WEST HOUSTON MEDICAL CENTER,12141 RICHMOND AVE,HOUSTON,TX,77082,Harris,(281) 558-3444,For profit,01/01/1996,29.760803, -95.369506,false,true
1197,673027,CENTRAL TEXAS REHABILITATION HOSPITAL,700 W 45TH ST,AUSTIN,TX,78705,Travis,(512) 407-2101,For profit,11/30/2007,30.264979, -97.746598,false,true
1198,46T003,SALT LAKE REGIONAL MEDICAL CENTER,1050 EAST SOUTH TEMPLE,SALT LAKE CITY,UT,84102,Salt Lake,(801) 350-4113,For profit,09/01/1999,40.758478, -111.888142,false,true
